code,name,line,address,latitude,longitude,type,,insert,insert query,"현재 위도,경도,지도 값 비어있으면 안나오게 필터 걸어놓음"
4703,419민주묘지,UI,,,,,,,,
1907,가능,1,경기도 의정부시 평화로 633,37.748577,127.044213,2,,"insert into safe_location (type, latitude, longitude, name, address, code, line) values (","insert into safe_location (type, latitude, longitude, name, address, code, line) values (2, 37.748577, 127.044213,  ""가능"",  ""경기도 의정부시 평화로 633"", 1907, ""1"");",
340,가락시장,3,서울특별시 송파구 송파대로 지하 257,37.492522,127.118234,2,,,"insert into safe_location (type, latitude, longitude, name, address, code, line) values (2, 37.492522, 127.118234,  ""가락시장"",  ""서울특별시 송파구 송파대로 지하 257"", 340, ""3"");",
2818,가락시장,8,서울특별시 송파구 송파대로 지하 257,37.492522,127.118234,2,,,"insert into safe_location (type, latitude, longitude, name, address, code, line) values (2, 37.492522, 127.118234,  ""가락시장"",  ""서울특별시 송파구 송파대로 지하 257"", 2818, ""8"");",
1702,가산디지털단지,1,서울특별시 금천구 벚꽃로 309,37.481072,126.882343,2,,,"insert into safe_location (type, latitude, longitude, name, address, code, line) values (2, 37.481072, 126.882343,  ""가산디지털단지"",  ""서울특별시 금천구 벚꽃로 309"", 1702, ""1"");",
2748,가산디지털단지,7,서울특별시 금천구 벚꽃로 309,37.481072,126.882343,2,,,"insert into safe_location (type, latitude, longitude, name, address, code, line) values (2, 37.481072, 126.882343,  ""가산디지털단지"",  ""서울특별시 금천구 벚꽃로 309"", 2748, ""7"");",
4107,가양,9,서울특별시 강서구 양천로 지하 485,37.561391,126.854456,2,,,"insert into safe_location (type, latitude, longitude, name, address, code, line) values (2, 37.561391, 126.854456,  ""가양"",  ""서울특별시 강서구 양천로 지하 485"", 4107, ""9"");",
4704,가오리,UI,,,,,,,,
3216,가재울,I2,인천광역시 서구 가좌동 288,37.484192,126.683673,2,,,"insert into safe_location (type, latitude, longitude, name, address, code, line) values (2, 37.484192, 126.683673,  ""가재울"",  ""인천광역시 서구 가좌동 288"", 3216, ""I2"");",
3211,가정,I2,인천광역시 서구 가정동 116-5,37.524649,126.675539,2,,,"insert into safe_location (type, latitude, longitude, name, address, code, line) values (2, 37.524649, 126.675539,  ""가정"",  ""인천광역시 서구 가정동 116-5"", 3211, ""I2"");",
3212,가정중앙시장,I2,인천광역시 서구 가정동 529,37.517054,126.676672,2,,,"insert into safe_location (type, latitude, longitude, name, address, code, line) values (2, 37.517054, 126.676672,  ""가정중앙시장"",  ""인천광역시 서구 가정동 529"", 3212, ""I2"");",
1265,가좌,K,서울특별시 서대문구 수색로 27,37.568491,126.915487,2,,,"insert into safe_location (type, latitude, longitude, name, address, code, line) values (2, 37.568491, 126.915487,  ""가좌"",  ""서울특별시 서대문구 수색로 27"", 1265, ""K"");",
1851,가천대,B,경기도 성남시 수정구 성남대로 지하 1332,37.448605,127.126697,2,,,"insert into safe_location (type, latitude, longitude, name, address, code, line) values (2, 37.448605, 127.126697,  ""가천대"",  ""경기도 성남시 수정구 성남대로 지하 1332"", 1851, ""B"");",
1323,가평,G,경기도 가평군 가평읍 문화로 13-42,37.814536,127.510739,2,,,"insert into safe_location (type, latitude, longitude, name, address, code, line) values (2, 37.814536, 127.510739,  ""가평"",  ""경기도 가평군 가평읍 문화로 13-42"", 1323, ""G"");",
1816,간석,1,인천광역시 남동구 석정로 522-14,37.464737,126.694181,2,,,"insert into safe_location (type, latitude, longitude, name, address, code, line) values (2, 37.464737, 126.694181,  ""간석"",  ""인천광역시 남동구 석정로 522-14"", 1816, ""1"");",
3123,간석오거리,I,인천광역시 남동구 경인로 지하 642,37.467048,126.707938,2,,,"insert into safe_location (type, latitude, longitude, name, address, code, line) values (2, 37.467048, 126.707938,  ""간석오거리"",  ""인천광역시 남동구 경인로 지하 642"", 3123, ""I"");",
1312,갈매,G,경기도 구리시 갈매동 경춘북로 229,37.634118,127.114757,2,,,"insert into safe_location (type, latitude, longitude, name, address, code, line) values (2, 37.634118, 127.114757,  ""갈매"",  ""경기도 구리시 갈매동 경춘북로 229"", 1312, ""G"");",
3117,갈산,I,인천광역시 부평구 부평대로 지하 286,37.517268,126.721514,2,,,"insert into safe_location (type, latitude, longitude, name, address, code, line) values (2, 37.517268, 126.721514,  ""갈산"",  ""인천광역시 부평구 부평대로 지하 286"", 3117, ""I"");",
222,강남,2,서울특별시 강남구 강남대로 지하 396,37.497175,127.027926,2,,,"insert into safe_location (type, latitude, longitude, name, address, code, line) values (2, 37.497175, 127.027926,  ""강남"",  ""서울특별시 강남구 강남대로 지하 396"", 222, ""2"");",
4307,강남,S,서울특별시 강남구 강남대로 지하 396,37.497175,127.027926,2,,,"insert into safe_location (type, latitude, longitude, name, address, code, line) values (2, 37.497175, 127.027926,  ""강남"",  ""서울특별시 강남구 강남대로 지하 396"", 4307, ""S"");",
1849,강남구청,B,서울특별시 강남구 학동로 지하 346,37.517186,127.04128,2,,,"insert into safe_location (type, latitude, longitude, name, address, code, line) values (2, 37.517186, 127.04128,  ""강남구청"",  ""서울특별시 강남구 학동로 지하 346"", 1849, ""B"");",
2732,강남구청,7,서울특별시 강남구 학동로 지하 346,37.517186,127.04128,2,,,"insert into safe_location (type, latitude, longitude, name, address, code, line) values (2, 37.517186, 127.04128,  ""강남구청"",  ""서울특별시 강남구 학동로 지하 346"", 2732, ""7"");",
4502,강남대,E,경기도 용인시 기흥구 중부대로 578,37.270161,127.126033,2,,,"insert into safe_location (type, latitude, longitude, name, address, code, line) values (2, 37.270161, 127.126033,  ""강남대"",  ""경기도 용인시 기흥구 중부대로 578"", 4502, ""E"");",
2549,강동,5,서울특별시 강동구 천호대로 지하 1097,37.535804,127.132481,2,,,"insert into safe_location (type, latitude, longitude, name, address, code, line) values (2, 37.535804, 127.132481,  ""강동"",  ""서울특별시 강동구 천호대로 지하 1097"", 2549, ""5"");",
2813,강동구청,8,서울특별시 강동구 올림픽로 지하 550,37.530341,127.120508,2,,,"insert into safe_location (type, latitude, longitude, name, address, code, line) values (2, 37.530341, 127.120508,  ""강동구청"",  ""서울특별시 강동구 올림픽로 지하 550"", 2813, ""8"");",
1269,강매,K,경기도 고양시 덕양구 소원로 202,37.612314,126.843223,2,,,"insert into safe_location (type, latitude, longitude, name, address, code, line) values (2, 37.612314, 126.843223,  ""강매"",  ""경기도 고양시 덕양구 소원로 202"", 1269, ""K"");",
214,강변,2,서울특별시 광진구 강변역로 53,37.535095,127.094681,2,,,"insert into safe_location (type, latitude, longitude, name, address, code, line) values (2, 37.535095, 127.094681,  ""강변"",  ""서울특별시 광진구 강변역로 53"", 214, ""2"");",
1326,강촌,G,강원도 춘천시 남산면 강촌로 150,37.805723,127.634146,2,,,"insert into safe_location (type, latitude, longitude, name, address, code, line) values (2, 37.805723, 127.634146,  ""강촌"",  ""강원도 춘천시 남산면 강촌로 150"", 1326, ""G"");",
2559,개롱,5,서울특별시 송파구 오금로 지하 402,37.498079,127.13482,2,,,"insert into safe_location (type, latitude, longitude, name, address, code, line) values (2, 37.498079, 127.13482,  ""개롱"",  ""서울특별시 송파구 오금로 지하 402"", 2559, ""5"");",
1801,개봉,1,서울특별시 구로구 경인로40길 47,37.494594,126.85868,2,,,"insert into safe_location (type, latitude, longitude, name, address, code, line) values (2, 37.494594, 126.85868,  ""개봉"",  ""서울특별시 구로구 경인로40길 47"", 1801, ""1"");",
1027,개포동,B,서울특별시 강남구 개포로 지하 420,37.489116,127.06614,2,,,"insert into safe_location (type, latitude, longitude, name, address, code, line) values (2, 37.489116, 127.06614,  ""개포동"",  ""서울특별시 강남구 개포로 지하 420"", 1027, ""B"");",
4101,개화,9,서울특별시 강서구 개화동로8길 19,37.578608,126.798153,2,,,"insert into safe_location (type, latitude, longitude, name, address, code, line) values (2, 37.578608, 126.798153,  ""개화"",  ""서울특별시 강서구 개화동로8길 19"", 4101, ""9"");",
2512,개화산,5,서울특별시 강서구 양천로 22,37.572399,126.806171,2,,,"insert into safe_location (type, latitude, longitude, name, address, code, line) values (2, 37.572399, 126.806171,  ""개화산"",  ""서울특별시 강서구 양천로 22"", 2512, ""5"");",
2560,거여,5,서울특별시 송파구 오금로 지하 499,37.493105,127.14415,2,,,"insert into safe_location (type, latitude, longitude, name, address, code, line) values (2, 37.493105, 127.14415,  ""거여"",  ""서울특별시 송파구 오금로 지하 499"", 2560, ""5"");",
212,건대입구,2,서울특별시 광진구 아차산로 243,37.540693,127.07023,2,,,"insert into safe_location (type, latitude, longitude, name, address, code, line) values (2, 37.540693, 127.07023,  ""건대입구"",  ""서울특별시 광진구 아차산로 243"", 212, ""2"");",
2729,건대입구,7,서울특별시 광진구 능동로 지하 110,37.540693,127.07023,2,,,"insert into safe_location (type, latitude, longitude, name, address, code, line) values (2, 37.540693, 127.07023,  ""건대입구"",  ""서울특별시 광진구 능동로 지하 110"", 2729, ""7"");",
3203,검단사거리,I2,인천광역시 서구 왕길동 234-1번지,37.60185,126.657108,2,,,"insert into safe_location (type, latitude, longitude, name, address, code, line) values (2, 37.60185, 126.657108,  ""검단사거리"",  ""인천광역시 서구 왕길동 234-1번지"", 3203, ""I2"");",
3201,검단오류,I2,인천광역시 서구 오류동 450-4,37.594877,126.627178,2,,,"insert into safe_location (type, latitude, longitude, name, address, code, line) values (2, 37.594877, 126.627178,  ""검단오류"",  ""인천광역시 서구 오류동 450-4"", 3201, ""I2"");",
3208,검바위,I2,인천광역시 서구 검암동 72-15,37.561405,126.677566,2,,,"insert into safe_location (type, latitude, longitude, name, address, code, line) values (2, 37.561405, 126.677566,  ""검바위"",  ""인천광역시 서구 검암동 72-15"", 3208, ""I2"");",
3207,검암,I2,인천시 서구 검암동 370-25,37.569104,126.673728,2,,,"insert into safe_location (type, latitude, longitude, name, address, code, line) values (2, 37.569104, 126.673728,  ""검암"",  ""인천시 서구 검암동 370-25"", 3207, ""I2"");",
4209,검암,A,인천광역시 서구 검바위로 26,37.569104,126.673728,2,,,"insert into safe_location (type, latitude, longitude, name, address, code, line) values (2, 37.569104, 126.673728,  ""검암"",  ""인천광역시 서구 검바위로 26"", 4209, ""A"");",
1504,경기광주,KK,,37.399907,127.25263,,,,,
4610,경기도청북부청사,U,경기도 의정부시 장곡로 615,37.75059,127.071495,2,,,"insert into safe_location (type, latitude, longitude, name, address, code, line) values (2, 37.75059, 127.071495,  ""경기도청북부청사"",  ""경기도 의정부시 장곡로 615"", 4610, ""U"");",
1451,경마공원,4,경기도 과천시 경마공원대로 지하 105,37.443885,127.007888,2,,,"insert into safe_location (type, latitude, longitude, name, address, code, line) values (2, 37.443885, 127.007888,  ""경마공원"",  ""경기도 과천시 경마공원대로 지하 105"", 1451, ""4"");",
317,경복궁,3,서울특별시 종로구 사직로 지하 130,37.575762,126.97353,2,,,"insert into safe_location (type, latitude, longitude, name, address, code, line) values (2, 37.575762, 126.97353,  ""경복궁"",  ""서울특별시 종로구 사직로 지하 130"", 317, ""3"");",
3115,경인교대입구,I,인천광역시 계양구 계양대로 지하 162,37.538157,126.722597,2,,,"insert into safe_location (type, latitude, longitude, name, address, code, line) values (2, 37.538157, 126.722597,  ""경인교대입구"",  ""인천광역시 계양구 계양대로 지하 162"", 3115, ""I"");",
4604,경전철의정부,U,경기도 의정부시 신흥로 237,37.737202,127.043257,2,,,"insert into safe_location (type, latitude, longitude, name, address, code, line) values (2, 37.737202, 127.043257,  ""경전철의정부"",  ""경기도 의정부시 신흥로 237"", 4604, ""U"");",
341,경찰병원,3,서울특별시 송파구 중대로 지하 149,37.495918,127.12454,2,,,"insert into safe_location (type, latitude, longitude, name, address, code, line) values (2, 37.495918, 127.12454,  ""경찰병원"",  ""서울특별시 송파구 중대로 지하 149"", 341, ""3"");",
3114,계산,I,인천광역시 계양구 경명대로 지하 1089,37.543238,126.728128,2,,,"insert into safe_location (type, latitude, longitude, name, address, code, line) values (2, 37.543238, 126.728128,  ""계산"",  ""인천광역시 계양구 경명대로 지하 1089"", 3114, ""I"");",
3110,계양,I,인천광역시 계양구 다남로 24,37.571462,126.735637,2,,,"insert into safe_location (type, latitude, longitude, name, address, code, line) values (2, 37.571462, 126.735637,  ""계양"",  ""인천광역시 계양구 다남로 24"", 3110, ""I"");",
4208,계양,A,인천광역시 계양구 다남로 24,37.571462,126.735637,2,,,"insert into safe_location (type, latitude, longitude, name, address, code, line) values (2, 37.571462, 126.735637,  ""계양"",  ""인천광역시 계양구 다남로 24"", 4208, ""A"");",
2553,고덕,5,서울특별시 강동구 고덕로 지하 253,37.555004,127.154151,2,,,"insert into safe_location (type, latitude, longitude, name, address, code, line) values (2, 37.555004, 127.154151,  ""고덕"",  ""서울특별시 강동구 고덕로 지하 253"", 2553, ""5"");",
2641,고려대,6,서울특별시 성북구 종암로 지하 1,37.590508,127.036296,2,,,"insert into safe_location (type, latitude, longitude, name, address, code, line) values (2, 37.590508, 127.036296,  ""고려대"",  ""서울특별시 성북구 종암로 지하 1"", 2641, ""6"");",
329,고속터미널,3,서울특별시 서초구 신반포로 지하 188,37.50481,127.004943,2,,,"insert into safe_location (type, latitude, longitude, name, address, code, line) values (2, 37.50481, 127.004943,  ""고속터미널"",  ""서울특별시 서초구 신반포로 지하 188"", 329, ""3"");",
2736,고속터미널,7,서울특별시 서초구 신반포로 지하 188,37.50481,127.004943,2,,,"insert into safe_location (type, latitude, longitude, name, address, code, line) values (2, 37.50481, 127.004943,  ""고속터미널"",  ""서울특별시 서초구 신반포로 지하 188"", 2736, ""7"");",
4123,고속터미널,9,서울특별시 서초구 신반포로 지하 188,37.50481,127.004943,2,,,"insert into safe_location (type, latitude, longitude, name, address, code, line) values (2, 37.50481, 127.004943,  ""고속터미널"",  ""서울특별시 서초구 신반포로 지하 188"", 4123, ""9"");",
1757,고잔,4,경기도 안산시 단원구 중앙대로 784,37.316777,126.823249,2,,,"insert into safe_location (type, latitude, longitude, name, address, code, line) values (2, 37.316777, 126.823249,  ""고잔"",  ""경기도 안산시 단원구 중앙대로 784"", 1757, ""4"");",
4513,고진,E,경기도 용인시 처인구 경안천로 141,37.24484,127.214251,2,,,"insert into safe_location (type, latitude, longitude, name, address, code, line) values (2, 37.24484, 127.214251,  ""고진"",  ""경기도 용인시 처인구 경안천로 141"", 4513, ""E"");",
1272,곡산,K,경기도 고양시 일산동구 경의로 160,37.645676,126.801762,2,,,"insert into safe_location (type, latitude, longitude, name, address, code, line) values (2, 37.645676, 126.801762,  ""곡산"",  ""경기도 고양시 일산동구 경의로 160"", 1272, ""K"");",
4612,곤제,U,경기도 의정부시 천보로 173,37.750471,127.083715,2,,,"insert into safe_location (type, latitude, longitude, name, address, code, line) values (2, 37.750471, 127.083715,  ""곤제"",  ""경기도 의정부시 천보로 173"", 4612, ""U"");",
1506,곤지암,KK,,37.351315,127.34674,,,,,
1262,공덕,K,서울특별시 마포구 마포대로 지하 92,37.544018,126.951592,2,,,"insert into safe_location (type, latitude, longitude, name, address, code, line) values (2, 37.544018, 126.951592,  ""공덕"",  ""서울특별시 마포구 마포대로 지하 92"", 1262, ""K"");",
1292,공덕,A,서울특별시 마포구 마포대로 지하 92,37.544018,126.951592,2,,,"insert into safe_location (type, latitude, longitude, name, address, code, line) values (2, 37.544018, 126.951592,  ""공덕"",  ""서울특별시 마포구 마포대로 지하 92"", 1292, ""A"");",
2530,공덕,5,서울특별시 마포구 마포대로 지하 100,37.544018,126.951592,2,,,"insert into safe_location (type, latitude, longitude, name, address, code, line) values (2, 37.544018, 126.951592,  ""공덕"",  ""서울특별시 마포구 마포대로 지하 100"", 2530, ""5"");",
2627,공덕,6,서울특별시 마포구 백범로 지하 200,37.544018,126.951592,2,,,"insert into safe_location (type, latitude, longitude, name, address, code, line) values (2, 37.544018, 126.951592,  ""공덕"",  ""서울특별시 마포구 백범로 지하 200"", 2627, ""6"");",
2718,공릉,7,서울특별시 노원구 동일로 지하 1074,37.625742,127.072896,2,,,"insert into safe_location (type, latitude, longitude, name, address, code, line) values (2, 37.625742, 127.072896,  ""공릉"",  ""서울특별시 노원구 동일로 지하 1074"", 2718, ""7"");",
4103,공항시장,9,서울특별시 강서구 방화동로 지하 30,37.563726,126.810678,2,,,"insert into safe_location (type, latitude, longitude, name, address, code, line) values (2, 37.563726, 126.810678,  ""공항시장"",  ""서울특별시 강서구 방화동로 지하 30"", 4103, ""9"");",
4212,공항화물청사,A,인천광역시 중구 공항동로135번길 86,37.458366,126.476241,2,,,"insert into safe_location (type, latitude, longitude, name, address, code, line) values (2, 37.458366, 126.476241,  ""공항화물청사"",  ""인천광역시 중구 공항동로135번길 86"", 4212, ""A"");",
1453,과천,4,경기도 과천시 별양로 지하 177,37.433021,126.996568,2,,,"insert into safe_location (type, latitude, longitude, name, address, code, line) values (2, 37.433021, 126.996568,  ""과천"",  ""경기도 과천시 별양로 지하 177"", 1453, ""4"");",
1705,관악,1,경기도 안양시 만안구 경수대로 1273번길 46,37.419232,126.908706,2,,,"insert into safe_location (type, latitude, longitude, name, address, code, line) values (2, 37.419232, 126.908706,  ""관악"",  ""경기도 안양시 만안구 경수대로 1273번길 46"", 1705, ""1"");",
4319,광교,S,경기도 수원시 영통구 이의동 742,37.30211,127.044483,2,,,"insert into safe_location (type, latitude, longitude, name, address, code, line) values (2, 37.30211, 127.044483,  ""광교"",  ""경기도 수원시 영통구 이의동 742"", 4319, ""S"");",
4318,광교중앙,S,,37.288617,127.051478,,,,,
2547,광나루,5,서울특별시 광진구 아차산로 지하 571,37.545303,127.10357,2,,,"insert into safe_location (type, latitude, longitude, name, address, code, line) values (2, 37.545303, 127.10357,  ""광나루"",  ""서울특별시 광진구 아차산로 지하 571"", 2547, ""5"");",
1750,광명,1,경기도 광명시 광명역로 21,37.416182,126.884466,2,,,"insert into safe_location (type, latitude, longitude, name, address, code, line) values (2, 37.416182, 126.884466,  ""광명"",  ""경기도 광명시 광명역로 21"", 1750, ""1"");",
2750,광명사거리,7,경기도 광명시 오리로 지하 980,37.479252,126.854876,2,,,"insert into safe_location (type, latitude, longitude, name, address, code, line) values (2, 37.479252, 126.854876,  ""광명사거리"",  ""경기도 광명시 오리로 지하 980"", 2750, ""7"");",
1019,광운대,1,서울특별시 노원구 석계로 98-2,37.623632,127.061835,2,,,"insert into safe_location (type, latitude, longitude, name, address, code, line) values (2, 37.623632, 127.061835,  ""광운대"",  ""서울특별시 노원구 석계로 98-2"", 1019, ""1"");",
1308,광운대,G,서울특별시 노원구 석계로 98-2,37.623632,127.061835,2,,,"insert into safe_location (type, latitude, longitude, name, address, code, line) values (2, 37.623632, 127.061835,  ""광운대"",  ""서울특별시 노원구 석계로 98-2"", 1308, ""G"");",
2534,광화문,5,서울특별시 종로구 세종대로 지하 172,37.571026,126.976669,2,,,"insert into safe_location (type, latitude, longitude, name, address, code, line) values (2, 37.571026, 126.976669,  ""광화문"",  ""서울특별시 종로구 세종대로 지하 172"", 2534, ""5"");",
2625,광흥창,6,서울특별시 마포구 독막로 지하 165,37.547456,126.931993,2,,,"insert into safe_location (type, latitude, longitude, name, address, code, line) values (2, 37.547456, 126.931993,  ""광흥창"",  ""서울특별시 마포구 독막로 지하 165"", 2625, ""6"");",
223,교대,2,서울특별시 서초구 서초대로 지하 294,37.493415,127.01408,2,,,"insert into safe_location (type, latitude, longitude, name, address, code, line) values (2, 37.493415, 127.01408,  ""교대"",  ""서울특별시 서초구 서초대로 지하 294"", 223, ""2"");",
330,교대,3,서울특별시 서초구 서초대로 지하 294,37.493415,127.01408,2,,,"insert into safe_location (type, latitude, longitude, name, address, code, line) values (2, 37.493415, 127.01408,  ""교대"",  ""서울특별시 서초구 서초대로 지하 294"", 330, ""3"");",
1701,구로,1,서울특별시 구로구 구로중앙로 174,37.503039,126.881966,2,,,"insert into safe_location (type, latitude, longitude, name, address, code, line) values (2, 37.503039, 126.881966,  ""구로"",  ""서울특별시 구로구 구로중앙로 174"", 1701, ""1"");",
232,구로디지털단지,2,서울특별시 구로구 도림천로 477,37.485266,126.901401,2,,,"insert into safe_location (type, latitude, longitude, name, address, code, line) values (2, 37.485266, 126.901401,  ""구로디지털단지"",  ""서울특별시 구로구 도림천로 477"", 232, ""2"");",
1026,구룡,B,서울특별시 강남구 개포로 지하 403,37.486839,127.058856,2,,,"insert into safe_location (type, latitude, longitude, name, address, code, line) values (2, 37.486839, 127.058856,  ""구룡"",  ""서울특별시 강남구 개포로 지하 403"", 1026, ""B"");",
1205,구리,K,경기도 구리시 건원대로34번길 32-29,37.603392,127.143869,2,,,"insert into safe_location (type, latitude, longitude, name, address, code, line) values (2, 37.603392, 127.143869,  ""구리"",  ""경기도 구리시 건원대로34번길 32-29"", 1205, ""K"");",
4121,구반포,9,서울특별시 서초구 신반포로 지하 17,37.501364,126.987332,2,,,"insert into safe_location (type, latitude, longitude, name, address, code, line) values (2, 37.501364, 126.987332,  ""구반포"",  ""서울특별시 서초구 신반포로 지하 17"", 4121, ""9"");",
2616,구산,6,서울특별시 은평구 연서로 지하 137-1,37.611377,126.91727,2,,,"insert into safe_location (type, latitude, longitude, name, address, code, line) values (2, 37.611377, 126.91727,  ""구산"",  ""서울특별시 은평구 연서로 지하 137-1"", 2616, ""6"");",
1863,구성,B,경기도 용인시 기흥구 용구대로 2403,37.298969,127.105664,2,,,"insert into safe_location (type, latitude, longitude, name, address, code, line) values (2, 37.298969, 127.105664,  ""구성"",  ""경기도 용인시 기흥구 용구대로 2403"", 1863, ""B"");",
213,구의,2,서울특별시 광진구 아차산로 384-1,37.537077,127.085916,2,,,"insert into safe_location (type, latitude, longitude, name, address, code, line) values (2, 37.537077, 127.085916,  ""구의"",  ""서울특별시 광진구 아차산로 384-1"", 213, ""2"");",
1813,구일,1,서울특별시 구로구 구일로 133,37.496756,126.870793,2,,,"insert into safe_location (type, latitude, longitude, name, address, code, line) values (2, 37.496756, 126.870793,  ""구일"",  ""서울특별시 구로구 구일로 133"", 1813, ""1"");",
310,구파발,3,서울특별시 은평구 진관2로 지하 15-25,37.636763,126.918821,2,,,"insert into safe_location (type, latitude, longitude, name, address, code, line) values (2, 37.636763, 126.918821,  ""구파발"",  ""서울특별시 은평구 진관2로 지하 15-25"", 310, ""3"");",
1214,국수,K,경기도 양평군 양서면 국수역길 45,37.516169,127.399367,2,,,"insert into safe_location (type, latitude, longitude, name, address, code, line) values (2, 37.516169, 127.399367,  ""국수"",  ""경기도 양평군 양서면 국수역길 45"", 1214, ""K"");",
3138,국제업무지구,I,인천광역시 연수구 인천타워대로 지하 334,37.399907,126.630347,2,,,"insert into safe_location (type, latitude, longitude, name, address, code, line) values (2, 37.399907, 126.630347,  ""국제업무지구"",  ""인천광역시 연수구 인천타워대로 지하 334"", 3138, ""I"");",
4114,국회의사당,9,서울특별시 영등포구 국회대로 지하 758,37.528105,126.917874,2,,,"insert into safe_location (type, latitude, longitude, name, address, code, line) values (2, 37.528105, 126.917874,  ""국회의사당"",  ""서울특별시 영등포구 국회대로 지하 758"", 4114, ""9"");",
2545,군자,5,서울특별시 광진구 천호대로 지하 550,37.557121,127.079542,2,,,"insert into safe_location (type, latitude, longitude, name, address, code, line) values (2, 37.557121, 127.079542,  ""군자"",  ""서울특별시 광진구 천호대로 지하 550"", 2545, ""5"");",
2727,군자,7,서울특별시 광진구 천호대로 지하 550,37.557121,127.079542,2,,,"insert into safe_location (type, latitude, longitude, name, address, code, line) values (2, 37.557121, 127.079542,  ""군자"",  ""서울특별시 광진구 천호대로 지하 550"", 2727, ""7"");",
1709,군포,1,경기도 군포시 군포역1길 27,37.35356,126.948462,2,,,"insert into safe_location (type, latitude, longitude, name, address, code, line) values (2, 37.35356, 126.948462,  ""군포"",  ""경기도 군포시 군포역1길 27"", 1709, ""1"");",
1324,굴봉산,G,강원도 춘천시 남산면 서백길 192,37.832067,127.557695,2,,,"insert into safe_location (type, latitude, longitude, name, address, code, line) values (2, 37.832067, 127.557695,  ""굴봉산"",  ""강원도 춘천시 남산면 서백길 192"", 1324, ""G"");",
2760,굴포천,7,인천광역시 서구 환경로28번길 42,37.506997,126.73128,2,,,"insert into safe_location (type, latitude, longitude, name, address, code, line) values (2, 37.506997, 126.73128,  ""굴포천"",  ""인천광역시 서구 환경로28번길 42"", 2760, ""7"");",
2551,굽은다리,5,서울특별시 강동구 양재대로 지하 1572,37.545477,127.142853,2,,,"insert into safe_location (type, latitude, longitude, name, address, code, line) values (2, 37.545477, 127.142853,  ""굽은다리"",  ""서울특별시 강동구 양재대로 지하 1572"", 2551, ""5"");",
3111,귤현,I,인천광역시 계양구 장제로 1136,37.566379,126.742654,2,,,"insert into safe_location (type, latitude, longitude, name, address, code, line) values (2, 37.566379, 126.742654,  ""귤현"",  ""인천광역시 계양구 장제로 1136"", 3111, ""I"");",
1316,금곡,G,경기도 남양주시 경춘로 903,37.637382,127.207853,2,,,"insert into safe_location (type, latitude, longitude, name, address, code, line) values (2, 37.637382, 127.207853,  ""금곡"",  ""경기도 남양주시 경춘로 903"", 1316, ""G"");",
1279,금릉,K,경기도 파주시 금릉역로 85,37.751322,126.765347,2,,,"insert into safe_location (type, latitude, longitude, name, address, code, line) values (2, 37.751322, 126.765347,  ""금릉"",  ""경기도 파주시 금릉역로 85"", 1279, ""K"");",
1458,금정,4,경기도 군포시 군포로 750,37.372221,126.943429,2,,,"insert into safe_location (type, latitude, longitude, name, address, code, line) values (2, 37.372221, 126.943429,  ""금정"",  ""경기도 군포시 군포로 750"", 1458, ""4"");",
1708,금정,1,경기도 군포시 군포로 750,37.372221,126.943429,2,,,"insert into safe_location (type, latitude, longitude, name, address, code, line) values (2, 37.372221, 126.943429,  ""금정"",  ""경기도 군포시 군포로 750"", 1708, ""1"");",
1703,금천구청,1,서울특별시 금천구 시흥대로63길 91,37.455626,126.89398,2,,,"insert into safe_location (type, latitude, longitude, name, address, code, line) values (2, 37.455626, 126.89398,  ""금천구청"",  ""서울특별시 금천구 시흥대로63길 91"", 1703, ""1"");",
1280,금촌,K,경기도 파주시 새꽃로 193,37.766217,126.774644,2,,,"insert into safe_location (type, latitude, longitude, name, address, code, line) values (2, 37.766217, 126.774644,  ""금촌"",  ""경기도 파주시 새꽃로 193"", 1280, ""K"");",
324,금호,3,서울특별시 성동구 동호로 지하 104,37.548034,127.015872,2,,,"insert into safe_location (type, latitude, longitude, name, address, code, line) values (2, 37.548034, 127.015872,  ""금호"",  ""서울특별시 성동구 동호로 지하 104"", 324, ""3"");",
1865,기흥,B,경기도 용인시 기흥구 중부대로 지하 460,37.275619,127.115936,2,,,"insert into safe_location (type, latitude, longitude, name, address, code, line) values (2, 37.275619, 127.115936,  ""기흥"",  ""경기도 용인시 기흥구 중부대로 지하 460"", 1865, ""B"");",
4501,기흥,E,경기도 용인시 기흥구 중부대로 468,37.275619,127.115936,2,,,"insert into safe_location (type, latitude, longitude, name, address, code, line) values (2, 37.275619, 127.115936,  ""기흥"",  ""경기도 용인시 기흥구 중부대로 468"", 4501, ""E"");",
2550,길동,5,서울특별시 강동구 양재대로 지하 1480,37.537801,127.140004,2,,,"insert into safe_location (type, latitude, longitude, name, address, code, line) values (2, 37.537801, 127.140004,  ""길동"",  ""서울특별시 강동구 양재대로 지하 1480"", 2550, ""5"");",
417,길음,4,서울특별시 성북구 동소문로 지하 248,37.603407,127.025053,2,,,"insert into safe_location (type, latitude, longitude, name, address, code, line) values (2, 37.603407, 127.025053,  ""길음"",  ""서울특별시 성북구 동소문로 지하 248"", 417, ""4"");",
4511,김량장,E,경기도 용인시 처인구 금학로 315,37.237247,127.198781,2,,,"insert into safe_location (type, latitude, longitude, name, address, code, line) values (2, 37.237247, 127.198781,  ""김량장"",  ""경기도 용인시 처인구 금학로 315"", 4511, ""E"");",
1327,김유정,G,강원도 춘천시 신동면 김유정로 1435,37.818466,127.71434,2,,,"insert into safe_location (type, latitude, longitude, name, address, code, line) values (2, 37.818466, 127.71434,  ""김유정"",  ""강원도 춘천시 신동면 김유정로 1435"", 1327, ""G"");",
2513,김포공항,5,서울특별시 강서구 하늘길 지하 77,37.562434,126.801058,2,,,"insert into safe_location (type, latitude, longitude, name, address, code, line) values (2, 37.562434, 126.801058,  ""김포공항"",  ""서울특별시 강서구 하늘길 지하 77"", 2513, ""5"");",
4102,김포공항,9,서울특별시 강서구 하늘길 지하 77,37.562434,126.801058,2,,,"insert into safe_location (type, latitude, longitude, name, address, code, line) values (2, 37.562434, 126.801058,  ""김포공항"",  ""서울특별시 강서구 하늘길 지하 77"", 4102, ""9"");",
4207,김포공항,A,서울특별시 강서구 하늘길 지하 77,37.562434,126.801058,2,,,"insert into safe_location (type, latitude, longitude, name, address, code, line) values (2, 37.562434, 126.801058,  ""김포공항"",  ""서울특별시 강서구 하늘길 지하 77"", 4207, ""A"");",
260,까치산,2,서울특별시 강서구 강서로 지하 54,37.531768,126.846683,2,,,"insert into safe_location (type, latitude, longitude, name, address, code, line) values (2, 37.531768, 126.846683,  ""까치산"",  ""서울특별시 강서구 강서로 지하 54"", 260, ""2"");",
2519,까치산,5,서울특별시 강서구 강서로 지하 54,37.531768,126.846683,2,,,"insert into safe_location (type, latitude, longitude, name, address, code, line) values (2, 37.531768, 126.846683,  ""까치산"",  ""서울특별시 강서구 강서로 지하 54"", 2519, ""5"");",
2753,까치울,7,경기도 부천시 원미구 길주로 지하 626,37.506207,126.810939,2,,,"insert into safe_location (type, latitude, longitude, name, address, code, line) values (2, 37.506207, 126.810939,  ""까치울"",  ""경기도 부천시 원미구 길주로 지하 626"", 2753, ""7"");",
227,낙성대,2,서울특별시 관악구 남부순환로 지하 1928,37.47693,126.963693,2,,,"insert into safe_location (type, latitude, longitude, name, address, code, line) values (2, 37.47693, 126.963693,  ""낙성대"",  ""서울특별시 관악구 남부순환로 지하 1928"", 227, ""2"");",
2747,남구로,7,서울특별시 구로구 도림로 지하 7,37.486056,126.887249,2,,,"insert into safe_location (type, latitude, longitude, name, address, code, line) values (2, 37.486056, 126.887249,  ""남구로"",  ""서울특별시 구로구 도림로 지하 7"", 2747, ""7"");",
3225,남동구청,I2,인천광역시 남동구 만수동 1006,37.448161,126.736939,2,,,"insert into safe_location (type, latitude, longitude, name, address, code, line) values (2, 37.448161, 126.736939,  ""남동구청"",  ""인천광역시 남동구 만수동 1006"", 3225, ""I2"");",
1883,남동인더스파크,SU,인천광역시 남동구 은청로 17,37.407722,126.695216,2,,,"insert into safe_location (type, latitude, longitude, name, address, code, line) values (2, 37.407722, 126.695216,  ""남동인더스파크"",  ""인천광역시 남동구 은청로 17"", 1883, ""SU"");",
331,남부터미널,3,서울특별시 서초구 서초중앙로 지하 31,37.485013,127.016189,2,,,"insert into safe_location (type, latitude, longitude, name, address, code, line) values (2, 37.485013, 127.016189,  ""남부터미널"",  ""서울특별시 서초구 서초중앙로 지하 31"", 331, ""3"");",
2739,남성,7,서울특별시 동작구 사당로 지하 218,37.484596,126.971251,2,,,"insert into safe_location (type, latitude, longitude, name, address, code, line) values (2, 37.484596, 126.971251,  ""남성"",  ""서울특별시 동작구 사당로 지하 218"", 2739, ""7"");",
1002,남영,1,서울특별시 용산구 한강대로77길 25,37.541021,126.9713,2,,,"insert into safe_location (type, latitude, longitude, name, address, code, line) values (2, 37.541021, 126.9713,  ""남영"",  ""서울특별시 용산구 한강대로77길 25"", 1002, ""1"");",
1328,남춘천,G,강원도 춘천시 영서로 2260,37.864007,127.723792,2,,,"insert into safe_location (type, latitude, longitude, name, address, code, line) values (2, 37.864007, 127.723792,  ""남춘천"",  ""강원도 춘천시 영서로 2260"", 1328, ""G"");",
434,남태령,4,서울특별시 서초구 과천대로 지하 816,37.463873,126.989134,2,,,"insert into safe_location (type, latitude, longitude, name, address, code, line) values (2, 37.463873, 126.989134,  ""남태령"",  ""서울특별시 서초구 과천대로 지하 816"", 434, ""4"");",
2823,남한산성입구,8,경기도 성남시 수정구 산성대로 지하 445,37.451535,127.159816,2,,,"insert into safe_location (type, latitude, longitude, name, address, code, line) values (2, 37.451535, 127.159816,  ""남한산성입구"",  ""경기도 성남시 수정구 산성대로 지하 445"", 2823, ""8"");",
2737,내방,7,서울특별시 서초구 서초대로 지하 103,37.487618,126.993513,2,,,"insert into safe_location (type, latitude, longitude, name, address, code, line) values (2, 37.487618, 126.993513,  ""내방"",  ""서울특별시 서초구 서초대로 지하 103"", 2737, ""7"");",
4118,노들,9,서울특별시 동작구 노량진로 지하 238,37.512887,126.953222,2,,,"insert into safe_location (type, latitude, longitude, name, address, code, line) values (2, 37.512887, 126.953222,  ""노들"",  ""서울특별시 동작구 노량진로 지하 238"", 4118, ""9"");",
1004,노량진,1,서울특별시 동작구 노량진로 151,37.514219,126.942454,2,,,"insert into safe_location (type, latitude, longitude, name, address, code, line) values (2, 37.514219, 126.942454,  ""노량진"",  ""서울특별시 동작구 노량진로 151"", 1004, ""1"");",
4117,노량진,9,서울특별시 동작구 노량진로 지하 130,37.514219,126.942454,2,,,"insert into safe_location (type, latitude, longitude, name, address, code, line) values (2, 37.514219, 126.942454,  ""노량진"",  ""서울특별시 동작구 노량진로 지하 130"", 4117, ""9"");",
411,노원,4,서울특별시 노원구 상계로 69-1,37.655128,127.061368,2,,,"insert into safe_location (type, latitude, longitude, name, address, code, line) values (2, 37.655128, 127.061368,  ""노원"",  ""서울특별시 노원구 상계로 69-1"", 411, ""4"");",
2715,노원,7,서울특별시 노원구 동일로 지하 1409,37.655128,127.061368,2,,,"insert into safe_location (type, latitude, longitude, name, address, code, line) values (2, 37.655128, 127.061368,  ""노원"",  ""서울특별시 노원구 동일로 지하 1409"", 2715, ""7"");",
313,녹번,3,서울특별시 은평구 통일로 지하 602-1,37.600927,126.935756,2,,,"insert into safe_location (type, latitude, longitude, name, address, code, line) values (2, 37.600927, 126.935756,  ""녹번"",  ""서울특별시 은평구 통일로 지하 602-1"", 313, ""3"");",
2630,녹사평,6,서울특별시 용산구 녹사평대로 지하 195,37.534675,126.986695,2,,,"insert into safe_location (type, latitude, longitude, name, address, code, line) values (2, 37.534675, 126.986695,  ""녹사평"",  ""서울특별시 용산구 녹사평대로 지하 195"", 2630, ""6"");",
1908,녹양,1,경기도 의정부시 평화로 757,37.75938,127.042292,2,,,"insert into safe_location (type, latitude, longitude, name, address, code, line) values (2, 37.75938, 127.042292,  ""녹양"",  ""경기도 의정부시 평화로 757"", 1908, ""1"");",
1021,녹천,1,서울특별시 도봉구 덕릉로 376,37.644799,127.051269,2,,,"insert into safe_location (type, latitude, longitude, name, address, code, line) values (2, 37.644799, 127.051269,  ""녹천"",  ""서울특별시 도봉구 덕릉로 376"", 1021, ""1"");",
2734,논현,7,서울특별시 강남구 학동로 지하 102,37.511093,127.021415,2,,,"insert into safe_location (type, latitude, longitude, name, address, code, line) values (2, 37.511093, 127.021415,  ""논현"",  ""서울특별시 강남구 학동로 지하 102"", 2734, ""7"");",
1271,능곡,K,경기도 고양시 덕양구 토당로 35,37.618808,126.820783,2,,,"insert into safe_location (type, latitude, longitude, name, address, code, line) values (2, 37.618808, 126.820783,  ""능곡"",  ""경기도 고양시 덕양구 토당로 35"", 1271, ""K"");",
2824,단대오거리,8,경기도 성남시 수정구 산성대로 지하 365,37.44521,127.156866,2,,,"insert into safe_location (type, latitude, longitude, name, address, code, line) values (2, 37.44521, 127.156866,  ""단대오거리"",  ""경기도 성남시 수정구 산성대로 지하 365"", 2824, ""8"");",
1878,달월,SU,경기도 시흥시 서해안로736번길 55,37.379681,126.745177,2,,,"insert into safe_location (type, latitude, longitude, name, address, code, line) values (2, 37.379681, 126.745177,  ""달월"",  ""경기도 시흥시 서해안로736번길 55"", 1878, ""SU"");",
2543,답십리,5,서울특별시 성동구 천호대로 지하 300,37.566747,127.052704,2,,,"insert into safe_location (type, latitude, longitude, name, address, code, line) values (2, 37.566747, 127.052704,  ""답십리"",  ""서울특별시 성동구 천호대로 지하 300"", 2543, ""5"");",
409,당고개,4,서울특별시 노원구 상계로 305,37.670272,127.079066,2,,,"insert into safe_location (type, latitude, longitude, name, address, code, line) values (2, 37.670272, 127.079066,  ""당고개"",  ""서울특별시 노원구 상계로 305"", 409, ""4"");",
237,당산,2,서울특별시 영등포구 당산로 229,37.53438,126.902281,2,,,"insert into safe_location (type, latitude, longitude, name, address, code, line) values (2, 37.53438, 126.902281,  ""당산"",  ""서울특별시 영등포구 당산로 229"", 237, ""2"");",
4113,당산,9,서울특별시 영등포구 당산로 229,37.53438,126.902281,2,,,"insert into safe_location (type, latitude, longitude, name, address, code, line) values (2, 37.53438, 126.902281,  ""당산"",  ""서울특별시 영등포구 당산로 229"", 4113, ""9"");",
1729,당정,1,경기도 군포시 당정역로 91,37.344285,126.948345,2,,,"insert into safe_location (type, latitude, longitude, name, address, code, line) values (2, 37.344285, 126.948345,  ""당정"",  ""경기도 군포시 당정역로 91"", 1729, ""1"");",
1249,대곡,K,경기도 고양시 덕양구 대주로107번길 71-81,37.631626,126.811024,2,,,"insert into safe_location (type, latitude, longitude, name, address, code, line) values (2, 37.631626, 126.811024,  ""대곡"",  ""경기도 고양시 덕양구 대주로107번길 71-81"", 1249, ""K"");",
1953,대곡,3,경기도 고양시 덕양구 대주로107번길 71-81,37.631626,126.811024,2,,,"insert into safe_location (type, latitude, longitude, name, address, code, line) values (2, 37.631626, 126.811024,  ""대곡"",  ""경기도 고양시 덕양구 대주로107번길 71-81"", 1953, ""3"");",
1452,대공원,4,경기도 과천시 대공원대로 지하 50,37.435675,127.006523,2,,,"insert into safe_location (type, latitude, longitude, name, address, code, line) values (2, 37.435675, 127.006523,  ""대공원"",  ""경기도 과천시 대공원대로 지하 50"", 1452, ""4"");",
233,대림,2,서울특별시 구로구 도림천로 351,37.49297,126.895801,2,,,"insert into safe_location (type, latitude, longitude, name, address, code, line) values (2, 37.49297, 126.895801,  ""대림"",  ""서울특별시 구로구 도림천로 351"", 233, ""2"");",
2746,대림,7,서울특별시 영등포구 도림로 지하 137,37.49297,126.895801,2,,,"insert into safe_location (type, latitude, longitude, name, address, code, line) values (2, 37.49297, 126.895801,  ""대림"",  ""서울특별시 영등포구 도림로 지하 137"", 2746, ""7"");",
1028,대모산입구,B,서울특별시 강남구 개포로 지하 522,37.491373,127.07272,2,,,"insert into safe_location (type, latitude, longitude, name, address, code, line) values (2, 37.491373, 127.07272,  ""대모산입구"",  ""서울특별시 강남구 개포로 지하 522"", 1028, ""B"");",
1005,대방,1,서울특별시 영등포구 여의대방로 300,37.513342,126.926382,2,,,"insert into safe_location (type, latitude, longitude, name, address, code, line) values (2, 37.513342, 126.926382,  ""대방"",  ""서울특별시 영등포구 여의대방로 300"", 1005, ""1"");",
1320,대성리,G,경기도 가평군 청평면 경춘로 88,37.684071,127.379319,2,,,"insert into safe_location (type, latitude, longitude, name, address, code, line) values (2, 37.684071, 127.379319,  ""대성리"",  ""경기도 가평군 청평면 경춘로 88"", 1320, ""G"");",
1752,대야미,4,경기도 군포시 대야1로 28,37.328467,126.917332,2,,,"insert into safe_location (type, latitude, longitude, name, address, code, line) values (2, 37.328467, 126.917332,  ""대야미"",  ""경기도 군포시 대야1로 28"", 1752, ""4"");",
337,대청,3,서울특별시 강남구 일원로 지하 2,37.493514,127.079532,2,,,"insert into safe_location (type, latitude, longitude, name, address, code, line) values (2, 37.493514, 127.079532,  ""대청"",  ""서울특별시 강남구 일원로 지하 2"", 337, ""3"");",
335,대치,3,서울특별시 강남구 남부순환로 지하 2952,37.494612,127.063642,2,,,"insert into safe_location (type, latitude, longitude, name, address, code, line) values (2, 37.494612, 127.063642,  ""대치"",  ""서울특별시 강남구 남부순환로 지하 2952"", 335, ""3"");",
1958,대화,3,경기도 고양시 일산서구 중앙로 지하 1569,37.676087,126.747569,2,,,"insert into safe_location (type, latitude, longitude, name, address, code, line) values (2, 37.676087, 126.747569,  ""대화"",  ""경기도 고양시 일산서구 중앙로 지하 1569"", 1958, ""3"");",
2626,대흥,6,서울특별시 마포구 대흥로 지하 85,37.547771,126.942069,2,,,"insert into safe_location (type, latitude, longitude, name, address, code, line) values (2, 37.547771, 126.942069,  ""대흥"",  ""서울특별시 마포구 대흥로 지하 85"", 2626, ""6"");",
1910,덕계,1,경기도 양주시 고덕로139번길 317,37.818486,127.056486,2,,,"insert into safe_location (type, latitude, longitude, name, address, code, line) values (2, 37.818486, 127.056486,  ""덕계"",  ""경기도 양주시 고덕로139번길 317"", 1910, ""1"");",
1208,덕소,K,경기도 남양주시 와부읍 덕소로 56,37.586781,127.208832,2,,,"insert into safe_location (type, latitude, longitude, name, address, code, line) values (2, 37.586781, 127.208832,  ""덕소"",  ""경기도 남양주시 와부읍 덕소로 56"", 1208, ""K"");",
1911,덕정,1,경기도 양주시 화합로 1356,37.843188,127.061277,2,,,"insert into safe_location (type, latitude, longitude, name, address, code, line) values (2, 37.843188, 127.061277,  ""덕정"",  ""경기도 양주시 화합로 1356"", 1911, ""1"");",
334,도곡,3,서울특별시 강남구 남부순환로 지하 2814,37.490858,127.055381,2,,,"insert into safe_location (type, latitude, longitude, name, address, code, line) values (2, 37.490858, 127.055381,  ""도곡"",  ""서울특별시 강남구 남부순환로 지하 2814"", 334, ""3"");",
1025,도곡,B,서울특별시 강남구 남부순환로 지하 2814,37.490858,127.055381,2,,,"insert into safe_location (type, latitude, longitude, name, address, code, line) values (2, 37.490858, 127.055381,  ""도곡"",  ""서울특별시 강남구 남부순환로 지하 2814"", 1025, ""B"");",
1206,도농,K,경기도 남양주시 경춘로 433,37.608806,127.161153,2,,,"insert into safe_location (type, latitude, longitude, name, address, code, line) values (2, 37.608806, 127.161153,  ""도농"",  ""경기도 남양주시 경춘로 433"", 1206, ""K"");",
247,도림천,2,서울특별시 구로구 경인로67길 160,37.514287,126.882768,2,,,"insert into safe_location (type, latitude, longitude, name, address, code, line) values (2, 37.514287, 126.882768,  ""도림천"",  ""서울특별시 구로구 경인로67길 160"", 247, ""2"");",
1902,도봉,1,서울특별시 도봉구 도봉로170길 2,37.679563,127.045595,2,,,"insert into safe_location (type, latitude, longitude, name, address, code, line) values (2, 37.679563, 127.045595,  ""도봉"",  ""서울특별시 도봉구 도봉로170길 2"", 1902, ""1"");",
1903,도봉산,1,서울특별시 도봉구 도봉로 964-33,37.689313,127.046222,2,,,"insert into safe_location (type, latitude, longitude, name, address, code, line) values (2, 37.689313, 127.046222,  ""도봉산"",  ""서울특별시 도봉구 도봉로 964-33"", 1903, ""1"");",
2712,도봉산,7,서울특별시 도봉구 도봉로 964-40,37.689313,127.046222,2,,,"insert into safe_location (type, latitude, longitude, name, address, code, line) values (2, 37.689313, 127.046222,  ""도봉산"",  ""서울특별시 도봉구 도봉로 964-40"", 2712, ""7"");",
1209,도심,K,경기도 남양주시 와부읍 덕소로 237,37.579622,127.222672,2,,,"insert into safe_location (type, latitude, longitude, name, address, code, line) values (2, 37.579622, 127.222672,  ""도심"",  ""경기도 남양주시 와부읍 덕소로 237"", 1209, ""K"");",
1817,도원,1,인천광역시 동구 참외전로 245,37.468446,126.642706,2,,,"insert into safe_location (type, latitude, longitude, name, address, code, line) values (2, 37.468446, 126.642706,  ""도원"",  ""인천광역시 동구 참외전로 245"", 1817, ""1"");",
1823,도화,1,인천광역시 남구 숙골로24번길 9,37.46607,126.668672,2,,,"insert into safe_location (type, latitude, longitude, name, address, code, line) values (2, 37.46607, 126.668672,  ""도화"",  ""인천광역시 남구 숙골로24번길 9"", 1823, ""1"");",
316,독립문,3,서울특별시 서대문구 통일로 지하 247,37.574571,126.957748,2,,,"insert into safe_location (type, latitude, longitude, name, address, code, line) values (2, 37.574571, 126.957748,  ""독립문"",  ""서울특별시 서대문구 통일로 지하 247"", 316, ""3"");",
2614,독바위,6,서울특별시 은평구 불광로 지하 129-1,37.618456,126.933031,2,,,"insert into safe_location (type, latitude, longitude, name, address, code, line) values (2, 37.618456, 126.933031,  ""독바위"",  ""서울특별시 은평구 불광로 지하 129-1"", 2614, ""6"");",
1714,독산,1,서울특별시 금천구 벚꽃로 115,37.466613,126.889249,2,,,"insert into safe_location (type, latitude, longitude, name, address, code, line) values (2, 37.466613, 126.889249,  ""독산"",  ""서울특별시 금천구 벚꽃로 115"", 1714, ""1"");",
3206,독정,I2,인천시 서구 백석동 74-1,37.585212,126.675844,2,,,"insert into safe_location (type, latitude, longitude, name, address, code, line) values (2, 37.585212, 126.675844,  ""독정"",  ""인천시 서구 백석동 74-1"", 3206, ""I2"");",
2644,돌곶이,6,서울특별시 성북구 화랑로 지하 243,37.610537,127.056431,2,,,"insert into safe_location (type, latitude, longitude, name, address, code, line) values (2, 37.610537, 127.056431,  ""돌곶이"",  ""서울특별시 성북구 화랑로 지하 243"", 2644, ""6"");",
155,동대문,1,서울특별시 종로구 종로 지하 302,37.57142,127.009745,2,,,"insert into safe_location (type, latitude, longitude, name, address, code, line) values (2, 37.57142, 127.009745,  ""동대문"",  ""서울특별시 종로구 종로 지하 302"", 155, ""1"");",
421,동대문,4,서울특별시 종로구 율곡로 지하 308,37.57142,127.009745,2,,,"insert into safe_location (type, latitude, longitude, name, address, code, line) values (2, 37.57142, 127.009745,  ""동대문"",  ""서울특별시 종로구 율곡로 지하 308"", 421, ""4"");",
205,동대문역사문화공원,2,서울특별시 중구 을지로 지하 279,37.565138,127.007896,2,,,"insert into safe_location (type, latitude, longitude, name, address, code, line) values (2, 37.565138, 127.007896,  ""동대문역사문화공원"",  ""서울특별시 중구 을지로 지하 279"", 205, ""2"");",
422,동대문역사문화공원,4,서울특별시 중구 장충단로 지하 230,37.565138,127.007896,2,,,"insert into safe_location (type, latitude, longitude, name, address, code, line) values (2, 37.565138, 127.007896,  ""동대문역사문화공원"",  ""서울특별시 중구 장충단로 지하 230"", 422, ""4"");",
2537,동대문역사문화공원,5,서울특별시 중구 마른내로 지하 162,37.565138,127.007896,2,,,"insert into safe_location (type, latitude, longitude, name, address, code, line) values (2, 37.565138, 127.007896,  ""동대문역사문화공원"",  ""서울특별시 중구 마른내로 지하 162"", 2537, ""5"");",
322,동대입구,3,서울특별시 중구 동호로 지하 256,37.559052,127.005602,2,,,"insert into safe_location (type, latitude, longitude, name, address, code, line) values (2, 37.559052, 127.005602,  ""동대입구"",  ""서울특별시 중구 동호로 지하 256"", 322, ""3"");",
1915,동두천,1,경기도 동두천시 평화로 2687,37.927878,127.05479,2,,,"insert into safe_location (type, latitude, longitude, name, address, code, line) values (2, 37.927878, 127.05479,  ""동두천"",  ""경기도 동두천시 평화로 2687"", 1915, ""1"");",
1913,동두천중앙,1,경기도 동두천시 동두천로 228,37.901885,127.056482,2,,,"insert into safe_location (type, latitude, longitude, name, address, code, line) values (2, 37.901885, 127.056482,  ""동두천중앙"",  ""경기도 동두천시 동두천로 228"", 1913, ""1"");",
3132,동막,I,인천광역시 연수구 경원대로 지하 80,37.397878,126.674005,2,,,"insert into safe_location (type, latitude, longitude, name, address, code, line) values (2, 37.397878, 126.674005,  ""동막"",  ""인천광역시 연수구 경원대로 지하 80"", 3132, ""I"");",
159,동묘앞,1,서울특별시 종로구 종로 359,37.572627,127.016429,2,,,"insert into safe_location (type, latitude, longitude, name, address, code, line) values (2, 37.572627, 127.016429,  ""동묘앞"",  ""서울특별시 종로구 종로 359"", 159, ""1"");",
2637,동묘앞,6,서울특별시 종로구 지봉로 지하 24,37.572627,127.016429,2,,,"insert into safe_location (type, latitude, longitude, name, address, code, line) values (2, 37.572627, 127.016429,  ""동묘앞"",  ""서울특별시 종로구 지봉로 지하 24"", 2637, ""6"");",
4505,동백,E,경기도 용인시 기흥구 동백죽전대로 314,37.269043,127.152716,2,,,"insert into safe_location (type, latitude, longitude, name, address, code, line) values (2, 37.269043, 127.152716,  ""동백"",  ""경기도 용인시 기흥구 동백죽전대로 314"", 4505, ""E"");",
3121,동수,I,인천광역시 부평구 경인로 지하 877,37.485312,126.718247,2,,,"insert into safe_location (type, latitude, longitude, name, address, code, line) values (2, 37.485312, 126.718247,  ""동수"",  ""인천광역시 부평구 경인로 지하 877"", 3121, ""I"");",
1808,동암,1,인천광역시 부평구 동암광장로 10,37.471408,126.702896,2,,,"insert into safe_location (type, latitude, longitude, name, address, code, line) values (2, 37.471408, 126.702896,  ""동암"",  ""인천광역시 부평구 동암광장로 10"", 1808, ""1"");",
4608,동오,U,경기도 의정부시 장곡로 471,37.745271,127.056947,2,,,"insert into safe_location (type, latitude, longitude, name, address, code, line) values (2, 37.745271, 127.056947,  ""동오"",  ""경기도 의정부시 장곡로 471"", 4608, ""U"");",
1811,동인천,1,인천광역시 중구 참외전로 121,37.475276,126.632802,2,,,"insert into safe_location (type, latitude, longitude, name, address, code, line) values (2, 37.475276, 126.632802,  ""동인천"",  ""인천광역시 중구 참외전로 121"", 1811, ""1"");",
431,동작,4,서울특별시 동작구 현충로 257,37.502971,126.979306,2,,,"insert into safe_location (type, latitude, longitude, name, address, code, line) values (2, 37.502971, 126.979306,  ""동작"",  ""서울특별시 동작구 현충로 257"", 431, ""4"");",
4120,동작,9,서울특별시 동작구 현충로 지하 220,37.502971,126.979306,2,,,"insert into safe_location (type, latitude, longitude, name, address, code, line) values (2, 37.502971, 126.979306,  ""동작"",  ""서울특별시 동작구 현충로 지하 220"", 4120, ""9"");",
4314,동천,S,,37.337928,127.102976,,,,,
3131,동춘,I,인천광역시 연수구 경원대로 지하 180,37.404737,126.681015,2,,,"insert into safe_location (type, latitude, longitude, name, address, code, line) values (2, 37.404737, 126.681015,  ""동춘"",  ""인천광역시 연수구 경원대로 지하 180"", 3131, ""I"");",
1727,두정,1,충청남도 천안시 서북구 두정로 289,36.833705,127.14896,2,,,"insert into safe_location (type, latitude, longitude, name, address, code, line) values (2, 36.833705, 127.14896,  ""두정"",  ""충청남도 천안시 서북구 두정로 289"", 1727, ""1"");",
4515,둔전,E,경기도 용인시 처인구 포곡읍 포곡로 70,37.267051,127.21364,2,,,"insert into safe_location (type, latitude, longitude, name, address, code, line) values (2, 37.267051, 127.21364,  ""둔전"",  ""경기도 용인시 처인구 포곡읍 포곡로 70"", 4515, ""E"");",
2555,둔촌동,5,서울특별시 강동구 양재대로 지하 1369,37.527788,127.136248,2,,,"insert into safe_location (type, latitude, longitude, name, address, code, line) values (2, 37.527788, 127.136248,  ""둔촌동"",  ""서울특별시 강동구 양재대로 지하 1369"", 2555, ""5"");",
4109,등촌,9,서울특별시 강서구 공항대로 지하 529,37.550632,126.865689,2,,,"insert into safe_location (type, latitude, longitude, name, address, code, line) values (2, 37.550632, 126.865689,  ""등촌"",  ""서울특별시 강서구 공항대로 지하 529"", 4109, ""9"");",
1266,디지털미디어시티,K,서울특별시 은평구 수색로 193,37.576646,126.900984,2,,,"insert into safe_location (type, latitude, longitude, name, address, code, line) values (2, 37.576646, 126.900984,  ""디지털미디어시티"",  ""서울특별시 은평구 수색로 193"", 1266, ""K"");",
1294,디지털미디어시티,A,서울특별시 마포구 성암로 지하 184,37.576646,126.900984,2,,,"insert into safe_location (type, latitude, longitude, name, address, code, line) values (2, 37.576646, 126.900984,  ""디지털미디어시티"",  ""서울특별시 마포구 성암로 지하 184"", 1294, ""A"");",
2619,디지털미디어시티,6,서울특별시 은평구 수색로 지하 175,37.576646,126.900984,2,,,"insert into safe_location (type, latitude, longitude, name, address, code, line) values (2, 37.576646, 126.900984,  ""디지털미디어시티"",  ""서울특별시 은평구 수색로 지하 175"", 2619, ""6"");",
210,뚝섬,2,서울특별시 성동구 아차산로 18,37.547184,127.047367,2,,,"insert into safe_location (type, latitude, longitude, name, address, code, line) values (2, 37.547184, 127.047367,  ""뚝섬"",  ""서울특별시 성동구 아차산로 18"", 210, ""2"");",
2730,뚝섬유원지,7,서울특별시 광진구 능동로 10,37.53154,127.066704,2,,,"insert into safe_location (type, latitude, longitude, name, address, code, line) values (2, 37.53154, 127.066704,  ""뚝섬유원지"",  ""서울특별시 광진구 능동로 10"", 2730, ""7"");",
2515,마곡,5,서울특별시 강서구 공항대로 지하 163,37.560183,126.825448,2,,,"insert into safe_location (type, latitude, longitude, name, address, code, line) values (2, 37.560183, 126.825448,  ""마곡"",  ""서울특별시 강서구 공항대로 지하 163"", 2515, ""5"");",
4105,마곡나루,9,서울특별시 강서구 마곡중앙5로 지하 2,37.567336,126.829497,2,,,"insert into safe_location (type, latitude, longitude, name, address, code, line) values (2, 37.567336, 126.829497,  ""마곡나루"",  ""서울특별시 강서구 마곡중앙5로 지하 2"", 4105, ""9"");",
1955,마두,3,경기도 고양시 일산동구 중앙로 지하 1180,37.652206,126.77762,2,,,"insert into safe_location (type, latitude, longitude, name, address, code, line) values (2, 37.652206, 126.77762,  ""마두"",  ""경기도 고양시 일산동구 중앙로 지하 1180"", 1955, ""3"");",
2714,마들,7,서울특별시 노원구 동일로 지하 1530-1,37.66494,127.057675,2,,,"insert into safe_location (type, latitude, longitude, name, address, code, line) values (2, 37.66494, 127.057675,  ""마들"",  ""서울특별시 노원구 동일로 지하 1530-1"", 2714, ""7"");",
1319,마석,G,경기도 남양주시 화도읍 마석중앙로 107,37.652782,127.311767,2,,,"insert into safe_location (type, latitude, longitude, name, address, code, line) values (2, 37.652782, 127.311767,  ""마석"",  ""경기도 남양주시 화도읍 마석중앙로 107"", 1319, ""G"");",
2542,마장,5,서울특별시 성동구 마장로 지하 296,37.5661,127.042973,2,,,"insert into safe_location (type, latitude, longitude, name, address, code, line) values (2, 37.5661, 127.042973,  ""마장"",  ""서울특별시 성동구 마장로 지하 296"", 2542, ""5"");",
3204,마전,I2,인천시 서구 마전동 999-25,37.597566,126.666998,2,,,"insert into safe_location (type, latitude, longitude, name, address, code, line) values (2, 37.597566, 126.666998,  ""마전"",  ""인천시 서구 마전동 999-25"", 3204, ""I2"");",
2561,마천,5,서울특별시 송파구 마천로57길 지하 7,37.49499,127.152781,2,,,"insert into safe_location (type, latitude, longitude, name, address, code, line) values (2, 37.49499, 127.152781,  ""마천"",  ""서울특별시 송파구 마천로57길 지하 7"", 2561, ""5"");",
2529,마포,5,서울특별시 마포구 마포대로 지하 33,37.539574,126.945932,2,,,"insert into safe_location (type, latitude, longitude, name, address, code, line) values (2, 37.539574, 126.945932,  ""마포"",  ""서울특별시 마포구 마포대로 지하 33"", 2529, ""5"");",
2621,마포구청,6,서울특별시 마포구 월드컵로 지하 190,37.563515,126.903343,2,,,"insert into safe_location (type, latitude, longitude, name, address, code, line) values (2, 37.563515, 126.903343,  ""마포구청"",  ""서울특별시 마포구 월드컵로 지하 190"", 2621, ""6"");",
3224,만수,I2,인천광역시 남동구 만수동 993,37.454911,126.732094,2,,,"insert into safe_location (type, latitude, longitude, name, address, code, line) values (2, 37.454911, 126.732094,  ""만수"",  ""인천광역시 남동구 만수동 993"", 3224, ""I2"");",
1203,망우,K,서울특별시 중랑구 망우로55길 11-10,37.59955,127.091909,2,,,"insert into safe_location (type, latitude, longitude, name, address, code, line) values (2, 37.59955, 127.091909,  ""망우"",  ""서울특별시 중랑구 망우로55길 11-10"", 1203, ""K"");",
1310,망우,G,서울특별시 중랑구 망우로55길 11-10,37.59955,127.091909,2,,,"insert into safe_location (type, latitude, longitude, name, address, code, line) values (2, 37.59955, 127.091909,  ""망우"",  ""서울특별시 중랑구 망우로55길 11-10"", 1310, ""G"");",
2622,망원,6,서울특별시 마포구 월드컵로 지하 77,37.556094,126.910052,2,,,"insert into safe_location (type, latitude, longitude, name, address, code, line) values (2, 37.556094, 126.910052,  ""망원"",  ""서울특별시 마포구 월드컵로 지하 77"", 2622, ""6"");",
1904,망월사,1,경기도 의정부시 평화로 221,37.709914,127.047455,2,,,"insert into safe_location (type, latitude, longitude, name, address, code, line) values (2, 37.709914, 127.047455,  ""망월사"",  ""경기도 의정부시 평화로 221"", 1904, ""1"");",
1869,망포,B,경기도 수원시 영통구 덕영대로 지하 1520,37.245795,127.057353,2,,,"insert into safe_location (type, latitude, longitude, name, address, code, line) values (2, 37.245795, 127.057353,  ""망포"",  ""경기도 수원시 영통구 덕영대로 지하 1520"", 1869, ""B"");",
1872,매교,B,경기도 수원시 팔달구 효원로 지하 126,37.265481,127.015678,2,,,"insert into safe_location (type, latitude, longitude, name, address, code, line) values (2, 37.265481, 127.015678,  ""매교"",  ""경기도 수원시 팔달구 효원로 지하 126"", 1872, ""B"");",
333,매봉,3,서울특별시 강남구 남부순환로 지하 2744,37.486947,127.046769,2,,,"insert into safe_location (type, latitude, longitude, name, address, code, line) values (2, 37.486947, 127.046769,  ""매봉"",  ""서울특별시 강남구 남부순환로 지하 2744"", 333, ""3"");",
1870,매탄권선,B,경기도 수원시 영통구 권선로 지하 841,37.252759,127.040566,2,,,"insert into safe_location (type, latitude, longitude, name, address, code, line) values (2, 37.252759, 127.040566,  ""매탄권선"",  ""경기도 수원시 영통구 권선로 지하 841"", 1870, ""B"");",
2720,먹골,7,서울특별시 중랑구 동일로 지하 901,37.610637,127.077725,2,,,"insert into safe_location (type, latitude, longitude, name, address, code, line) values (2, 37.610637, 127.077725,  ""먹골"",  ""서울특별시 중랑구 동일로 지하 901"", 2720, ""7"");",
2723,면목,7,서울특별시 중랑구 면목로 지하 407,37.588579,127.087503,2,,,"insert into safe_location (type, latitude, longitude, name, address, code, line) values (2, 37.588579, 127.087503,  ""면목"",  ""서울특별시 중랑구 면목로 지하 407"", 2723, ""7"");",
424,명동,4,서울특별시 중구 퇴계로 지하 126,37.560989,126.986325,2,,,"insert into safe_location (type, latitude, longitude, name, address, code, line) values (2, 37.560989, 126.986325,  ""명동"",  ""서울특별시 중구 퇴계로 지하 126"", 424, ""4"");",
2552,명일,5,서울특별시 강동구 양재대로 지하 1632,37.55137,127.143999,2,,,"insert into safe_location (type, latitude, longitude, name, address, code, line) values (2, 37.55137, 127.143999,  ""명일"",  ""서울특별시 강동구 양재대로 지하 1632"", 2552, ""5"");",
4510,명지대,E,경기도 용인시 처인구 금학로 241,37.237964,127.190294,2,,,"insert into safe_location (type, latitude, longitude, name, address, code, line) values (2, 37.237964, 127.190294,  ""명지대"",  ""경기도 용인시 처인구 금학로 241"", 4510, ""E"");",
1707,명학,1,경기도 안양시 만안구 만안로 20,37.384653,126.935433,2,,,"insert into safe_location (type, latitude, longitude, name, address, code, line) values (2, 37.384653, 126.935433,  ""명학"",  ""경기도 안양시 만안구 만안로 20"", 1707, ""1"");",
1853,모란,B,경기도 성남시 중원구 성남대로 지하 1147,37.43213,127.129087,2,,,"insert into safe_location (type, latitude, longitude, name, address, code, line) values (2, 37.43213, 127.129087,  ""모란"",  ""경기도 성남시 중원구 성남대로 지하 1147"", 1853, ""B"");",
2827,모란,8,경기도 성남시 수정구 산성대로 지하 100,37.43213,127.129087,2,,,"insert into safe_location (type, latitude, longitude, name, address, code, line) values (2, 37.43213, 127.129087,  ""모란"",  ""경기도 성남시 수정구 산성대로 지하 100"", 2827, ""8"");",
3223,모래내시장,I2,인천광역시 남구 구월동 341-6,37.45583,126.719298,2,,,"insert into safe_location (type, latitude, longitude, name, address, code, line) values (2, 37.45583, 126.719298,  ""모래내시장"",  ""인천광역시 남구 구월동 341-6"", 3223, ""I2"");",
2521,목동,5,서울특별시 양천구 오목로 지하 245,37.526065,126.864931,2,,,"insert into safe_location (type, latitude, longitude, name, address, code, line) values (2, 37.526065, 126.864931,  ""목동"",  ""서울특별시 양천구 오목로 지하 245"", 2521, ""5"");",
2814,몽촌토성,8,서울특별시 송파구 올림픽로 지하 383,37.517409,127.112359,2,,,"insert into safe_location (type, latitude, longitude, name, address, code, line) values (2, 37.517409, 127.112359,  ""몽촌토성"",  ""서울특별시 송파구 올림픽로 지하 383"", 2814, ""8"");",
315,무악재,3,서울특별시 서대문구 통일로 지하 361,37.582299,126.950291,2,,,"insert into safe_location (type, latitude, longitude, name, address, code, line) values (2, 37.582299, 126.950291,  ""무악재"",  ""서울특별시 서대문구 통일로 지하 361"", 315, ""3"");",
235,문래,2,서울특별시 영등포구 당산로 지하 28,37.517933,126.89476,2,,,"insert into safe_location (type, latitude, longitude, name, address, code, line) values (2, 37.517933, 126.89476,  ""문래"",  ""서울특별시 영등포구 당산로 지하 28"", 235, ""2"");",
1284,문산,K,경기도 파주시 문산읍 문산역로 94,37.854619,126.788047,2,,,"insert into safe_location (type, latitude, longitude, name, address, code, line) values (2, 37.854619, 126.788047,  ""문산"",  ""경기도 파주시 문산읍 문산역로 94"", 1284, ""K"");",
2819,문정,8,서울특별시 송파구 송파대로 지하 179,37.485855,127.1225,2,,,"insert into safe_location (type, latitude, longitude, name, address, code, line) values (2, 37.485855, 127.1225,  ""문정"",  ""서울특별시 송파구 송파대로 지하 179"", 2819, ""8"");",
3127,문학경기장,I,인천광역시 연수구 예술로 지하 2,37.434935,126.698579,2,,,"insert into safe_location (type, latitude, longitude, name, address, code, line) values (2, 37.434935, 126.698579,  ""문학경기장"",  ""인천광역시 연수구 예술로 지하 2"", 3127, ""I"");",
1858,미금,B,경기도 성남시 분당구 성남대로 지하 156,37.350077,127.10891,2,,,"insert into safe_location (type, latitude, longitude, name, address, code, line) values (2, 37.350077, 127.10891,  ""미금"",  ""경기도 성남시 분당구 성남대로 지하 156"", 1858, ""B"");",
415,미아,4,서울특별시 강북구 도봉로 지하 198,37.62667,127.025983,2,,,"insert into safe_location (type, latitude, longitude, name, address, code, line) values (2, 37.62667, 127.025983,  ""미아"",  ""서울특별시 강북구 도봉로 지하 198"", 415, ""4"");",
416,미아사거리,4,서울특별시 강북구 도봉로 지하 50,37.613292,127.030053,2,,,"insert into safe_location (type, latitude, longitude, name, address, code, line) values (2, 37.613292, 127.030053,  ""미아사거리"",  ""서울특별시 강북구 도봉로 지하 50"", 416, ""4"");",
3112,박촌,I,인천광역시 계양구 장제로 지하 992,37.553703,126.745077,2,,,"insert into safe_location (type, latitude, longitude, name, address, code, line) values (2, 37.553703, 126.745077,  ""박촌"",  ""인천광역시 계양구 장제로 지하 992"", 3112, ""I"");",
1753,반월,4,경기도 안산시 상록구 건건로 119-10,37.312212,126.903524,2,,,"insert into safe_location (type, latitude, longitude, name, address, code, line) values (2, 37.312212, 126.903524,  ""반월"",  ""경기도 안산시 상록구 건건로 119-10"", 1753, ""4"");",
2735,반포,7,서울특별시 서초구 신반포로 지하 241,37.508178,127.011727,2,,,"insert into safe_location (type, latitude, longitude, name, address, code, line) values (2, 37.508178, 127.011727,  ""반포"",  ""서울특별시 서초구 신반포로 지하 241"", 2735, ""7"");",
4601,발곡,U,경기도 의정부시 장곡로 258,37.727048,127.052803,2,,,"insert into safe_location (type, latitude, longitude, name, address, code, line) values (2, 37.727048, 127.052803,  ""발곡"",  ""경기도 의정부시 장곡로 258"", 4601, ""U"");",
2516,발산,5,서울특별시 강서구 공항대로 지하 267,37.558598,126.837668,2,,,"insert into safe_location (type, latitude, longitude, name, address, code, line) values (2, 37.558598, 126.837668,  ""발산"",  ""서울특별시 강서구 공항대로 지하 267"", 2516, ""5"");",
225,방배,2,서울특별시 서초구 방배로 지하 80,37.481426,126.997596,2,,,"insert into safe_location (type, latitude, longitude, name, address, code, line) values (2, 37.481426, 126.997596,  ""방배"",  ""서울특별시 서초구 방배로 지하 80"", 225, ""2"");",
2557,방이,5,서울특별시 송파구 양재대로 지하 1127,37.508857,127.126133,2,,,"insert into safe_location (type, latitude, longitude, name, address, code, line) values (2, 37.508857, 127.126133,  ""방이"",  ""서울특별시 송파구 양재대로 지하 1127"", 2557, ""5"");",
1901,방학,1,서울특별시 도봉구 도봉로150다길 3,37.667503,127.044273,2,,,"insert into safe_location (type, latitude, longitude, name, address, code, line) values (2, 37.667503, 127.044273,  ""방학"",  ""서울특별시 도봉구 도봉로150다길 3"", 1901, ""1"");",
2511,방화,5,서울특별시 강서구 금낭화로 지하 132,37.577446,126.812741,2,,,"insert into safe_location (type, latitude, longitude, name, address, code, line) values (2, 37.577446, 126.812741,  ""방화"",  ""서울특별시 강서구 금낭화로 지하 132"", 2511, ""5"");",
1405,배방,1,충청남도 아산시 배방읍 온천대로 1967,36.777629,127.052991,2,,,"insert into safe_location (type, latitude, longitude, name, address, code, line) values (2, 36.777629, 127.052991,  ""배방"",  ""충청남도 아산시 배방읍 온천대로 1967"", 1405, ""1"");",
1273,백마,K,경기도 고양시 일산동구 경의로 318,37.658239,126.794461,2,,,"insert into safe_location (type, latitude, longitude, name, address, code, line) values (2, 37.658239, 126.794461,  ""백마"",  ""경기도 고양시 일산동구 경의로 318"", 1273, ""K"");",
1954,백석,3,경기도 고양시 일산동구 중앙로 지하 1042,37.643114,126.78787,2,,,"insert into safe_location (type, latitude, longitude, name, address, code, line) values (2, 37.643114, 126.78787,  ""백석"",  ""경기도 고양시 일산동구 중앙로 지하 1042"", 1954, ""3"");",
1325,백양리,G,강원도 춘천시 남산면 북한강변길 690,37.830779,127.58933,2,,,"insert into safe_location (type, latitude, longitude, name, address, code, line) values (2, 37.830779, 127.58933,  ""백양리"",  ""강원도 춘천시 남산면 북한강변길 690"", 1325, ""G"");",
1807,백운,1,인천광역시 부평구 마장로55번길 14,37.483664,126.707704,2,,,"insert into safe_location (type, latitude, longitude, name, address, code, line) values (2, 37.483664, 126.707704,  ""백운"",  ""인천광역시 부평구 마장로55번길 14"", 1807, ""1"");",
2633,버티고개,6,서울특별시 중구 다산로 지하 38,37.548013,127.007055,2,,,"insert into safe_location (type, latitude, longitude, name, address, code, line) values (2, 37.548013, 127.007055,  ""버티고개"",  ""서울특별시 중구 다산로 지하 38"", 2633, ""6"");",
1457,범계,4,경기도 안양시 동안구 동안로 지하 130,37.389793,126.950806,2,,,"insert into safe_location (type, latitude, longitude, name, address, code, line) values (2, 37.389793, 126.950806,  ""범계"",  ""경기도 안양시 동안구 동안로 지하 130"", 1457, ""4"");",
4603,범골,U,경기도 의정부시 신흥로 141,37.728755,127.04353,2,,,"insert into safe_location (type, latitude, longitude, name, address, code, line) values (2, 37.728755, 127.04353,  ""범골"",  ""경기도 의정부시 신흥로 141"", 4603, ""U"");",
1313,별내,G,경기도 남양주시 경춘북로 375,37.64202,127.12684,2,,,"insert into safe_location (type, latitude, longitude, name, address, code, line) values (2, 37.64202, 127.12684,  ""별내"",  ""경기도 남양주시 경춘북로 375"", 1313, ""G"");",
1716,병점,1,경기도 화성시 떡전골로 97,37.207503,127.032731,2,,,"insert into safe_location (type, latitude, longitude, name, address, code, line) values (2, 37.207503, 127.032731,  ""병점"",  ""경기도 화성시 떡전골로 97"", 1716, ""1"");",
2744,보라매,7,서울특별시 동작구 상도로 지하 2,37.499872,126.920428,2,,,"insert into safe_location (type, latitude, longitude, name, address, code, line) values (2, 37.499872, 126.920428,  ""보라매"",  ""서울특별시 동작구 상도로 지하 2"", 2744, ""7"");",
2639,보문,6,서울특별시 성북구 보문로 지하 116,37.585286,127.019381,2,,,"insert into safe_location (type, latitude, longitude, name, address, code, line) values (2, 37.585286, 127.019381,  ""보문"",  ""서울특별시 성북구 보문로 지하 116"", 2639, ""6"");",
4712,보문,UI,,37.585286,127.019381,,,,,
1914,보산,1,경기도 동두천시 평화로 2539,37.913702,127.057277,2,,,"insert into safe_location (type, latitude, longitude, name, address, code, line) values (2, 37.913702, 127.057277,  ""보산"",  ""경기도 동두천시 평화로 2539"", 1914, ""1"");",
1861,보정,B,경기도 용인시 기흥구 용구대로 지하 2560,37.312752,127.108196,2,,,"insert into safe_location (type, latitude, longitude, name, address, code, line) values (2, 37.312752, 127.108196,  ""보정"",  ""경기도 용인시 기흥구 용구대로 지하 2560"", 1861, ""B"");",
4514,보평,E,경기도 용인시 처인구 경안천로 313,37.258965,127.218457,2,,,"insert into safe_location (type, latitude, longitude, name, address, code, line) values (2, 37.258965, 127.218457,  ""보평"",  ""경기도 용인시 처인구 경안천로 313"", 4514, ""E"");",
1031,복정,B,서울특별시 송파구 송파대로 지하 6,37.470047,127.126662,2,,,"insert into safe_location (type, latitude, longitude, name, address, code, line) values (2, 37.470047, 127.126662,  ""복정"",  ""서울특별시 송파구 송파대로 지하 6"", 1031, ""B"");",
2821,복정,8,서울특별시 송파구 송파대로 지하 6,37.470047,127.126662,2,,,"insert into safe_location (type, latitude, longitude, name, address, code, line) values (2, 37.470047, 127.126662,  ""복정"",  ""서울특별시 송파구 송파대로 지하 6"", 2821, ""8"");",
1401,봉명,1,충청남도 천안시 동남구 차돌로 51,36.801215,127.135763,2,,,"insert into safe_location (type, latitude, longitude, name, address, code, line) values (2, 36.801215, 127.135763,  ""봉명"",  ""충청남도 천안시 동남구 차돌로 51"", 1401, ""1"");",
4129,봉은사,9,서울특별시 강남구 봉은사로 지하 601,37.514219,127.060245,2,,,"insert into safe_location (type, latitude, longitude, name, address, code, line) values (2, 37.514219, 127.060245,  ""봉은사"",  ""서울특별시 강남구 봉은사로 지하 601"", 4129, ""9"");",
229,봉천,2,서울특별시 관악구 남부순환로 지하 1721,37.482362,126.941892,2,,,"insert into safe_location (type, latitude, longitude, name, address, code, line) values (2, 37.482362, 126.941892,  ""봉천"",  ""서울특별시 관악구 남부순환로 지하 1721"", 229, ""2"");",
2648,봉화산,6,서울특별시 중랑구 신내로 지하 232,37.617283,127.091401,2,,,"insert into safe_location (type, latitude, longitude, name, address, code, line) values (2, 37.617283, 127.091401,  ""봉화산"",  ""서울특별시 중랑구 신내로 지하 232"", 2648, ""6"");",
1815,부개,1,인천광역시 부평구 수변로 22,37.488418,126.74109,2,,,"insert into safe_location (type, latitude, longitude, name, address, code, line) values (2, 37.488418, 126.74109,  ""부개"",  ""인천광역시 부평구 수변로 22"", 1815, ""1"");",
1509,부발,KK,,37.260192,127.490277,,,,,
1804,부천,1,경기도 부천시 소사구 부천로 1,37.48405,126.782686,2,,,"insert into safe_location (type, latitude, longitude, name, address, code, line) values (2, 37.48405, 126.782686,  ""부천"",  ""경기도 부천시 소사구 부천로 1"", 1804, ""1"");",
2757,부천시청,7,경기도 부천시 원미구 길주로 지하 202,37.504631,126.763538,2,,,"insert into safe_location (type, latitude, longitude, name, address, code, line) values (2, 37.504631, 126.763538,  ""부천시청"",  ""경기도 부천시 원미구 길주로 지하 202"", 2757, ""7"");",
2754,부천종합운동장,7,경기도 부천시 원미구 길주로 지하 502,37.50538,126.797337,2,,,"insert into safe_location (type, latitude, longitude, name, address, code, line) values (2, 37.50538, 126.797337,  ""부천종합운동장"",  ""경기도 부천시 원미구 길주로 지하 502"", 2754, ""7"");",
1806,부평,1,인천광역시 부평구 광장로 16,37.489493,126.724805,2,,,"insert into safe_location (type, latitude, longitude, name, address, code, line) values (2, 37.489493, 126.724805,  ""부평"",  ""인천광역시 부평구 광장로 16"", 1806, ""1"");",
3120,부평,I,인천광역시 부평구 광장로 지하 15,37.489493,126.724805,2,,,"insert into safe_location (type, latitude, longitude, name, address, code, line) values (2, 37.489493, 126.724805,  ""부평"",  ""인천광역시 부평구 광장로 지하 15"", 3120, ""I"");",
2761,부평구청,7,인천광역시 부평구 길주로 지하 527,37.508336,126.720548,2,,,"insert into safe_location (type, latitude, longitude, name, address, code, line) values (2, 37.508336, 126.720548,  ""부평구청"",  ""인천광역시 부평구 길주로 지하 527"", 2761, ""7"");",
3118,부평구청,I,인천광역시 부평구 부평대로 지하 189,37.508336,126.720548,2,,,"insert into safe_location (type, latitude, longitude, name, address, code, line) values (2, 37.508336, 126.720548,  ""부평구청"",  ""인천광역시 부평구 부평대로 지하 189"", 3118, ""I"");",
3122,부평삼거리,I,인천광역시 부평구 경인로 지하 765,37.477679,126.710208,2,,,"insert into safe_location (type, latitude, longitude, name, address, code, line) values (2, 37.477679, 126.710208,  ""부평삼거리"",  ""인천광역시 부평구 경인로 지하 765"", 3122, ""I"");",
3119,부평시장,I,인천광역시 부평구 부평대로 지하 69,37.498383,126.722244,2,,,"insert into safe_location (type, latitude, longitude, name, address, code, line) values (2, 37.498383, 126.722244,  ""부평시장"",  ""인천광역시 부평구 부평대로 지하 69"", 3119, ""I"");",
4709,북한산보국문,UI,,,,,,,,
4701,북한산우이,UI,,,,,,,,
312,불광,3,서울특별시 은평구 통일로 지하 723-1,37.610469,126.929887,2,,,"insert into safe_location (type, latitude, longitude, name, address, code, line) values (2, 37.610469, 126.929887,  ""불광"",  ""서울특별시 은평구 통일로 지하 723-1"", 312, ""3"");",
2613,불광,6,서울특별시 은평구 통일로 지하 723-1,37.610469,126.929887,2,,,"insert into safe_location (type, latitude, longitude, name, address, code, line) values (2, 37.610469, 126.929887,  ""불광"",  ""서울특별시 은평구 통일로 지하 723-1"", 2613, ""6"");",
2724,사가정,7,서울특별시 중랑구 사가정로 지하 393,37.580894,127.088478,2,,,"insert into safe_location (type, latitude, longitude, name, address, code, line) values (2, 37.580894, 127.088478,  ""사가정"",  ""서울특별시 중랑구 사가정로 지하 393"", 2724, ""7"");",
226,사당,2,서울특별시 동작구 남부순환로 지하 2089,37.47653,126.981685,2,,,"insert into safe_location (type, latitude, longitude, name, address, code, line) values (2, 37.47653, 126.981685,  ""사당"",  ""서울특별시 동작구 남부순환로 지하 2089"", 226, ""2"");",
433,사당,4,서울특별시 동작구 동작대로 지하 3,37.47653,126.981685,2,,,"insert into safe_location (type, latitude, longitude, name, address, code, line) values (2, 37.47653, 126.981685,  ""사당"",  ""서울특별시 동작구 동작대로 지하 3"", 433, ""4"");",
1315,사릉,G,경기도 남양주시 진건읍 진건우회로 63,37.65108,127.176933,2,,,"insert into safe_location (type, latitude, longitude, name, address, code, line) values (2, 37.65108, 127.176933,  ""사릉"",  ""경기도 남양주시 진건읍 진건우회로 63"", 1315, ""G"");",
4124,사평,9,서울특별시 서초구 사평대로 지하 285,37.504206,127.015259,2,,,"insert into safe_location (type, latitude, longitude, name, address, code, line) values (2, 37.504206, 127.015259,  ""사평"",  ""서울특별시 서초구 사평대로 지하 285"", 4124, ""9"");",
1751,산본,4,경기도 군포시 번영로 504,37.358101,126.933274,2,,,"insert into safe_location (type, latitude, longitude, name, address, code, line) values (2, 37.358101, 126.933274,  ""산본"",  ""경기도 군포시 번영로 504"", 1751, ""4"");",
2822,산성,8,경기도 성남시 수정구 수정로 지하 365,37.457122,127.149908,2,,,"insert into safe_location (type, latitude, longitude, name, address, code, line) values (2, 37.457122, 127.149908,  ""산성"",  ""경기도 성남시 수정구 수정로 지하 365"", 2822, ""8"");",
4508,삼가,E,경기도 용인시 처인구 중부대로 1098,37.242115,127.168075,2,,,"insert into safe_location (type, latitude, longitude, name, address, code, line) values (2, 37.242115, 127.168075,  ""삼가"",  ""경기도 용인시 처인구 중부대로 1098"", 4508, ""E"");",
428,삼각지,4,서울특별시 용산구 한강대로 지하 180,37.534777,126.97311,2,,,"insert into safe_location (type, latitude, longitude, name, address, code, line) values (2, 37.534777, 126.97311,  ""삼각지"",  ""서울특별시 용산구 한강대로 지하 180"", 428, ""4"");",
2629,삼각지,6,서울특별시 용산구 한강대로 지하 185,37.534777,126.97311,2,,,"insert into safe_location (type, latitude, longitude, name, address, code, line) values (2, 37.534777, 126.97311,  ""삼각지"",  ""서울특별시 용산구 한강대로 지하 185"", 2629, ""6"");",
1503,삼동,KK,,37.409522,127.20336,,,,,
2759,삼산체육관,7,인천광역시 부평구 길주로 지하 713,37.506411,126.742153,2,,,"insert into safe_location (type, latitude, longitude, name, address, code, line) values (2, 37.506411, 126.742153,  ""삼산체육관"",  ""인천광역시 부평구 길주로 지하 713"", 2759, ""7"");",
219,삼성,2,서울특별시 강남구 테헤란로 지하 538,37.508844,127.06316,2,,,"insert into safe_location (type, latitude, longitude, name, address, code, line) values (2, 37.508844, 127.06316,  ""삼성"",  ""서울특별시 강남구 테헤란로 지하 538"", 219, ""2"");",
4128,삼성중앙,9,서울특별시 강남구 봉은사로 지하 501,37.513011,127.053282,2,,,"insert into safe_location (type, latitude, longitude, name, address, code, line) values (2, 37.513011, 127.053282,  ""삼성중앙"",  ""서울특별시 강남구 봉은사로 지하 501"", 4128, ""9"");",
1950,삼송,3,경기도 고양시 덕양구 삼송로 지하 194,37.653083,126.895558,2,,,"insert into safe_location (type, latitude, longitude, name, address, code, line) values (2, 37.653083, 126.895558,  ""삼송"",  ""경기도 고양시 덕양구 삼송로 지하 194"", 1950, ""3"");",
4706,삼양,UI,,,,,,,,
4707,삼양사거리,UI,,,,,,,,
1866,상갈,B,경기도 용인시 기흥구 금화로 지하 40,37.26181,127.108847,2,,,"insert into safe_location (type, latitude, longitude, name, address, code, line) values (2, 37.26181, 127.108847,  ""상갈"",  ""경기도 용인시 기흥구 금화로 지하 40"", 1866, ""B"");",
410,상계,4,서울특별시 노원구 상계로 182,37.660878,127.073572,2,,,"insert into safe_location (type, latitude, longitude, name, address, code, line) values (2, 37.660878, 127.073572,  ""상계"",  ""서울특별시 노원구 상계로 182"", 410, ""4"");",
2741,상도,7,서울특별시 동작구 상도로 지하 272,37.502834,126.94791,2,,,"insert into safe_location (type, latitude, longitude, name, address, code, line) values (2, 37.502834, 126.94791,  ""상도"",  ""서울특별시 동작구 상도로 지하 272"", 2741, ""7"");",
2758,상동,7,경기도 부천시 원미구 길주로 지하 104,37.505781,126.753083,2,,,"insert into safe_location (type, latitude, longitude, name, address, code, line) values (2, 37.505781, 126.753083,  ""상동"",  ""경기도 부천시 원미구 길주로 지하 104"", 2758, ""7"");",
1754,상록수,4,경기도 안산시 상록구 상록수로 61,37.302795,126.866489,2,,,"insert into safe_location (type, latitude, longitude, name, address, code, line) values (2, 37.302795, 126.866489,  ""상록수"",  ""경기도 안산시 상록구 상록수로 61"", 1754, ""4"");",
1202,상봉,K,서울특별시 중랑구 망우로 297,37.596362,127.085032,2,,,"insert into safe_location (type, latitude, longitude, name, address, code, line) values (2, 37.596362, 127.085032,  ""상봉"",  ""서울특별시 중랑구 망우로 297"", 1202, ""K"");",
1309,상봉,G,서울특별시 중랑구 망우로 297,37.596362,127.085032,2,,,"insert into safe_location (type, latitude, longitude, name, address, code, line) values (2, 37.596362, 127.085032,  ""상봉"",  ""서울특별시 중랑구 망우로 297"", 1309, ""G"");",
2722,상봉,7,서울특별시 중랑구 망우로 297,37.596362,127.085032,2,,,"insert into safe_location (type, latitude, longitude, name, address, code, line) values (2, 37.596362, 127.085032,  ""상봉"",  ""서울특별시 중랑구 망우로 297"", 2722, ""7"");",
2624,상수,6,서울특별시 마포구 독막로 지하 85,37.547716,126.922852,2,,,"insert into safe_location (type, latitude, longitude, name, address, code, line) values (2, 37.547716, 126.922852,  ""상수"",  ""서울특별시 마포구 독막로 지하 85"", 2624, ""6"");",
207,상왕십리,2,서울특별시 성동구 왕십리로 지하 374,37.564354,127.029354,2,,,"insert into safe_location (type, latitude, longitude, name, address, code, line) values (2, 37.564354, 127.029354,  ""상왕십리"",  ""서울특별시 성동구 왕십리로 지하 374"", 207, ""2"");",
2643,상월곡,6,서울특별시 성북구 화랑로 지하 157,37.606377,127.048491,2,,,"insert into safe_location (type, latitude, longitude, name, address, code, line) values (2, 37.606377, 127.048491,  ""상월곡"",  ""서울특별시 성북구 화랑로 지하 157"", 2643, ""6"");",
2554,상일동,5,서울특별시 강동구 고덕로 지하 359,37.556712,127.166417,2,,,"insert into safe_location (type, latitude, longitude, name, address, code, line) values (2, 37.556712, 127.166417,  ""상일동"",  ""서울특별시 강동구 고덕로 지하 359"", 2554, ""5"");",
1322,상천,G,경기도 가평군 청평면 상천역로 29,37.770246,127.454821,2,,,"insert into safe_location (type, latitude, longitude, name, address, code, line) values (2, 37.770246, 127.454821,  ""상천"",  ""경기도 가평군 청평면 상천역로 29"", 1322, ""G"");",
4317,상현,S,,37.297664,127.069342,,,,,
4609,새말,U,경기도 의정부시 장곡로 551,37.748885,127.06362,2,,,"insert into safe_location (type, latitude, longitude, name, address, code, line) values (2, 37.748885, 127.06362,  ""새말"",  ""경기도 의정부시 장곡로 551"", 4609, ""U"");",
2617,새절,6,서울특별시 은평구 증산로 지하 400,37.591148,126.913629,2,,,"insert into safe_location (type, latitude, longitude, name, address, code, line) values (2, 37.591148, 126.913629,  ""새절"",  ""서울특별시 은평구 증산로 지하 400"", 2617, ""6"");",
4116,샛강,9,서울특별시 영등포구 의사당대로 지하 166,37.517274,126.928422,2,,,"insert into safe_location (type, latitude, longitude, name, address, code, line) values (2, 37.517274, 126.928422,  ""샛강"",  ""서울특별시 영등포구 의사당대로 지하 166"", 4116, ""9"");",
1263,서강대,K,서울특별시 마포구 서강로 지하 118,37.551881,126.935711,2,,,"insert into safe_location (type, latitude, longitude, name, address, code, line) values (2, 37.551881, 126.935711,  ""서강대"",  ""서울특별시 마포구 서강로 지하 118"", 1263, ""K"");",
3210,서구청,I2,인천광역시 서구 심곡동 7-4,37.543742,126.676787,2,,,"insert into safe_location (type, latitude, longitude, name, address, code, line) values (2, 37.543742, 126.676787,  ""서구청"",  ""인천광역시 서구 심곡동 7-4"", 3210, ""I2"");",
2533,서대문,5,서울특별시 종로구 통일로 지하 126,37.565773,126.966641,2,,,"insert into safe_location (type, latitude, longitude, name, address, code, line) values (2, 37.565773, 126.966641,  ""서대문"",  ""서울특별시 종로구 통일로 지하 126"", 2533, ""5"");",
1749,서동탄,1,경기도 오산시 외삼미로15번길 75-60,37.195504,127.051672,2,,,"insert into safe_location (type, latitude, longitude, name, address, code, line) values (2, 37.195504, 127.051672,  ""서동탄"",  ""경기도 오산시 외삼미로15번길 75-60"", 1749, ""1"");",
3214,서부여성회관,I2,인천광역시 서구 석남동 629,37.506193,126.676203,2,,,"insert into safe_location (type, latitude, longitude, name, address, code, line) values (2, 37.506193, 126.676203,  ""서부여성회관"",  ""인천광역시 서구 석남동 629"", 3214, ""I2"");",
1009,서빙고,K,서울특별시 용산구 서빙고로 238,37.519594,126.988537,2,,,"insert into safe_location (type, latitude, longitude, name, address, code, line) values (2, 37.519594, 126.988537,  ""서빙고"",  ""서울특별시 용산구 서빙고로 238"", 1009, ""K"");",
150,서울,1,서울특별시 중구 세종대로 지하 2,37.554648,126.972559,2,,,"insert into safe_location (type, latitude, longitude, name, address, code, line) values (2, 37.554648, 126.972559,  ""서울"",  ""서울특별시 중구 세종대로 지하 2"", 150, ""1"");",
426,서울,4,서울특별시 용산구 한강대로 지하 392,37.554648,126.972559,2,,,"insert into safe_location (type, latitude, longitude, name, address, code, line) values (2, 37.554648, 126.972559,  ""서울"",  ""서울특별시 용산구 한강대로 지하 392"", 426, ""4"");",
1291,서울,A,서울특별시 용산구 청파로 378,37.554648,126.972559,2,,,"insert into safe_location (type, latitude, longitude, name, address, code, line) values (2, 37.554648, 126.972559,  ""서울"",  ""서울특별시 용산구 청파로 378"", 1291, ""A"");",
1251,서울(경의중앙선),K,서울특별시 용산구 한강대로 405,37.556328,126.969522,2,,,"insert into safe_location (type, latitude, longitude, name, address, code, line) values (2, 37.556328, 126.969522,  ""서울(경의중앙선)"",  ""서울특별시 용산구 한강대로 405"", 1251, ""K"");",
228,서울대입구,2,서울특별시 관악구 남부순환로 지하 1822,37.481247,126.952739,2,,,"insert into safe_location (type, latitude, longitude, name, address, code, line) values (2, 37.481247, 126.952739,  ""서울대입구"",  ""서울특별시 관악구 남부순환로 지하 1822"", 228, ""2"");",
1847,서울숲,B,서울특별시 성동구 왕십리로 지하 77,37.543617,127.044707,2,,,"insert into safe_location (type, latitude, longitude, name, address, code, line) values (2, 37.543617, 127.044707,  ""서울숲"",  ""서울특별시 성동구 왕십리로 지하 77"", 1847, ""B"");",
1722,서정리,1,경기도 평택시 탄현로 51,37.056496,127.052819,2,,,"insert into safe_location (type, latitude, longitude, name, address, code, line) values (2, 37.056496, 127.052819,  ""서정리"",  ""경기도 평택시 탄현로 51"", 1722, ""1"");",
224,서초,2,서울특별시 서초구 서초대로 지하 233,37.491897,127.007917,2,,,"insert into safe_location (type, latitude, longitude, name, address, code, line) values (2, 37.491897, 127.007917,  ""서초"",  ""서울특별시 서초구 서초대로 지하 233"", 224, ""2"");",
1855,서현,B,경기도 성남시 분당구 성남대로 지하 601,37.385126,127.123592,2,,,"insert into safe_location (type, latitude, longitude, name, address, code, line) values (2, 37.385126, 127.123592,  ""서현"",  ""경기도 성남시 분당구 성남대로 지하 601"", 1855, ""B"");",
1018,석계,1,서울특별시 노원구 화랑로 341,37.614805,127.065851,2,,,"insert into safe_location (type, latitude, longitude, name, address, code, line) values (2, 37.614805, 127.065851,  ""석계"",  ""서울특별시 노원구 화랑로 341"", 1018, ""1"");",
2645,석계,6,서울특별시 노원구 화랑로 지하 347-1,37.614805,127.065851,2,,,"insert into safe_location (type, latitude, longitude, name, address, code, line) values (2, 37.614805, 127.065851,  ""석계"",  ""서울특별시 노원구 화랑로 지하 347-1"", 2645, ""6"");",
3213,석남,I2,인천시 서구 석남동 629,37.506193,126.676203,2,,,"insert into safe_location (type, latitude, longitude, name, address, code, line) values (2, 37.506193, 126.676203,  ""석남"",  ""인천시 서구 석남동 629"", 3213, ""I2"");",
3220,석바위시장,I2,인천광역시 남구 주안동 1597,37.457611,126.692575,2,,,"insert into safe_location (type, latitude, longitude, name, address, code, line) values (2, 37.457611, 126.692575,  ""석바위시장"",  ""인천광역시 남구 주안동 1597"", 3220, ""I2"");",
1704,석수,1,경기도 안양시 만안구 경수대로 1431,37.435047,126.902295,2,,,"insert into safe_location (type, latitude, longitude, name, address, code, line) values (2, 37.435047, 126.902295,  ""석수"",  ""경기도 안양시 만안구 경수대로 1431"", 1704, ""1"");",
3222,석천사거리,I2,인천광역시 남동구 구월동 73-3,37.456805,126.709986,2,,,"insert into safe_location (type, latitude, longitude, name, address, code, line) values (2, 37.456805, 126.709986,  ""석천사거리"",  ""인천광역시 남동구 구월동 73-3"", 3222, ""I2"");",
2816,석촌,8,서울특별시 송파구 송파대로 지하 439,37.505431,127.106979,2,,,"insert into safe_location (type, latitude, longitude, name, address, code, line) values (2, 37.505431, 127.106979,  ""석촌"",  ""서울특별시 송파구 송파대로 지하 439"", 2816, ""8"");",
220,선릉,2,서울특별시 강남구 테헤란로 지하 340,37.504503,127.049008,2,,,"insert into safe_location (type, latitude, longitude, name, address, code, line) values (2, 37.504503, 127.049008,  ""선릉"",  ""서울특별시 강남구 테헤란로 지하 340"", 220, ""2"");",
1023,선릉,B,서울특별시 강남구 테헤란로 지하 340,37.504503,127.049008,2,,,"insert into safe_location (type, latitude, longitude, name, address, code, line) values (2, 37.504503, 127.049008,  ""선릉"",  ""서울특별시 강남구 테헤란로 지하 340"", 1023, ""B"");",
1450,선바위,4,경기도 과천시 중앙로 지하 440,37.451673,127.002303,2,,,"insert into safe_location (type, latitude, longitude, name, address, code, line) values (2, 37.451673, 127.002303,  ""선바위"",  ""경기도 과천시 중앙로 지하 440"", 1450, ""4"");",
4112,선유도,9,서울특별시 영등포구 양평로 지하 124,37.53802,126.893525,2,,,"insert into safe_location (type, latitude, longitude, name, address, code, line) values (2, 37.53802, 126.893525,  ""선유도"",  ""서울특별시 영등포구 양평로 지하 124"", 4112, ""9"");",
1850,선정릉,B,서울특별시 강남구 선릉로 지하 580,37.51098,127.043593,2,,,"insert into safe_location (type, latitude, longitude, name, address, code, line) values (2, 37.51098, 127.043593,  ""선정릉"",  ""서울특별시 강남구 선릉로 지하 580"", 1850, ""B"");",
4127,선정릉,9,서울특별시 강남구 선릉로 지하 580,37.51098,127.043593,2,,,"insert into safe_location (type, latitude, longitude, name, address, code, line) values (2, 37.51098, 127.043593,  ""선정릉"",  ""서울특별시 강남구 선릉로 지하 580"", 4127, ""9"");",
3128,선학,I,인천광역시 연수구 경원대로 지하 480,37.426684,126.698863,2,,,"insert into safe_location (type, latitude, longitude, name, address, code, line) values (2, 37.426684, 126.698863,  ""선학"",  ""인천광역시 연수구 경원대로 지하 480"", 3128, ""I"");",
1711,성균관대,1,경기도 수원시 장안구 서부로 2149,37.300349,126.97075,2,,,"insert into safe_location (type, latitude, longitude, name, address, code, line) values (2, 37.300349, 126.97075,  ""성균관대"",  ""경기도 수원시 장안구 서부로 2149"", 1711, ""1"");",
4316,성복,S,,37.313335,127.0801,,,,,
211,성수,2,서울특별시 성동구 아차산로 100,37.544581,127.055961,2,,,"insert into safe_location (type, latitude, longitude, name, address, code, line) values (2, 37.544581, 127.055961,  ""성수"",  ""서울특별시 성동구 아차산로 100"", 211, ""2"");",
418,성신여대입구,4,서울특별시 성북구 동소문로 지하 102,37.592624,127.016403,2,,,"insert into safe_location (type, latitude, longitude, name, address, code, line) values (2, 37.592624, 127.016403,  ""성신여대입구"",  ""서울특별시 성북구 동소문로 지하 102"", 418, ""4"");",
4711,성신여대입구,UI,,37.592624,127.016403,,,,,
1725,성환,1,충청남도 천안시 서북구 성환읍 성환1로 237-5,36.916076,127.126964,2,,,"insert into safe_location (type, latitude, longitude, name, address, code, line) values (2, 36.916076, 127.126964,  ""성환"",  ""충청남도 천안시 서북구 성환읍 성환1로 237-5"", 1725, ""1"");",
1715,세류,1,경기도 수원시 권선구 정조로 393-1,37.245025,127.013222,2,,,"insert into safe_location (type, latitude, longitude, name, address, code, line) values (2, 37.245025, 127.013222,  ""세류"",  ""경기도 수원시 권선구 정조로 393-1"", 1715, ""1"");",
1717,세마,1,경기도 오산시 세마역로 88,37.187533,127.04318,2,,,"insert into safe_location (type, latitude, longitude, name, address, code, line) values (2, 37.187533, 127.04318,  ""세마"",  ""경기도 오산시 세마역로 88"", 1717, ""1"");",
1510,세종대왕릉,KK,,37.295309,127.570938,,,,,
3137,센트럴파크,I,인천광역시 연수구 인천타워대로 지하 240,37.393054,126.634729,2,,,"insert into safe_location (type, latitude, longitude, name, address, code, line) values (2, 37.393054, 126.634729,  ""센트럴파크"",  ""인천광역시 연수구 인천타워대로 지하 240"", 3137, ""I"");",
1880,소래포구,SU,인천광역시 남동구 소래역로 51,37.40095,126.733522,2,,,"insert into safe_location (type, latitude, longitude, name, address, code, line) values (2, 37.40095, 126.733522,  ""소래포구"",  ""인천광역시 남동구 소래역로 51"", 1880, ""SU"");",
1814,소사,1,경기도 부천시 소사구 소사로 272,37.482753,126.79544,2,,,"insert into safe_location (type, latitude, longitude, name, address, code, line) values (2, 37.482753, 126.79544,  ""소사"",  ""경기도 부천시 소사구 소사로 272"", 1814, ""1"");",
1916,소요산,1,경기도 동두천시 평화로 2925,37.9481,127.061034,2,,,"insert into safe_location (type, latitude, longitude, name, address, code, line) values (2, 37.9481, 127.061034,  ""소요산"",  ""경기도 동두천시 평화로 2925"", 1916, ""1"");",
4702,솔밭공원,UI,,,,,,,,
4708,솔샘,UI,,,,,,,,
1805,송내,1,경기도 부천시 소사구 송내대로 43,37.4876,126.753664,2,,,"insert into safe_location (type, latitude, longitude, name, address, code, line) values (2, 37.4876, 126.753664,  ""송내"",  ""경기도 부천시 소사구 송내대로 43"", 1805, ""1"");",
1886,송도,SU,인천광역시 연수구 비류대로 175,37.428514,126.657772,2,,,"insert into safe_location (type, latitude, longitude, name, address, code, line) values (2, 37.428514, 126.657772,  ""송도"",  ""인천광역시 연수구 비류대로 175"", 1886, ""SU"");",
4614,송산,U,경기도 의정부시 충의로 59,37.737279,127.087159,2,,,"insert into safe_location (type, latitude, longitude, name, address, code, line) values (2, 37.737279, 127.087159,  ""송산"",  ""경기도 의정부시 충의로 59"", 4614, ""U"");",
2514,송정,5,서울특별시 강서구 공항대로 지하 33,37.561184,126.811973,2,,,"insert into safe_location (type, latitude, longitude, name, address, code, line) values (2, 37.561184, 126.811973,  ""송정"",  ""서울특별시 강서구 공항대로 지하 33"", 2514, ""5"");",
1721,송탄,1,경기도 평택시 송탄공원로 43,37.075696,127.054301,2,,,"insert into safe_location (type, latitude, longitude, name, address, code, line) values (2, 37.075696, 127.054301,  ""송탄"",  ""경기도 평택시 송탄공원로 43"", 1721, ""1"");",
2817,송파,8,서울특별시 송파구 송파대로 지하 354,37.499703,127.112183,2,,,"insert into safe_location (type, latitude, longitude, name, address, code, line) values (2, 37.499703, 127.112183,  ""송파"",  ""서울특별시 송파구 송파대로 지하 354"", 2817, ""8"");",
1856,수내,B,경기도 성남시 분당구 성남대로 지하 491,37.378455,127.114322,2,,,"insert into safe_location (type, latitude, longitude, name, address, code, line) values (2, 37.378455, 127.114322,  ""수내"",  ""경기도 성남시 분당구 성남대로 지하 491"", 1856, ""B"");",
2713,수락산,7,서울특별시 노원구 동일로 지하 1662,37.67785,127.055315,2,,,"insert into safe_location (type, latitude, longitude, name, address, code, line) values (2, 37.67785, 127.055315,  ""수락산"",  ""서울특별시 노원구 동일로 지하 1662"", 2713, ""7"");",
1763,수리산,4,경기도 군포시 번영로 385,37.349801,126.925365,2,,,"insert into safe_location (type, latitude, longitude, name, address, code, line) values (2, 37.349801, 126.925365,  ""수리산"",  ""경기도 군포시 번영로 385"", 1763, ""4"");",
1267,수색,K,서울특별시 은평구 수색로 261-1,37.580842,126.895611,2,,,"insert into safe_location (type, latitude, longitude, name, address, code, line) values (2, 37.580842, 126.895611,  ""수색"",  ""서울특별시 은평구 수색로 261-1"", 1267, ""K"");",
339,수서,3,서울특별시 강남구 광평로 지하 270,37.487371,127.10188,2,,,"insert into safe_location (type, latitude, longitude, name, address, code, line) values (2, 37.487371, 127.10188,  ""수서"",  ""서울특별시 강남구 광평로 지하 270"", 339, ""3"");",
1030,수서,B,서울특별시 강남구 광평로 지하 270,37.487371,127.10188,2,,,"insert into safe_location (type, latitude, longitude, name, address, code, line) values (2, 37.487371, 127.10188,  ""수서"",  ""서울특별시 강남구 광평로 지하 270"", 1030, ""B"");",
1713,수원,1,경기도 수원시 팔달구 덕영대로 924,37.265974,126.999874,2,,,"insert into safe_location (type, latitude, longitude, name, address, code, line) values (2, 37.265974, 126.999874,  ""수원"",  ""경기도 수원시 팔달구 덕영대로 924"", 1713, ""1"");",
1846,수원,B,경기도 수원시 팔달구 덕영대로 924,37.265974,126.999874,2,,,"insert into safe_location (type, latitude, longitude, name, address, code, line) values (2, 37.265974, 126.999874,  ""수원"",  ""경기도 수원시 팔달구 덕영대로 924"", 1846, ""B"");",
1871,수원시청,B,경기도 수원시 권선구 효원로 지하 270,37.261911,127.030736,2,,,"insert into safe_location (type, latitude, longitude, name, address, code, line) values (2, 37.261911, 127.030736,  ""수원시청"",  ""경기도 수원시 권선구 효원로 지하 270"", 1871, ""B"");",
414,수유,4,서울특별시 강북구 도봉로 지하 338,37.638052,127.025732,2,,,"insert into safe_location (type, latitude, longitude, name, address, code, line) values (2, 37.638052, 127.025732,  ""수유"",  ""서울특별시 강북구 도봉로 지하 338"", 414, ""4"");",
2826,수진,8,경기도 성남시 수정구 산성대로 지하 200,37.437428,127.140722,2,,,"insert into safe_location (type, latitude, longitude, name, address, code, line) values (2, 37.437428, 127.140722,  ""수진"",  ""경기도 성남시 수정구 산성대로 지하 200"", 2826, ""8"");",
4315,수지구청,S,,37.322702,127.095026,,,,,
427,숙대입구,4,서울특별시 용산구 한강대로 지하 306,37.54456,126.972106,2,,,"insert into safe_location (type, latitude, longitude, name, address, code, line) values (2, 37.54456, 126.972106,  ""숙대입구"",  ""서울특별시 용산구 한강대로 지하 306"", 427, ""4"");",
2740,숭실대입구,7,서울특별시 동작구 상도로 지하 378,37.496029,126.953822,2,,,"insert into safe_location (type, latitude, longitude, name, address, code, line) values (2, 37.496029, 126.953822,  ""숭실대입구"",  ""서울특별시 동작구 상도로 지하 378"", 2740, ""7"");",
1889,숭의,SU,,37.460789,126.638297,,,,,
3219,시민공원,I2,인천광역시 남구 주안동 189,37.458335,126.681192,2,,,"insert into safe_location (type, latitude, longitude, name, address, code, line) values (2, 37.458335, 126.681192,  ""시민공원"",  ""인천광역시 남구 주안동 189"", 3219, ""I2"");",
151,시청,1,서울특별시 중구 세종대로 지하 101,37.564718,126.977108,2,,,"insert into safe_location (type, latitude, longitude, name, address, code, line) values (2, 37.564718, 126.977108,  ""시청"",  ""서울특별시 중구 세종대로 지하 101"", 151, ""1"");",
201,시청,2,서울특별시 중구 서소문로 지하 127,37.564718,126.977108,2,,,"insert into safe_location (type, latitude, longitude, name, address, code, line) values (2, 37.564718, 126.977108,  ""시청"",  ""서울특별시 중구 서소문로 지하 127"", 201, ""2"");",
4509,시청?용인대,E,경기도 용인시 처인구 중부대로 1199-1,37.239151,127.178406,2,,,"insert into safe_location (type, latitude, longitude, name, address, code, line) values (2, 37.239151, 127.178406,  ""시청?용인대"",  ""경기도 용인시 처인구 중부대로 1199-1"", 4509, ""E"");",
1864,신갈,B,경기도 용인시 기흥구 기흥로 지하 136,37.286102,127.111313,2,,,"insert into safe_location (type, latitude, longitude, name, address, code, line) values (2, 37.286102, 127.111313,  ""신갈"",  ""경기도 용인시 기흥구 기흥로 지하 136"", 1864, ""B"");",
2539,신금호,5,서울특별시 성동구 금호로 지하 154,37.554548,127.020331,2,,,"insert into safe_location (type, latitude, longitude, name, address, code, line) values (2, 37.554548, 127.020331,  ""신금호"",  ""서울특별시 성동구 금호로 지하 154"", 2539, ""5"");",
1032,신길,1,서울특별시 영등포구 영등포로 327,37.517122,126.917169,2,,,"insert into safe_location (type, latitude, longitude, name, address, code, line) values (2, 37.517122, 126.917169,  ""신길"",  ""서울특별시 영등포구 영등포로 327"", 1032, ""1"");",
2526,신길,5,서울특별시 영등포구 경인로114가길 지하 9,37.517122,126.917169,2,,,"insert into safe_location (type, latitude, longitude, name, address, code, line) values (2, 37.517122, 126.917169,  ""신길"",  ""서울특별시 영등포구 경인로114가길 지하 9"", 2526, ""5"");",
1760,신길온천,4,경기도 안산시 단원구 황고개로 2,37.338212,126.765844,2,,,"insert into safe_location (type, latitude, longitude, name, address, code, line) values (2, 37.338212, 126.765844,  ""신길온천"",  ""경기도 안산시 단원구 황고개로 2"", 1760, ""4"");",
1311,신내,G,서울특별시 중랑구 신내역로 20,37.612887,127.103218,2,,,"insert into safe_location (type, latitude, longitude, name, address, code, line) values (2, 37.612887, 127.103218,  ""신내"",  ""서울특별시 중랑구 신내역로 20"", 1311, ""G"");",
4125,신논현,9,서울특별시 강남구 봉은사로 지하 102,37.504598,127.02506,2,,,"insert into safe_location (type, latitude, longitude, name, address, code, line) values (2, 37.504598, 127.02506,  ""신논현"",  ""서울특별시 강남구 봉은사로 지하 102"", 4125, ""9"");",
245,신답,2,서울특별시 성동구 천호대로 232,37.57004,127.046481,2,,,"insert into safe_location (type, latitude, longitude, name, address, code, line) values (2, 37.57004, 127.046481,  ""신답"",  ""서울특별시 성동구 천호대로 232"", 245, ""2"");",
206,신당,2,서울특별시 중구 퇴계로 지하 431-1,37.565972,127.01782,2,,,"insert into safe_location (type, latitude, longitude, name, address, code, line) values (2, 37.565972, 127.01782,  ""신당"",  ""서울특별시 중구 퇴계로 지하 431-1"", 206, ""2"");",
2636,신당,6,서울특별시 중구 다산로 지하 260,37.565972,127.01782,2,,,"insert into safe_location (type, latitude, longitude, name, address, code, line) values (2, 37.565972, 127.01782,  ""신당"",  ""서울특별시 중구 다산로 지하 260"", 2636, ""6"");",
231,신대방,2,서울특별시 동작구 대림로 2,37.487462,126.913149,2,,,"insert into safe_location (type, latitude, longitude, name, address, code, line) values (2, 37.487462, 126.913149,  ""신대방"",  ""서울특별시 동작구 대림로 2"", 231, ""2"");",
2743,신대방삼거리,7,서울특별시 동작구 상도로 지하 76,37.499701,126.928276,2,,,"insert into safe_location (type, latitude, longitude, name, address, code, line) values (2, 37.499701, 126.928276,  ""신대방삼거리"",  ""서울특별시 동작구 상도로 지하 76"", 2743, ""7"");",
234,신도림,2,서울특별시 구로구 새말로 지하 117-21,37.508725,126.891295,2,,,"insert into safe_location (type, latitude, longitude, name, address, code, line) values (2, 37.508725, 126.891295,  ""신도림"",  ""서울특별시 구로구 새말로 지하 117-21"", 234, ""2"");",
1007,신도림,1,서울특별시 구로구 새말로 117-21,37.508725,126.891295,2,,,"insert into safe_location (type, latitude, longitude, name, address, code, line) values (2, 37.508725, 126.891295,  ""신도림"",  ""서울특별시 구로구 새말로 117-21"", 1007, ""1"");",
1507,신둔도예촌,KK,,37.317185,127.40476,,,,,
230,신림,2,서울특별시 관악구 남부순환로 지하 1614,37.484201,126.929715,2,,,"insert into safe_location (type, latitude, longitude, name, address, code, line) values (2, 37.484201, 126.929715,  ""신림"",  ""서울특별시 관악구 남부순환로 지하 1614"", 230, ""2"");",
4111,신목동,9,서울특별시 양천구 목동중앙로 지하 217,37.544277,126.88308,2,,,"insert into safe_location (type, latitude, longitude, name, address, code, line) values (2, 37.544277, 126.88308,  ""신목동"",  ""서울특별시 양천구 목동중앙로 지하 217"", 4111, ""9"");",
4122,신반포,9,서울특별시 서초구 신반포로 지하 105,37.503415,126.995925,2,,,"insert into safe_location (type, latitude, longitude, name, address, code, line) values (2, 37.503415, 126.995925,  ""신반포"",  ""서울특별시 서초구 신반포로 지하 105"", 4122, ""9"");",
4104,신방화,9,서울특별시 강서구 방화대로 지하 301,37.567532,126.816601,2,,,"insert into safe_location (type, latitude, longitude, name, address, code, line) values (2, 37.567532, 126.816601,  ""신방화"",  ""서울특별시 강서구 방화대로 지하 301"", 4104, ""9"");",
327,신사,3,서울특별시 강남구 도산대로 지하 102,37.516334,127.020114,2,,,"insert into safe_location (type, latitude, longitude, name, address, code, line) values (2, 37.516334, 127.020114,  ""신사"",  ""서울특별시 강남구 도산대로 지하 102"", 327, ""3"");",
156,신설동,1,서울특별시 동대문구 왕산로 지하 1,37.575297,127.025087,2,,,"insert into safe_location (type, latitude, longitude, name, address, code, line) values (2, 37.575297, 127.025087,  ""신설동"",  ""서울특별시 동대문구 왕산로 지하 1"", 156, ""1"");",
246,신설동,2,서울특별시 동대문구 왕산로 지하 1,37.575297,127.025087,2,,,"insert into safe_location (type, latitude, longitude, name, address, code, line) values (2, 37.575297, 127.025087,  ""신설동"",  ""서울특별시 동대문구 왕산로 지하 1"", 246, ""2"");",
4713,신설동,UI,,37.575297,127.025087,,,,,
3129,신연수,I,인천광역시 연수구 경원대로 지하 368,37.41804,126.693863,2,,,"insert into safe_location (type, latitude, longitude, name, address, code, line) values (2, 37.41804, 126.693863,  ""신연수"",  ""인천광역시 연수구 경원대로 지하 368"", 3129, ""I"");",
429,신용산,4,서울특별시 용산구 한강대로 지하 112,37.52917,126.967894,2,,,"insert into safe_location (type, latitude, longitude, name, address, code, line) values (2, 37.52917, 126.967894,  ""신용산"",  ""서울특별시 용산구 한강대로 지하 112"", 429, ""4"");",
1213,신원,K,경기도 양평군 양서면 신원역길 7,37.525545,127.372921,2,,,"insert into safe_location (type, latitude, longitude, name, address, code, line) values (2, 37.525545, 127.372921,  ""신원"",  ""경기도 양평군 양서면 신원역길 7"", 1213, ""K"");",
1017,신이문,1,서울특별시 동대문구 한천로 472,37.601854,127.067325,2,,,"insert into safe_location (type, latitude, longitude, name, address, code, line) values (2, 37.601854, 127.067325,  ""신이문"",  ""서울특별시 동대문구 한천로 472"", 1017, ""1"");",
2520,신정,5,서울특별시 양천구 오목로 지하 179,37.524997,126.856191,2,,,"insert into safe_location (type, latitude, longitude, name, address, code, line) values (2, 37.524997, 126.856191,  ""신정"",  ""서울특별시 양천구 오목로 지하 179"", 2520, ""5"");",
249,신정네거리,2,서울특별시 양천구 중앙로 지하 261,37.520074,126.852912,2,,,"insert into safe_location (type, latitude, longitude, name, address, code, line) values (2, 37.520074, 126.852912,  ""신정네거리"",  ""서울특별시 양천구 중앙로 지하 261"", 249, ""2"");",
2756,신중동,7,경기도 부천시 원미구 길주로 지하 314,37.503048,126.77596,2,,,"insert into safe_location (type, latitude, longitude, name, address, code, line) values (2, 37.503048, 126.77596,  ""신중동"",  ""경기도 부천시 원미구 길주로 지하 314"", 2756, ""7"");",
1408,신창,1,충청남도 아산시 신창면 행목로 50,36.769502,126.951108,2,,,"insert into safe_location (type, latitude, longitude, name, address, code, line) values (2, 36.769502, 126.951108,  ""신창"",  ""충청남도 아산시 신창면 행목로 50"", 1408, ""1"");",
240,신촌,2,서울특별시 마포구 신촌로 지하 90,37.555134,126.936893,2,,,"insert into safe_location (type, latitude, longitude, name, address, code, line) values (2, 37.555134, 126.936893,  ""신촌"",  ""서울특별시 마포구 신촌로 지하 90"", 240, ""2"");",
1252,신촌(경의중앙선),K,서울특별시 서대문구 신촌역로 30,37.559783,126.942319,2,,,"insert into safe_location (type, latitude, longitude, name, address, code, line) values (2, 37.559783, 126.942319,  ""신촌(경의중앙선)"",  ""서울특별시 서대문구 신촌역로 30"", 1252, ""K"");",
1890,신포,SU,,37.46874,126.623853,,,,,
2745,신풍,7,서울특별시 영등포구 신풍로 지하 27,37.50008,126.90993,2,,,"insert into safe_location (type, latitude, longitude, name, address, code, line) values (2, 37.50008, 126.90993,  ""신풍"",  ""서울특별시 영등포구 신풍로 지하 27"", 2745, ""7"");",
2825,신흥,8,경기도 성남시 수정구 산성대로 지하 280,37.440918,127.147564,2,,,"insert into safe_location (type, latitude, longitude, name, address, code, line) values (2, 37.440918, 127.147564,  ""신흥"",  ""경기도 성남시 수정구 산성대로 지하 280"", 2825, ""8"");",
413,쌍문,4,서울특별시 도봉구 도봉로 지하 486-1,37.648627,127.034709,2,,,"insert into safe_location (type, latitude, longitude, name, address, code, line) values (2, 37.648627, 127.034709,  ""쌍문"",  ""서울특별시 도봉구 도봉로 지하 486-1"", 413, ""4"");",
1402,쌍용(나사렛대),1,충청남도 천안시 서북구 쌍용19로 20,36.793759,127.1214,2,,,"insert into safe_location (type, latitude, longitude, name, address, code, line) values (2, 36.793759, 127.1214,  ""쌍용(나사렛대)"",  ""충청남도 천안시 서북구 쌍용19로 20"", 1402, ""1"");",
1403,아산,1,충청남도 아산시 배방읍 희망로 90,36.792053,127.104361,2,,,"insert into safe_location (type, latitude, longitude, name, address, code, line) values (2, 36.792053, 127.104361,  ""아산"",  ""충청남도 아산시 배방읍 희망로 90"", 1403, ""1"");",
1215,아신,K,경기도 양평군 옥천면 아신역1길 23,37.51382,127.443173,2,,,"insert into safe_location (type, latitude, longitude, name, address, code, line) values (2, 37.51382, 127.443173,  ""아신"",  ""경기도 양평군 옥천면 아신역1길 23"", 1215, ""K"");",
3209,아시아드경기장,I2,인천광역시 서구 연희동 94-6,37.5517,126.677122,2,,,"insert into safe_location (type, latitude, longitude, name, address, code, line) values (2, 37.5517, 126.677122,  ""아시아드경기장"",  ""인천광역시 서구 연희동 94-6"", 3209, ""I2"");",
2546,아차산,5,서울특별시 광진구 천호대로 지하 657,37.551691,127.089761,2,,,"insert into safe_location (type, latitude, longitude, name, address, code, line) values (2, 37.551691, 127.089761,  ""아차산"",  ""서울특별시 광진구 천호대로 지하 657"", 2546, ""5"");",
242,아현,2,서울특별시 마포구 신촌로 지하 270,37.557345,126.956141,2,,,"insert into safe_location (type, latitude, longitude, name, address, code, line) values (2, 37.557345, 126.956141,  ""아현"",  ""서울특별시 마포구 신촌로 지하 270"", 242, ""2"");",
318,안국,3,서울특별시 종로구 율곡로 지하 62,37.576477,126.985443,2,,,"insert into safe_location (type, latitude, longitude, name, address, code, line) values (2, 37.576477, 126.985443,  ""안국"",  ""서울특별시 종로구 율곡로 지하 62"", 318, ""3"");",
1759,안산,4,경기도 안산시 단원구 중앙대로 462,37.327082,126.788532,2,,,"insert into safe_location (type, latitude, longitude, name, address, code, line) values (2, 37.327082, 126.788532,  ""안산"",  ""경기도 안산시 단원구 중앙대로 462"", 1759, ""4"");",
2640,안암,6,서울특별시 성북구 인촌로 지하 89,37.586272,127.029005,2,,,"insert into safe_location (type, latitude, longitude, name, address, code, line) values (2, 37.586272, 127.029005,  ""안암"",  ""서울특별시 성북구 인촌로 지하 89"", 2640, ""6"");",
1706,안양,1,경기도 안양시 만안구 만안로 232,37.401592,126.922874,2,,,"insert into safe_location (type, latitude, longitude, name, address, code, line) values (2, 37.401592, 126.922874,  ""안양"",  ""경기도 안양시 만안구 만안로 232"", 1706, ""1"");",
2811,암사,8,서울특별시 강동구 올림픽로 지하 776,37.55021,127.127562,2,,,"insert into safe_location (type, latitude, longitude, name, address, code, line) values (2, 37.55021, 127.127562,  ""암사"",  ""서울특별시 강동구 올림픽로 지하 776"", 2811, ""8"");",
326,압구정,3,서울특별시 강남구 압구정로 지하 172,37.527072,127.028461,2,,,"insert into safe_location (type, latitude, longitude, name, address, code, line) values (2, 37.527072, 127.028461,  ""압구정"",  ""서울특별시 강남구 압구정로 지하 172"", 326, ""3"");",
1848,압구정로데오,B,서울특별시 강남구 압구정로 지하 402,37.527381,127.040534,2,,,"insert into safe_location (type, latitude, longitude, name, address, code, line) values (2, 37.527381, 127.040534,  ""압구정로데오"",  ""서울특별시 강남구 압구정로 지하 402"", 1848, ""B"");",
2531,애오개,5,서울특별시 마포구 마포대로 지하 210,37.553736,126.95682,2,,,"insert into safe_location (type, latitude, longitude, name, address, code, line) values (2, 37.553736, 126.95682,  ""애오개"",  ""서울특별시 마포구 마포대로 지하 210"", 2531, ""5"");",
1277,야당,K,,37.712327,126.761356,,,,,
1854,야탑,B,경기도 성남시 분당구 성남대로 지하 903,37.411185,127.128715,2,,,"insert into safe_location (type, latitude, longitude, name, address, code, line) values (2, 37.411185, 127.128715,  ""야탑"",  ""경기도 성남시 분당구 성남대로 지하 903"", 1854, ""B"");",
323,약수,3,서울특별시 중구 다산로 지하 122,37.55434,127.010655,2,,,"insert into safe_location (type, latitude, longitude, name, address, code, line) values (2, 37.55434, 127.010655,  ""약수"",  ""서울특별시 중구 다산로 지하 122"", 323, ""3"");",
2634,약수,6,서울특별시 중구 다산로 지하 115,37.55434,127.010655,2,,,"insert into safe_location (type, latitude, longitude, name, address, code, line) values (2, 37.55434, 127.010655,  ""약수"",  ""서울특별시 중구 다산로 지하 115"", 2634, ""6"");",
1212,양수,K,경기도 양평군 양서면 목왕로 55-10,37.545981,127.329098,2,,,"insert into safe_location (type, latitude, longitude, name, address, code, line) values (2, 37.545981, 127.329098,  ""양수"",  ""경기도 양평군 양서면 목왕로 55-10"", 1212, ""K"");",
1204,양원,K,서울특별시 중랑구 송림길 147,37.606596,127.107906,2,,,"insert into safe_location (type, latitude, longitude, name, address, code, line) values (2, 37.606596, 127.107906,  ""양원"",  ""서울특별시 중랑구 송림길 147"", 1204, ""K"");",
332,양재,3,서울특별시 서초구 남부순환로 지하 2585,37.484147,127.034631,2,,,"insert into safe_location (type, latitude, longitude, name, address, code, line) values (2, 37.484147, 127.034631,  ""양재"",  ""서울특별시 서초구 남부순환로 지하 2585"", 332, ""3"");",
4308,양재,S,서울특별시 서초구 남부순환로 지하 2585,37.484147,127.034631,2,,,"insert into safe_location (type, latitude, longitude, name, address, code, line) values (2, 37.484147, 127.034631,  ""양재"",  ""서울특별시 서초구 남부순환로 지하 2585"", 4308, ""S"");",
4309,양재시민의숲,S,서울특별시 서초구 매헌로 지하 116,37.470023,127.03842,2,,,"insert into safe_location (type, latitude, longitude, name, address, code, line) values (2, 37.470023, 127.03842,  ""양재시민의숲"",  ""서울특별시 서초구 매헌로 지하 116"", 4309, ""S"");",
1207,양정,K,경기도 남양주시 경강로 237,37.60533,127.19364,2,,,"insert into safe_location (type, latitude, longitude, name, address, code, line) values (2, 37.60533, 127.19364,  ""양정"",  ""경기도 남양주시 경강로 237"", 1207, ""K"");",
1909,양주,1,경기도 양주시 평화로 919,37.774381,127.044708,2,,,"insert into safe_location (type, latitude, longitude, name, address, code, line) values (2, 37.774381, 127.044708,  ""양주"",  ""경기도 양주시 평화로 919"", 1909, ""1"");",
248,양천구청,2,서울특별시 양천구 목동로3길 지하 33,37.512398,126.865819,2,,,"insert into safe_location (type, latitude, longitude, name, address, code, line) values (2, 37.512398, 126.865819,  ""양천구청"",  ""서울특별시 양천구 목동로3길 지하 33"", 248, ""2"");",
4106,양천향교,9,서울특별시 강서구 양천로 지하 341,37.568381,126.841333,2,,,"insert into safe_location (type, latitude, longitude, name, address, code, line) values (2, 37.568381, 126.841333,  ""양천향교"",  ""서울특별시 강서구 양천로 지하 341"", 4106, ""9"");",
2523,양평,5,서울특별시 영등포구 양산로 지하 21,37.525648,126.885778,2,,,"insert into safe_location (type, latitude, longitude, name, address, code, line) values (2, 37.525648, 126.885778,  ""양평"",  ""서울특별시 영등포구 양산로 지하 21"", 2523, ""5"");",
1217,양평(경의중앙선),K,경기도 양평군 양평읍 역전길 30,37.492832,127.491814,2,,,"insert into safe_location (type, latitude, longitude, name, address, code, line) values (2, 37.492832, 127.491814,  ""양평(경의중앙선)"",  ""경기도 양평군 양평읍 역전길 30"", 1217, ""K"");",
4613,어룡,U,경기도 의정부시 충의로 125,37.742802,127.085035,2,,,"insert into safe_location (type, latitude, longitude, name, address, code, line) values (2, 37.742802, 127.085035,  ""어룡"",  ""경기도 의정부시 충의로 125"", 4613, ""U"");",
2728,어린이대공원,7,서울특별시 광진구 능동로 지하 210,37.548014,127.074658,2,,,"insert into safe_location (type, latitude, longitude, name, address, code, line) values (2, 37.548014, 127.074658,  ""어린이대공원"",  ""서울특별시 광진구 능동로 지하 210"", 2728, ""7"");",
4504,어정,E,경기도 용인시 기흥구 어정로 128,37.274917,127.143714,2,,,"insert into safe_location (type, latitude, longitude, name, address, code, line) values (2, 37.274917, 127.143714,  ""어정"",  ""경기도 용인시 기흥구 어정로 128"", 4504, ""E"");",
4126,언주,9,서울특별시 강남구 봉은사로 지하 201,37.507287,127.033868,2,,,"insert into safe_location (type, latitude, longitude, name, address, code, line) values (2, 37.507287, 127.033868,  ""언주"",  ""서울특별시 강남구 봉은사로 지하 201"", 4126, ""9"");",
2528,여의나루,5,서울특별시 영등포구 여의동로 지하 343,37.527098,126.932901,2,,,"insert into safe_location (type, latitude, longitude, name, address, code, line) values (2, 37.527098, 126.932901,  ""여의나루"",  ""서울특별시 영등포구 여의동로 지하 343"", 2528, ""5"");",
2527,여의도,5,서울특별시 영등포구 여의나루로 지하 40,37.521624,126.924191,2,,,"insert into safe_location (type, latitude, longitude, name, address, code, line) values (2, 37.521624, 126.924191,  ""여의도"",  ""서울특별시 영등포구 여의나루로 지하 40"", 2527, ""5"");",
4115,여의도,9,서울특별시 영등포구 의사당대로 지하 101,37.521624,126.924191,2,,,"insert into safe_location (type, latitude, longitude, name, address, code, line) values (2, 37.521624, 126.924191,  ""여의도"",  ""서울특별시 영등포구 의사당대로 지하 101"", 4115, ""9"");",
1511,여주,KK,,,,,,,,
1803,역곡,1,경기도 부천시 원미구 역곡로 1,37.485178,126.811502,2,,,"insert into safe_location (type, latitude, longitude, name, address, code, line) values (2, 37.485178, 126.811502,  ""역곡"",  ""경기도 부천시 원미구 역곡로 1"", 1803, ""1"");",
221,역삼,2,서울특별시 강남구 테헤란로 지하 156,37.500622,127.036456,2,,,"insert into safe_location (type, latitude, longitude, name, address, code, line) values (2, 37.500622, 127.036456,  ""역삼"",  ""서울특별시 강남구 테헤란로 지하 156"", 221, ""2"");",
2612,역촌,6,서울특별시 은평구 서오릉로 지하 63,37.606021,126.922744,2,,,"insert into safe_location (type, latitude, longitude, name, address, code, line) values (2, 37.606021, 126.922744,  ""역촌"",  ""서울특별시 은평구 서오릉로 지하 63"", 2612, ""6"");",
1885,연수,SU,인천광역시 연수구 벚꽃로 115,37.417804,126.67894,2,,,"insert into safe_location (type, latitude, longitude, name, address, code, line) values (2, 37.417804, 126.67894,  ""연수"",  ""인천광역시 연수구 벚꽃로 115"", 1885, ""SU"");",
311,연신내,3,서울특별시 은평구 통일로 지하 849,37.619001,126.921008,2,,,"insert into safe_location (type, latitude, longitude, name, address, code, line) values (2, 37.619001, 126.921008,  ""연신내"",  ""서울특별시 은평구 통일로 지하 849"", 311, ""3"");",
2615,연신내,6,서울특별시 은평구 통일로 지하 849,37.619001,126.921008,2,,,"insert into safe_location (type, latitude, longitude, name, address, code, line) values (2, 37.619001, 126.921008,  ""연신내"",  ""서울특별시 은평구 통일로 지하 849"", 2615, ""6"");",
4110,염창,9,서울특별시 강서구 공항대로 지하 631,37.546936,126.874916,2,,,"insert into safe_location (type, latitude, longitude, name, address, code, line) values (2, 37.546936, 126.874916,  ""염창"",  ""서울특별시 강서구 공항대로 지하 631"", 4110, ""9"");",
1006,영등포,1,서울특별시 영등포구 경인로 846,37.515504,126.907628,2,,,"insert into safe_location (type, latitude, longitude, name, address, code, line) values (2, 37.515504, 126.907628,  ""영등포"",  ""서울특별시 영등포구 경인로 846"", 1006, ""1"");",
236,영등포구청,2,서울특별시 영등포구 당산로 지하 121,37.52497,126.895951,2,,,"insert into safe_location (type, latitude, longitude, name, address, code, line) values (2, 37.52497, 126.895951,  ""영등포구청"",  ""서울특별시 영등포구 당산로 지하 121"", 236, ""2"");",
2524,영등포구청,5,서울특별시 영등포구 양산로 지하 116,37.52497,126.895951,2,,,"insert into safe_location (type, latitude, longitude, name, address, code, line) values (2, 37.52497, 126.895951,  ""영등포구청"",  ""서울특별시 영등포구 양산로 지하 116"", 2524, ""5"");",
2525,영등포시장,5,서울특별시 영등포구 양산로 지하 200,37.522669,126.905139,2,,,"insert into safe_location (type, latitude, longitude, name, address, code, line) values (2, 37.522669, 126.905139,  ""영등포시장"",  ""서울특별시 영등포구 양산로 지하 200"", 2525, ""5"");",
4217,영종,A,,37.511466,126.5237,,,,,
1868,영통,B,경기도 수원시 영통구 봉영로 지하 1560,37.251568,127.071394,2,,,"insert into safe_location (type, latitude, longitude, name, address, code, line) values (2, 37.251568, 127.071394,  ""영통"",  ""경기도 수원시 영통구 봉영로 지하 1560"", 1868, ""B"");",
3125,예술회관,I,인천광역시 남동구 예술로 지하 172,37.449396,126.701012,2,,,"insert into safe_location (type, latitude, longitude, name, address, code, line) values (2, 37.449396, 126.701012,  ""예술회관"",  ""인천광역시 남동구 예술로 지하 172"", 3125, ""I"");",
342,오금,3,서울특별시 송파구 오금로 지하 321,37.502162,127.128111,2,,,"insert into safe_location (type, latitude, longitude, name, address, code, line) values (2, 37.502162, 127.128111,  ""오금"",  ""서울특별시 송파구 오금로 지하 321"", 342, ""3"");",
2558,오금,5,서울특별시 송파구 오금로 지하 321,37.502162,127.128111,2,,,"insert into safe_location (type, latitude, longitude, name, address, code, line) values (2, 37.502162, 127.128111,  ""오금"",  ""서울특별시 송파구 오금로 지하 321"", 2558, ""5"");",
1802,오류동,1,서울특별시 구로구 경인로20길 13,37.494526,126.845365,2,,,"insert into safe_location (type, latitude, longitude, name, address, code, line) values (2, 37.494526, 126.845365,  ""오류동"",  ""서울특별시 구로구 경인로20길 13"", 1802, ""1"");",
1859,오리,B,경기도 성남시 분당구 성남대로 지하 55,37.339824,127.108942,2,,,"insert into safe_location (type, latitude, longitude, name, address, code, line) values (2, 37.339824, 127.108942,  ""오리"",  ""경기도 성남시 분당구 성남대로 지하 55"", 1859, ""B"");",
2522,오목교,5,서울특별시 양천구 오목로 지하 342,37.524496,126.875181,2,,,"insert into safe_location (type, latitude, longitude, name, address, code, line) values (2, 37.524496, 126.875181,  ""오목교"",  ""서울특별시 양천구 오목로 지하 342"", 2522, ""5"");",
1216,오빈,K,경기도 양평군 양평읍 덕바위길 58,37.506062,127.473868,2,,,"insert into safe_location (type, latitude, longitude, name, address, code, line) values (2, 37.506062, 127.473868,  ""오빈"",  ""경기도 양평군 양평읍 덕바위길 58"", 1216, ""K"");",
1719,오산,1,경기도 오산시 역광장로 59,37.145885,127.06672,2,,,"insert into safe_location (type, latitude, longitude, name, address, code, line) values (2, 37.145885, 127.06672,  ""오산"",  ""경기도 오산시 역광장로 59"", 1719, ""1"");",
1718,오산대,1,경기도 오산시 청학로 236,37.168953,127.063197,2,,,"insert into safe_location (type, latitude, longitude, name, address, code, line) values (2, 37.168953, 127.063197,  ""오산대"",  ""경기도 오산시 청학로 236"", 1718, ""1"");",
1762,오이도,4,경기도 시흥시 역전로 430,37.362357,126.738714,2,,,"insert into safe_location (type, latitude, longitude, name, address, code, line) values (2, 37.362357, 126.738714,  ""오이도"",  ""경기도 시흥시 역전로 430"", 1762, ""4"");",
1877,오이도,SU,경기도 시흥시 역전로 430,37.362357,126.738714,2,,,"insert into safe_location (type, latitude, longitude, name, address, code, line) values (2, 37.362357, 126.738714,  ""오이도"",  ""경기도 시흥시 역전로 430"", 1877, ""SU"");",
325,옥수,3,서울특별시 성동구 동호로 지하 21,37.540685,127.017965,2,,,"insert into safe_location (type, latitude, longitude, name, address, code, line) values (2, 37.540685, 127.017965,  ""옥수"",  ""서울특별시 성동구 동호로 지하 21"", 325, ""3"");",
1011,옥수,K,서울특별시 성동구 동호로 21,37.540685,127.017965,2,,,"insert into safe_location (type, latitude, longitude, name, address, code, line) values (2, 37.540685, 127.017965,  ""옥수"",  ""서울특별시 성동구 동호로 21"", 1011, ""K"");",
1821,온수,1,서울특별시 구로구 부일로 872,37.492258,126.823388,2,,,"insert into safe_location (type, latitude, longitude, name, address, code, line) values (2, 37.492258, 126.823388,  ""온수"",  ""서울특별시 구로구 부일로 872"", 1821, ""1"");",
2752,온수,7,서울특별시 구로구 경인로3길 지하 64,37.492258,126.823388,2,,,"insert into safe_location (type, latitude, longitude, name, address, code, line) values (2, 37.492258, 126.823388,  ""온수"",  ""서울특별시 구로구 경인로3길 지하 64"", 2752, ""7"");",
1407,온양온천,1,충청남도 아산시 온천대로 1496,36.780483,127.003249,2,,,"insert into safe_location (type, latitude, longitude, name, address, code, line) values (2, 36.780483, 127.003249,  ""온양온천"",  ""충청남도 아산시 온천대로 1496"", 1407, ""1"");",
2556,올림픽공원,5,서울특별시 송파구 양재대로 지하 1233,37.516078,127.130848,2,,,"insert into safe_location (type, latitude, longitude, name, address, code, line) values (2, 37.516078, 127.130848,  ""올림픽공원"",  ""서울특별시 송파구 양재대로 지하 1233"", 2556, ""5"");",
3205,완정,I2,인천시 서구 당하동 1077-10,37.592928,126.673203,2,,,"insert into safe_location (type, latitude, longitude, name, address, code, line) values (2, 37.592928, 126.673203,  ""완정"",  ""인천시 서구 당하동 1077-10"", 3205, ""I2"");",
3202,왕길,I2,인천광역시 서구 왕길동 474-8번지,37.59518,126.642696,2,,,"insert into safe_location (type, latitude, longitude, name, address, code, line) values (2, 37.59518, 126.642696,  ""왕길"",  ""인천광역시 서구 왕길동 474-8번지"", 3202, ""I2"");",
208,왕십리,2,서울특별시 성동구 왕십리로 지하 300,37.561533,127.037732,2,,,"insert into safe_location (type, latitude, longitude, name, address, code, line) values (2, 37.561533, 127.037732,  ""왕십리"",  ""서울특별시 성동구 왕십리로 지하 300"", 208, ""2"");",
1013,왕십리,K,서울특별시 성동구 왕십리광장로 17,37.561533,127.037732,2,,,"insert into safe_location (type, latitude, longitude, name, address, code, line) values (2, 37.561533, 127.037732,  ""왕십리"",  ""서울특별시 성동구 왕십리광장로 17"", 1013, ""K"");",
1845,왕십리,B,서울특별시 성동구 완십리광장로 17,37.561533,127.037732,2,,,"insert into safe_location (type, latitude, longitude, name, address, code, line) values (2, 37.561533, 127.037732,  ""왕십리"",  ""서울특별시 성동구 완십리광장로 17"", 1845, ""B"");",
2541,왕십리,5,서울특별시 성동구 왕십리로 지하 300,37.561533,127.037732,2,,,"insert into safe_location (type, latitude, longitude, name, address, code, line) values (2, 37.561533, 127.037732,  ""왕십리"",  ""서울특별시 성동구 왕십리로 지하 300"", 2541, ""5"");",
1016,외대앞,1,서울특별시 동대문구 휘경로 27,37.596073,127.063549,2,,,"insert into safe_location (type, latitude, longitude, name, address, code, line) values (2, 37.596073, 127.063549,  ""외대앞"",  ""서울특별시 동대문구 휘경로 27"", 1016, ""1"");",
244,용답,2,서울특별시 성동구 용답길 86,37.561904,127.050899,2,,,"insert into safe_location (type, latitude, longitude, name, address, code, line) values (2, 37.561904, 127.050899,  ""용답"",  ""서울특별시 성동구 용답길 86"", 244, ""2"");",
250,용두,2,서울특별시 동대문구 천호대로 지하 129,37.574028,127.038091,2,,,"insert into safe_location (type, latitude, longitude, name, address, code, line) values (2, 37.574028, 127.038091,  ""용두"",  ""서울특별시 동대문구 천호대로 지하 129"", 250, ""2"");",
2725,용마산,7,서울특별시 중랑구 용마산로 지하 227,37.573647,127.086727,2,,,"insert into safe_location (type, latitude, longitude, name, address, code, line) values (2, 37.573647, 127.086727,  ""용마산"",  ""서울특별시 중랑구 용마산로 지하 227"", 2725, ""7"");",
1219,용문,K,경기도 양평군 용문면 용문역길 21,37.48223,127.594647,2,,,"insert into safe_location (type, latitude, longitude, name, address, code, line) values (2, 37.48223, 127.594647,  ""용문"",  ""경기도 양평군 용문면 용문역길 21"", 1219, ""K"");",
1003,용산,1,서울특별시 용산구 한강대로23길 55,37.529849,126.964561,2,,,"insert into safe_location (type, latitude, longitude, name, address, code, line) values (2, 37.529849, 126.964561,  ""용산"",  ""서울특별시 용산구 한강대로23길 55"", 1003, ""1"");",
1290,용산,K,서울특별시 용산구 한강대로23길 55,37.529849,126.964561,2,,,"insert into safe_location (type, latitude, longitude, name, address, code, line) values (2, 37.529849, 126.964561,  ""용산"",  ""서울특별시 용산구 한강대로23길 55"", 1290, ""K"");",
2517,우장산,5,서울특별시 강서구 강서로 지하 262,37.548768,126.836318,2,,,"insert into safe_location (type, latitude, longitude, name, address, code, line) values (2, 37.548768, 126.836318,  ""우장산"",  ""서울특별시 강서구 강서로 지하 262"", 2517, ""5"");",
1211,운길산,K,경기도 남양주시 조안면 운길산로 20,37.554669,127.310115,2,,,"insert into safe_location (type, latitude, longitude, name, address, code, line) values (2, 37.554669, 127.310115,  ""운길산"",  ""경기도 남양주시 조안면 운길산로 20"", 1211, ""K"");",
4512,운동장?송담대,E,경기도 용인시 처인구 금학로 409,37.237845,127.209198,2,,,"insert into safe_location (type, latitude, longitude, name, address, code, line) values (2, 37.237845, 127.209198,  ""운동장?송담대"",  ""경기도 용인시 처인구 금학로 409"", 4512, ""E"");",
4211,운서,A,인천광역시 중구 흰바위로59번길 26,37.492904,126.49379,2,,,"insert into safe_location (type, latitude, longitude, name, address, code, line) values (2, 37.492904, 126.49379,  ""운서"",  ""인천광역시 중구 흰바위로59번길 26"", 4211, ""A"");",
3227,운연,I2,인천광역시 남동구 운연동 131-7,37.440127,126.75997,2,,,"insert into safe_location (type, latitude, longitude, name, address, code, line) values (2, 37.440127, 126.75997,  ""운연"",  ""인천광역시 남동구 운연동 131-7"", 3227, ""I2"");",
1278,운정,K,경기도 파주시 운정역길 368,37.725826,126.767257,2,,,"insert into safe_location (type, latitude, longitude, name, address, code, line) values (2, 37.725826, 126.767257,  ""운정"",  ""경기도 파주시 운정역길 368"", 1278, ""K"");",
1951,원당,3,경기도 고양시 덕양구 고양대로 1429,37.653324,126.843041,2,,,"insert into safe_location (type, latitude, longitude, name, address, code, line) values (2, 37.653324, 126.843041,  ""원당"",  ""경기도 고양시 덕양구 고양대로 1429"", 1951, ""3"");",
1218,원덕,K,경기도 양평군 양평읍 원덕흑천길 94-22,37.468672,127.547076,2,,,"insert into safe_location (type, latitude, longitude, name, address, code, line) values (2, 37.468672, 127.547076,  ""원덕"",  ""경기도 양평군 양평읍 원덕흑천길 94-22"", 1218, ""K"");",
1884,원인재,SU,인천광역시 연수구 벚꽃로 195,37.412603,126.687389,2,,,"insert into safe_location (type, latitude, longitude, name, address, code, line) values (2, 37.412603, 126.687389,  ""원인재"",  ""인천광역시 연수구 벚꽃로 195"", 1884, ""SU"");",
3130,원인재,I,인천광역시 연수구 경원대로 지하 285,37.412603,126.687389,2,,,"insert into safe_location (type, latitude, longitude, name, address, code, line) values (2, 37.412603, 126.687389,  ""원인재"",  ""인천광역시 연수구 경원대로 지하 285"", 3130, ""I"");",
1948,원흥,3,경기도 고양시 덕양구 권율대로 681,37.650658,126.872642,2,,,"insert into safe_location (type, latitude, longitude, name, address, code, line) values (2, 37.650658, 126.872642,  ""원흥"",  ""경기도 고양시 덕양구 권율대로 681"", 1948, ""3"");",
1020,월계,1,서울특별시 노원구 월계로53길 40,37.633212,127.058831,2,,,"insert into safe_location (type, latitude, longitude, name, address, code, line) values (2, 37.633212, 127.058831,  ""월계"",  ""서울특별시 노원구 월계로53길 40"", 1020, ""1"");",
2642,월곡,6,서울특별시 성북구 월곡로 지하 107,37.601948,127.041518,2,,,"insert into safe_location (type, latitude, longitude, name, address, code, line) values (2, 37.601948, 127.041518,  ""월곡"",  ""서울특별시 성북구 월곡로 지하 107"", 2642, ""6"");",
1879,월곶,SU,경기도 시흥시 월곶중앙로14번길 56,37.391769,126.742699,2,,,"insert into safe_location (type, latitude, longitude, name, address, code, line) values (2, 37.391769, 126.742699,  ""월곶"",  ""경기도 시흥시 월곶중앙로14번길 56"", 1879, ""SU"");",
2620,월드컵경기장,6,서울특별시 마포구 월드컵로 지하 240,37.569532,126.899298,2,,,"insert into safe_location (type, latitude, longitude, name, address, code, line) values (2, 37.569532, 126.899298,  ""월드컵경기장"",  ""서울특별시 마포구 월드컵로 지하 240"", 2620, ""6"");",
1282,월롱,K,경기도 파주시 월롱면 통일로 980,37.796188,126.792587,2,,,"insert into safe_location (type, latitude, longitude, name, address, code, line) values (2, 37.796188, 126.792587,  ""월롱"",  ""경기도 파주시 월롱면 통일로 980"", 1282, ""K"");",
203,을지로3가,2,서울특별시 중구 을지로 지하 106,37.566295,126.99191,2,,,"insert into safe_location (type, latitude, longitude, name, address, code, line) values (2, 37.566295, 126.99191,  ""을지로3가"",  ""서울특별시 중구 을지로 지하 106"", 203, ""2"");",
320,을지로3가,3,서울특별시 중구 을지로 지하 129,37.566295,126.99191,2,,,"insert into safe_location (type, latitude, longitude, name, address, code, line) values (2, 37.566295, 126.99191,  ""을지로3가"",  ""서울특별시 중구 을지로 지하 129"", 320, ""3"");",
204,을지로4가,2,서울특별시 중구 을지로 지하 178,37.566941,126.998079,2,,,"insert into safe_location (type, latitude, longitude, name, address, code, line) values (2, 37.566941, 126.998079,  ""을지로4가"",  ""서울특별시 중구 을지로 지하 178"", 204, ""2"");",
2536,을지로4가,5,서울특별시 중구 창경궁로 지하 51,37.566941,126.998079,2,,,"insert into safe_location (type, latitude, longitude, name, address, code, line) values (2, 37.566941, 126.998079,  ""을지로4가"",  ""서울특별시 중구 창경궁로 지하 51"", 2536, ""5"");",
202,을지로입구,2,서울특별시 중구 을지로 지하 42,37.566014,126.982618,2,,,"insert into safe_location (type, latitude, longitude, name, address, code, line) values (2, 37.566014, 126.982618,  ""을지로입구"",  ""서울특별시 중구 을지로 지하 42"", 202, ""2"");",
1012,응봉,K,서울특별시 성동구 고산자로 123,37.549946,127.034538,2,,,"insert into safe_location (type, latitude, longitude, name, address, code, line) values (2, 37.549946, 127.034538,  ""응봉"",  ""서울특별시 성동구 고산자로 123"", 1012, ""K"");",
2611,응암,6,서울특별시 은평구 증산로 지하 477,37.598605,126.915577,2,,,"insert into safe_location (type, latitude, longitude, name, address, code, line) values (2, 37.598605, 126.915577,  ""응암"",  ""서울특별시 은평구 증산로 지하 477"", 2611, ""6"");",
1710,의왕,1,경기도 의왕시 철도박물관로 66,37.320852,126.948217,2,,,"insert into safe_location (type, latitude, longitude, name, address, code, line) values (2, 37.320852, 126.948217,  ""의왕"",  ""경기도 의왕시 철도박물관로 66"", 1710, ""1"");",
1906,의정부,1,경기도 의정부시 평화로 525,37.738415,127.045958,2,,,"insert into safe_location (type, latitude, longitude, name, address, code, line) values (2, 37.738415, 127.045958,  ""의정부"",  ""경기도 의정부시 평화로 525"", 1906, ""1"");",
4605,의정부시청,U,경기도 의정부시 의정로 69,37.739256,127.034781,2,,,"insert into safe_location (type, latitude, longitude, name, address, code, line) values (2, 37.739256, 127.034781,  ""의정부시청"",  ""경기도 의정부시 의정로 69"", 4605, ""U"");",
4607,의정부중앙,U,경기도 의정부시 호국로 1305,37.743676,127.049565,2,,,"insert into safe_location (type, latitude, longitude, name, address, code, line) values (2, 37.743676, 127.049565,  ""의정부중앙"",  ""경기도 의정부시 호국로 1305"", 4607, ""U"");",
241,이대,2,서울특별시 마포구 신촌로 지하 180,37.556733,126.946013,2,,,"insert into safe_location (type, latitude, longitude, name, address, code, line) values (2, 37.556733, 126.946013,  ""이대"",  ""서울특별시 마포구 신촌로 지하 180"", 241, ""2"");",
1502,이매,KK,,37.396104,127.12827,,,,,
1860,이매,B,경기도 성남시 분당구 성남대로 지하 738,37.396104,127.12827,2,,,"insert into safe_location (type, latitude, longitude, name, address, code, line) values (2, 37.396104, 127.12827,  ""이매"",  ""경기도 성남시 분당구 성남대로 지하 738"", 1860, ""B"");",
1508,이천,KK,,37.265579,127.44226,,,,,
430,이촌,4,서울특별시 용산구 서빙고로 지하 83,37.522272,126.974345,2,,,"insert into safe_location (type, latitude, longitude, name, address, code, line) values (2, 37.522272, 126.974345,  ""이촌"",  ""서울특별시 용산구 서빙고로 지하 83"", 430, ""4"");",
1008,이촌,K,서울특별시 용산구 이촌로71길 42,37.522272,126.974345,2,,,"insert into safe_location (type, latitude, longitude, name, address, code, line) values (2, 37.522272, 126.974345,  ""이촌"",  ""서울특별시 용산구 이촌로71길 42"", 1008, ""K"");",
2631,이태원,6,서울특별시 용산구 이태원로 지하 177,37.534488,126.994302,2,,,"insert into safe_location (type, latitude, longitude, name, address, code, line) values (2, 37.534488, 126.994302,  ""이태원"",  ""서울특별시 용산구 이태원로 지하 177"", 2631, ""6"");",
1455,인덕원,4,경기도 안양시 동안구 흥안대로 지하 529,37.401553,126.976715,2,,,"insert into safe_location (type, latitude, longitude, name, address, code, line) values (2, 37.401553, 126.976715,  ""인덕원"",  ""경기도 안양시 동안구 흥안대로 지하 529"", 1455, ""4"");",
1812,인천,1,인천광역시 중구 제물량로 269,37.476691,126.616936,2,,,"insert into safe_location (type, latitude, longitude, name, address, code, line) values (2, 37.476691, 126.616936,  ""인천"",  ""인천광역시 중구 제물량로 269"", 1812, ""1"");",
1891,인천,SU,,37.476691,126.616936,,,,,
3215,인천가좌,I2,인천광역시 서구 가좌동 110,37.4897,126.675208,2,,,"insert into safe_location (type, latitude, longitude, name, address, code, line) values (2, 37.4897, 126.675208,  ""인천가좌"",  ""인천광역시 서구 가좌동 110"", 3215, ""I2"");",
4213,인천국제공항,A,인천광역시 중구 공항로 271,37.447464,126.452508,2,,,"insert into safe_location (type, latitude, longitude, name, address, code, line) values (2, 37.447464, 126.452508,  ""인천국제공항"",  ""인천광역시 중구 공항로 271"", 4213, ""A"");",
1881,인천논현,SU,인천광역시 남동구 청능대로 567,37.400614,126.722478,2,,,"insert into safe_location (type, latitude, longitude, name, address, code, line) values (2, 37.400614, 126.722478,  ""인천논현"",  ""인천광역시 남동구 청능대로 567"", 1881, ""SU"");",
3226,인천대공원,I2,인천광역시 남동구 장수동 606-9,37.448769,126.752618,2,,,"insert into safe_location (type, latitude, longitude, name, address, code, line) values (2, 37.448769, 126.752618,  ""인천대공원"",  ""인천광역시 남동구 장수동 606-9"", 3226, ""I2"");",
3136,인천대입구,I,인천광역시 연수구 인천타워대로 지하 155,37.386007,126.639484,2,,,"insert into safe_location (type, latitude, longitude, name, address, code, line) values (2, 37.386007, 126.639484,  ""인천대입구"",  ""인천광역시 연수구 인천타워대로 지하 155"", 3136, ""I"");",
3124,인천시청,I,인천광역시 남동구 예술로 지하 264,37.457405,126.702221,2,,,"insert into safe_location (type, latitude, longitude, name, address, code, line) values (2, 37.457405, 126.702221,  ""인천시청"",  ""인천광역시 남동구 예술로 지하 264"", 3124, ""I"");",
3221,인천시청,I2,인천광역시 남동구 예술로 지하 264,37.457405,126.702221,2,,,"insert into safe_location (type, latitude, longitude, name, address, code, line) values (2, 37.457405, 126.702221,  ""인천시청"",  ""인천광역시 남동구 예술로 지하 264"", 3221, ""I2"");",
3126,인천터미널,I,인천광역시 남구 예술로 지하 85,37.442383,126.699706,2,,,"insert into safe_location (type, latitude, longitude, name, address, code, line) values (2, 37.442383, 126.699706,  ""인천터미널"",  ""인천광역시 남구 예술로 지하 85"", 3126, ""I"");",
1888,인하대,SU,,37.448493,126.649619,,,,,
1275,일산,K,경기도 고양시 일산서구 경의로 672,37.682077,126.769846,2,,,"insert into safe_location (type, latitude, longitude, name, address, code, line) values (2, 37.682077, 126.769846,  ""일산"",  ""경기도 고양시 일산서구 경의로 672"", 1275, ""K"");",
338,일원,3,서울특별시 강남구 일원로 지하 121,37.483681,127.08439,2,,,"insert into safe_location (type, latitude, longitude, name, address, code, line) values (2, 37.483681, 127.08439,  ""일원"",  ""서울특별시 강남구 일원로 지하 121"", 338, ""3"");",
3113,임학,I,인천광역시 계양구 장제로 지하 875,37.545059,126.738665,2,,,"insert into safe_location (type, latitude, longitude, name, address, code, line) values (2, 37.545059, 126.738665,  ""임학"",  ""인천광역시 계양구 장제로 지하 875"", 3113, ""I"");",
3116,작전,I,인천광역시 계양구 계양대로 지하 73,37.530415,126.722527,2,,,"insert into safe_location (type, latitude, longitude, name, address, code, line) values (2, 37.530415, 126.722527,  ""작전"",  ""인천광역시 계양구 계양대로 지하 73"", 3116, ""I"");",
216,잠실,2,서울특별시 송파구 올림픽로 지하 265,37.51395,127.102234,2,,,"insert into safe_location (type, latitude, longitude, name, address, code, line) values (2, 37.51395, 127.102234,  ""잠실"",  ""서울특별시 송파구 올림픽로 지하 265"", 216, ""2"");",
2815,잠실,8,서울특별시 송파구 올림픽로 305,37.51395,127.102234,2,,,"insert into safe_location (type, latitude, longitude, name, address, code, line) values (2, 37.51395, 127.102234,  ""잠실"",  ""서울특별시 송파구 올림픽로 305"", 2815, ""8"");",
215,잠실나루,2,서울특별시 송파구 오금로 20,37.520733,127.10379,2,,,"insert into safe_location (type, latitude, longitude, name, address, code, line) values (2, 37.520733, 127.10379,  ""잠실나루"",  ""서울특별시 송파구 오금로 20"", 215, ""2"");",
217,잠실새내,2,서울특별시 송파구 올림픽로 지하 140,37.511687,127.086162,2,,,"insert into safe_location (type, latitude, longitude, name, address, code, line) values (2, 37.511687, 127.086162,  ""잠실새내"",  ""서울특별시 송파구 올림픽로 지하 140"", 217, ""2"");",
328,잠원,3,서울특별시 서초구 잠원로4길 지하 46,37.512759,127.01122,2,,,"insert into safe_location (type, latitude, longitude, name, address, code, line) values (2, 37.512759, 127.01122,  ""잠원"",  ""서울특별시 서초구 잠원로4길 지하 46"", 328, ""3"");",
2742,장승배기,7,서울특별시 동작구 상도로 지하 188,37.504898,126.93915,2,,,"insert into safe_location (type, latitude, longitude, name, address, code, line) values (2, 37.504898, 126.93915,  ""장승배기"",  ""서울특별시 동작구 상도로 지하 188"", 2742, ""7"");",
2711,장암,7,경기도 의정부시 동일로 121,37.700109,127.053196,2,,,"insert into safe_location (type, latitude, longitude, name, address, code, line) values (2, 37.700109, 127.053196,  ""장암"",  ""경기도 의정부시 동일로 121"", 2711, ""7"");",
2820,장지,8,서울특별시 송파구 송파대로 지하 82,37.478703,127.126191,2,,,"insert into safe_location (type, latitude, longitude, name, address, code, line) values (2, 37.478703, 127.126191,  ""장지"",  ""서울특별시 송파구 송파대로 지하 82"", 2820, ""8"");",
2544,장한평,5,서울특별시 동대문구 천호대로 지하 405,37.56144,127.064623,2,,,"insert into safe_location (type, latitude, longitude, name, address, code, line) values (2, 37.56144, 127.064623,  ""장한평"",  ""서울특별시 동대문구 천호대로 지하 405"", 2544, ""5"");",
4517,전대?에버랜드,E,경기도 용인시 처인구 포곡읍 에버랜드로 143,37.285342,127.219561,2,,,"insert into safe_location (type, latitude, longitude, name, address, code, line) values (2, 37.285342, 127.219561,  ""전대?에버랜드"",  ""경기도 용인시 처인구 포곡읍 에버랜드로 143"", 4517, ""E"");",
4710,정릉,UI,,,,,,,,
1956,정발산,3,경기도 고양시 일산동구 중앙로 지하 1270,37.659477,126.773359,2,,,"insert into safe_location (type, latitude, longitude, name, address, code, line) values (2, 37.659477, 126.773359,  ""정발산"",  ""경기도 고양시 일산동구 중앙로 지하 1270"", 1956, ""3"");",
1454,정부과천청사,4,경기도 과천시 중앙로 지하 100,37.426513,126.98978,2,,,"insert into safe_location (type, latitude, longitude, name, address, code, line) values (2, 37.426513, 126.98978,  ""정부과천청사"",  ""경기도 과천시 중앙로 지하 100"", 1454, ""4"");",
1761,정왕,4,경기도 시흥시 마유로418번길 15,37.351735,126.742989,2,,,"insert into safe_location (type, latitude, longitude, name, address, code, line) values (2, 37.351735, 126.742989,  ""정왕"",  ""경기도 시흥시 마유로418번길 15"", 1761, ""4"");",
1857,정자,B,경기도 성남시 분당구 성남대로 지하 333,37.36706,127.108105,2,,,"insert into safe_location (type, latitude, longitude, name, address, code, line) values (2, 37.36706, 127.108105,  ""정자"",  ""경기도 성남시 분당구 성남대로 지하 333"", 1857, ""B"");",
4312,정자,S,경기도 성남시 분당구 성남대로 지하 333,37.36706,127.108105,2,,,"insert into safe_location (type, latitude, longitude, name, address, code, line) values (2, 37.36706, 127.108105,  ""정자"",  ""경기도 성남시 분당구 성남대로 지하 333"", 4312, ""S"");",
157,제기동,1,서울특별시 동대문구 왕산로 지하 93,37.578103,127.034893,2,,,"insert into safe_location (type, latitude, longitude, name, address, code, line) values (2, 37.578103, 127.034893,  ""제기동"",  ""서울특별시 동대문구 왕산로 지하 93"", 157, ""1"");",
1810,제물포,1,인천광역시 남구 경인로 129,37.466769,126.656666,2,,,"insert into safe_location (type, latitude, longitude, name, address, code, line) values (2, 37.466769, 126.656666,  ""제물포"",  ""인천광역시 남구 경인로 129"", 1810, ""1"");",
152,종각,1,서울특별시 종로구 종로 지하 55,37.570161,126.982923,2,,,"insert into safe_location (type, latitude, longitude, name, address, code, line) values (2, 37.570161, 126.982923,  ""종각"",  ""서울특별시 종로구 종로 지하 55"", 152, ""1"");",
153,종로3가,1,서울특별시 종로구 종로 지하 129,37.571607,126.991806,2,,,"insert into safe_location (type, latitude, longitude, name, address, code, line) values (2, 37.571607, 126.991806,  ""종로3가"",  ""서울특별시 종로구 종로 지하 129"", 153, ""1"");",
319,종로3가,3,서울특별시 종로구 돈화문로 지하 30,37.571607,126.991806,2,,,"insert into safe_location (type, latitude, longitude, name, address, code, line) values (2, 37.571607, 126.991806,  ""종로3가"",  ""서울특별시 종로구 돈화문로 지하 30"", 319, ""3"");",
2535,종로3가,5,서울특별시 종로구 돈화문로11길 지하 26,37.571607,126.991806,2,,,"insert into safe_location (type, latitude, longitude, name, address, code, line) values (2, 37.571607, 126.991806,  ""종로3가"",  ""서울특별시 종로구 돈화문로11길 지하 26"", 2535, ""5"");",
154,종로5가,1,서울특별시 종로구 종로 지하 216,37.570926,127.001849,2,,,"insert into safe_location (type, latitude, longitude, name, address, code, line) values (2, 37.570926, 127.001849,  ""종로5가"",  ""서울특별시 종로구 종로 지하 216"", 154, ""1"");",
218,종합운동장,2,서울특별시 송파구 올림픽로 지하 23,37.510997,127.073642,2,,,"insert into safe_location (type, latitude, longitude, name, address, code, line) values (2, 37.510997, 127.073642,  ""종합운동장"",  ""서울특별시 송파구 올림픽로 지하 23"", 218, ""2"");",
4130,종합운동장,9,서울특별시 송파구 올림픽로 지하 23,37.510997,127.073642,2,,,"insert into safe_location (type, latitude, longitude, name, address, code, line) values (2, 37.510997, 127.073642,  ""종합운동장"",  ""서울특별시 송파구 올림픽로 지하 23"", 4130, ""9"");",
1809,주안,1,인천광역시 남구 주안로 95-19,37.464941,126.679923,2,,,"insert into safe_location (type, latitude, longitude, name, address, code, line) values (2, 37.464941, 126.679923,  ""주안"",  ""인천광역시 남구 주안로 95-19"", 1809, ""1"");",
3218,주안,I2,인천광역시 남구 주안동 125,37.464941,126.679923,2,,,"insert into safe_location (type, latitude, longitude, name, address, code, line) values (2, 37.464941, 126.679923,  ""주안"",  ""인천광역시 남구 주안동 125"", 3218, ""I2"");",
3217,주안국가산단,I2,인천광역시 서구 가좌동 606-11,37.473703,126.68113,2,,,"insert into safe_location (type, latitude, longitude, name, address, code, line) values (2, 37.473703, 126.68113,  ""주안국가산단"",  ""인천광역시 서구 가좌동 606-11"", 3217, ""I2"");",
1957,주엽,3,경기도 고양시 일산서구 중앙로 지하 1432,37.670072,126.761334,2,,,"insert into safe_location (type, latitude, longitude, name, address, code, line) values (2, 37.670072, 126.761334,  ""주엽"",  ""경기도 고양시 일산서구 중앙로 지하 1432"", 1957, ""3"");",
1862,죽전,B,경기도 용인시 수지구 포은대로 530,37.324753,127.107395,2,,,"insert into safe_location (type, latitude, longitude, name, address, code, line) values (2, 37.324753, 127.107395,  ""죽전"",  ""경기도 용인시 수지구 포은대로 530"", 1862, ""B"");",
2716,중계,7,서울특별시 노원구 동일로 지하 1308-1,37.644583,127.064303,2,,,"insert into safe_location (type, latitude, longitude, name, address, code, line) values (2, 37.644583, 127.064303,  ""중계"",  ""서울특별시 노원구 동일로 지하 1308-1"", 2716, ""7"");",
2726,중곡,7,서울특별시 광진구 능동로 지하 417,37.565923,127.08432,2,,,"insert into safe_location (type, latitude, longitude, name, address, code, line) values (2, 37.565923, 127.08432,  ""중곡"",  ""서울특별시 광진구 능동로 지하 417"", 2726, ""7"");",
1822,중동,1,경기도 부천시 소사구 중동로 73,37.486562,126.764843,2,,,"insert into safe_location (type, latitude, longitude, name, address, code, line) values (2, 37.486562, 126.764843,  ""중동"",  ""경기도 부천시 소사구 중동로 73"", 1822, ""1"");",
1201,중랑,K,서울특별시 중랑구 중랑역로 9,37.594917,127.076116,2,,,"insert into safe_location (type, latitude, longitude, name, address, code, line) values (2, 37.594917, 127.076116,  ""중랑"",  ""서울특별시 중랑구 중랑역로 9"", 1201, ""K"");",
1307,중랑,G,서울특별시 중랑구 중랑역로 9,37.594917,127.076116,2,,,"insert into safe_location (type, latitude, longitude, name, address, code, line) values (2, 37.594917, 127.076116,  ""중랑"",  ""서울특별시 중랑구 중랑역로 9"", 1307, ""G"");",
1756,중앙,4,경기도 안산시 단원구 중앙대로 918,37.315941,126.838573,2,,,"insert into safe_location (type, latitude, longitude, name, address, code, line) values (2, 37.315941, 126.838573,  ""중앙"",  ""경기도 안산시 단원구 중앙대로 918"", 1756, ""4"");",
2721,중화,7,서울특별시 중랑구 동일로 지하 797,37.602545,127.079264,2,,,"insert into safe_location (type, latitude, longitude, name, address, code, line) values (2, 37.602545, 127.079264,  ""중화"",  ""서울특별시 중랑구 동일로 지하 797"", 2721, ""7"");",
4108,증미,9,서울특별시 강서구 양천로 지하 560,37.557402,126.861939,2,,,"insert into safe_location (type, latitude, longitude, name, address, code, line) values (2, 37.557402, 126.861939,  ""증미"",  ""서울특별시 강서구 양천로 지하 560"", 4108, ""9"");",
2618,증산,6,서울특별시 은평구 증산로 지하 306,37.583876,126.909645,2,,,"insert into safe_location (type, latitude, longitude, name, address, code, line) values (2, 37.583876, 126.909645,  ""증산"",  ""서울특별시 은평구 증산로 지하 306"", 2618, ""6"");",
4503,지석,E,경기도 용인시 기흥구 어정로 28,37.269606,127.136515,2,,,"insert into safe_location (type, latitude, longitude, name, address, code, line) values (2, 37.269606, 127.136515,  ""지석"",  ""경기도 용인시 기흥구 어정로 28"", 4503, ""E"");",
3135,지식정보단지,I,인천광역시 연수구 인천타워대로 지하 57,37.378384,126.645168,2,,,"insert into safe_location (type, latitude, longitude, name, address, code, line) values (2, 37.378384, 126.645168,  ""지식정보단지"",  ""인천광역시 연수구 인천타워대로 지하 57"", 3135, ""I"");",
1723,지제,1,경기도 평택시 경기대로 777,37.0188,127.070444,2,,,"insert into safe_location (type, latitude, longitude, name, address, code, line) values (2, 37.0188, 127.070444,  ""지제"",  ""경기도 평택시 경기대로 777"", 1723, ""1"");",
309,지축,3,경기도 고양시 덕양구 삼송로 300,37.648048,126.913951,2,,,"insert into safe_location (type, latitude, longitude, name, address, code, line) values (2, 37.648048, 126.913951,  ""지축"",  ""경기도 고양시 덕양구 삼송로 300"", 309, ""3"");",
1220,지평,K,경기도 양평군 지평면 지평역길 32,,,,,,,
1912,지행,1,경기도 동두천시 평화로 2285,37.892334,127.055716,2,,,"insert into safe_location (type, latitude, longitude, name, address, code, line) values (2, 37.892334, 127.055716,  ""지행"",  ""경기도 동두천시 평화로 2285"", 1912, ""1"");",
1726,직산,1,충청남도 천안시 서북구 직산읍 천안대로 1471-33,36.870593,127.143904,2,,,"insert into safe_location (type, latitude, longitude, name, address, code, line) values (2, 36.870593, 127.143904,  ""직산"",  ""충청남도 천안시 서북구 직산읍 천안대로 1471-33"", 1726, ""1"");",
1720,진위,1,경기도 평택시 진위면 경기대로 1855,37.109447,127.062278,2,,,"insert into safe_location (type, latitude, longitude, name, address, code, line) values (2, 37.109447, 127.062278,  ""진위"",  ""경기도 평택시 진위면 경기대로 1855"", 1720, ""1"");",
412,창동,4,서울특별시 도봉구 마들로11길 77,37.653166,127.047731,2,,,"insert into safe_location (type, latitude, longitude, name, address, code, line) values (2, 37.653166, 127.047731,  ""창동"",  ""서울특별시 도봉구 마들로11길 77"", 412, ""4"");",
1022,창동,1,서울특별시 도봉구 마들로11길 77,37.653166,127.047731,2,,,"insert into safe_location (type, latitude, longitude, name, address, code, line) values (2, 37.653166, 127.047731,  ""창동"",  ""서울특별시 도봉구 마들로11길 77"", 1022, ""1"");",
2638,창신,6,서울특별시 종로구 지봉로 지하 112,37.579661,127.015241,2,,,"insert into safe_location (type, latitude, longitude, name, address, code, line) values (2, 37.579661, 127.015241,  ""창신"",  ""서울특별시 종로구 지봉로 지하 112"", 2638, ""6"");",
1318,천마산,G,경기도 남양주시 화도읍 묵현로25번길 37,37.658978,127.285379,2,,,"insert into safe_location (type, latitude, longitude, name, address, code, line) values (2, 37.658978, 127.285379,  ""천마산"",  ""경기도 남양주시 화도읍 묵현로25번길 37"", 1318, ""G"");",
1728,천안,1,충청남도 천안시 동남구 대흥로 239,36.810005,127.146826,2,,,"insert into safe_location (type, latitude, longitude, name, address, code, line) values (2, 36.810005, 127.146826,  ""천안"",  ""충청남도 천안시 동남구 대흥로 239"", 1728, ""1"");",
2751,천왕,7,서울특별시 구로구 오리로 지하 1154,37.486637,126.838713,2,,,"insert into safe_location (type, latitude, longitude, name, address, code, line) values (2, 37.486637, 126.838713,  ""천왕"",  ""서울특별시 구로구 오리로 지하 1154"", 2751, ""7"");",
2548,천호,5,서울특별시 강동구 천호대로 지하 997,37.538397,127.123572,2,,,"insert into safe_location (type, latitude, longitude, name, address, code, line) values (2, 37.538397, 127.123572,  ""천호"",  ""서울특별시 강동구 천호대로 지하 997"", 2548, ""5"");",
2812,천호,8,서울특별시 강동구 천호대로 지하 997,37.538397,127.123572,2,,,"insert into safe_location (type, latitude, longitude, name, address, code, line) values (2, 37.538397, 127.123572,  ""천호"",  ""서울특별시 강동구 천호대로 지하 997"", 2812, ""8"");",
2749,철산,7,경기도 광명시 철산로 지하 13,37.47605,126.867911,2,,,"insert into safe_location (type, latitude, longitude, name, address, code, line) values (2, 37.47605, 126.867911,  ""철산"",  ""경기도 광명시 철산로 지하 13"", 2749, ""7"");",
4310,청계산입구,S,서울특별시 서초구 청계산로 지하 179,37.447211,127.055664,2,,,"insert into safe_location (type, latitude, longitude, name, address, code, line) values (2, 37.447211, 127.055664,  ""청계산입구"",  ""서울특별시 서초구 청계산로 지하 179"", 4310, ""S"");",
2538,청구,5,서울특별시 중구 청구로 지하 77,37.560245,127.013828,2,,,"insert into safe_location (type, latitude, longitude, name, address, code, line) values (2, 37.560245, 127.013828,  ""청구"",  ""서울특별시 중구 청구로 지하 77"", 2538, ""5"");",
2635,청구,6,서울특별시 중구 청구로 지하 77,37.560245,127.013828,2,,,"insert into safe_location (type, latitude, longitude, name, address, code, line) values (2, 37.560245, 127.013828,  ""청구"",  ""서울특별시 중구 청구로 지하 77"", 2635, ""6"");",
2731,청담,7,서울특별시 강남구 학동로 지하 508,37.519365,127.05335,2,,,"insert into safe_location (type, latitude, longitude, name, address, code, line) values (2, 37.519365, 127.05335,  ""청담"",  ""서울특별시 강남구 학동로 지하 508"", 2731, ""7"");",
4210,청라국제도시,A,인천광역시 서구 에코로 163,37.555878,126.625327,2,,,"insert into safe_location (type, latitude, longitude, name, address, code, line) values (2, 37.555878, 126.625327,  ""청라국제도시"",  ""인천광역시 서구 에코로 163"", 4210, ""A"");",
158,청량리,1,서울특별시 동대문구 왕산로 지하 205,37.580178,127.046835,2,,,"insert into safe_location (type, latitude, longitude, name, address, code, line) values (2, 37.580178, 127.046835,  ""청량리"",  ""서울특별시 동대문구 왕산로 지하 205"", 158, ""1"");",
1014,청량리,K,서울특별시 동대문구 왕산로 214,37.580178,127.046835,2,,,"insert into safe_location (type, latitude, longitude, name, address, code, line) values (2, 37.580178, 127.046835,  ""청량리"",  ""서울특별시 동대문구 왕산로 214"", 1014, ""K"");",
1305,청량리,G,서울특별시 동대문구 왕산로 214,37.580178,127.046835,2,,,"insert into safe_location (type, latitude, longitude, name, address, code, line) values (2, 37.580178, 127.046835,  ""청량리"",  ""서울특별시 동대문구 왕산로 214"", 1305, ""G"");",
1867,청명,B,경기도 수원시 영통구 봉영로 지하 1670,37.259489,127.078934,2,,,"insert into safe_location (type, latitude, longitude, name, address, code, line) values (2, 37.259489, 127.078934,  ""청명"",  ""경기도 수원시 영통구 봉영로 지하 1670"", 1867, ""B"");",
1321,청평,G,경기도 가평군 청평면 청평역로 97-33,37.735488,127.42661,2,,,"insert into safe_location (type, latitude, longitude, name, address, code, line) values (2, 37.735488, 127.42661,  ""청평"",  ""경기도 가평군 청평면 청평역로 97-33"", 1321, ""G"");",
4506,초당,E,경기도 용인시 기흥구 동백죽전대로 204,37.260752,127.159443,2,,,"insert into safe_location (type, latitude, longitude, name, address, code, line) values (2, 37.260752, 127.159443,  ""초당"",  ""경기도 용인시 기흥구 동백죽전대로 204"", 4506, ""E"");",
1505,초월,KK,,37.374419,127.299,,,,,
1758,초지,4,경기도 안산시 단원구 중앙대로 620,37.320646,126.805913,2,,,"insert into safe_location (type, latitude, longitude, name, address, code, line) values (2, 37.320646, 126.805913,  ""초지"",  ""경기도 안산시 단원구 중앙대로 620"", 1758, ""4"");",
432,총신대입구(이수),4,서울특별시 동작구 동작대로 지하 117,37.486263,126.981989,2,,,"insert into safe_location (type, latitude, longitude, name, address, code, line) values (2, 37.486263, 126.981989,  ""총신대입구(이수)"",  ""서울특별시 동작구 동작대로 지하 117"", 432, ""4"");",
2738,총신대입구(이수),7,서울특별시 동작구 사당로 지하 310,37.486263,126.981989,2,,,"insert into safe_location (type, latitude, longitude, name, address, code, line) values (2, 37.486263, 126.981989,  ""총신대입구(이수)"",  ""서울특별시 동작구 사당로 지하 310"", 2738, ""7"");",
2755,춘의,7,경기도 부천시 원미구 길주로 지하 406,37.503663,126.787036,2,,,"insert into safe_location (type, latitude, longitude, name, address, code, line) values (2, 37.503663, 126.787036,  ""춘의"",  ""경기도 부천시 원미구 길주로 지하 406"", 2755, ""7"");",
1329,춘천,G,강원도 춘천시 평화로 1,37.885054,127.717023,2,,,"insert into safe_location (type, latitude, longitude, name, address, code, line) values (2, 37.885054, 127.717023,  ""춘천"",  ""강원도 춘천시 평화로 1"", 1329, ""G"");",
321,충무로,3,서울특별시 중구 퇴계로 지하 199,37.561243,126.99428,2,,,"insert into safe_location (type, latitude, longitude, name, address, code, line) values (2, 37.561243, 126.99428,  ""충무로"",  ""서울특별시 중구 퇴계로 지하 199"", 321, ""3"");",
423,충무로,4,서울특별시 중구 퇴계로 지하 199,37.561243,126.99428,2,,,"insert into safe_location (type, latitude, longitude, name, address, code, line) values (2, 37.561243, 126.99428,  ""충무로"",  ""서울특별시 중구 퇴계로 지하 199"", 423, ""4"");",
243,충정로,2,서울특별시 서대문구 서소문로 지하 17,37.559973,126.963672,2,,,"insert into safe_location (type, latitude, longitude, name, address, code, line) values (2, 37.559973, 126.963672,  ""충정로"",  ""서울특별시 서대문구 서소문로 지하 17"", 243, ""2"");",
2532,충정로,5,서울특별시 서대문구 충정로 지하 28-1,37.559973,126.963672,2,,,"insert into safe_location (type, latitude, longitude, name, address, code, line) values (2, 37.559973, 126.963672,  ""충정로"",  ""서울특별시 서대문구 충정로 지하 28-1"", 2532, ""5"");",
3133,캠퍼스타운,I,인천광역시 연수구 송도국제대로 지하 66,37.387855,126.661673,2,,,"insert into safe_location (type, latitude, longitude, name, address, code, line) values (2, 37.387855, 126.661673,  ""캠퍼스타운"",  ""인천광역시 연수구 송도국제대로 지하 66"", 3133, ""I"");",
1276,탄현,K,경기도 고양시 일산서구 경의로 856,37.694023,126.761086,2,,,"insert into safe_location (type, latitude, longitude, name, address, code, line) values (2, 37.694023, 126.761086,  ""탄현"",  ""경기도 고양시 일산서구 경의로 856"", 1276, ""K"");",
4615,탑석,U,경기도 의정부시 충의로 20,37.733579,127.088704,2,,,"insert into safe_location (type, latitude, longitude, name, address, code, line) values (2, 37.733579, 127.088704,  ""탑석"",  ""경기도 의정부시 충의로 20"", 4615, ""U"");",
1404,탕정,1,,,,,,,,
2646,태릉입구,6,서울특별시 노원구 동일로 지하 992-1,37.617983,127.07512,2,,,"insert into safe_location (type, latitude, longitude, name, address, code, line) values (2, 37.617983, 127.07512,  ""태릉입구"",  ""서울특별시 노원구 동일로 지하 992-1"", 2646, ""6"");",
2719,태릉입구,7,서울특별시 노원구 동일로 지하 992-1,37.617983,127.07512,2,,,"insert into safe_location (type, latitude, longitude, name, address, code, line) values (2, 37.617983, 127.07512,  ""태릉입구"",  ""서울특별시 노원구 동일로 지하 992-1"", 2719, ""7"");",
1852,태평,B,경기도 성남시 수정구 성남대로 지하 1229,37.440019,127.127709,2,,,"insert into safe_location (type, latitude, longitude, name, address, code, line) values (2, 37.440019, 127.127709,  ""태평"",  ""경기도 성남시 수정구 성남대로 지하 1229"", 1852, ""B"");",
3134,테크노파크,I,인천광역시 연수구 송도국제대로 지하 150,37.382268,126.656365,2,,,"insert into safe_location (type, latitude, longitude, name, address, code, line) values (2, 37.382268, 126.656365,  ""테크노파크"",  ""인천광역시 연수구 송도국제대로 지하 150"", 3134, ""I"");",
1314,퇴계원,G,경기도 남양주시 퇴계원면 경춘북로 545,37.648311,127.143952,2,,,"insert into safe_location (type, latitude, longitude, name, address, code, line) values (2, 37.648311, 127.143952,  ""퇴계원"",  ""경기도 남양주시 퇴계원면 경춘북로 545"", 1314, ""G"");",
1283,파주,K,경기도 파주시 파주읍 주라위길 38,37.815298,126.792783,2,,,"insert into safe_location (type, latitude, longitude, name, address, code, line) values (2, 37.815298, 126.792783,  ""파주"",  ""경기도 파주시 파주읍 주라위길 38"", 1283, ""K"");",
1501,판교,KK,,37.394761,127.111217,,,,,
4311,판교,S,경기도 성남시 분당구 판교역로 지하 160,37.394761,127.111217,2,,,"insert into safe_location (type, latitude, longitude, name, address, code, line) values (2, 37.394761, 127.111217,  ""판교"",  ""경기도 성남시 분당구 판교역로 지하 160"", 4311, ""S"");",
1210,팔당,K,경기도 남양주시 와부읍 팔당로 107,37.547371,127.243939,2,,,"insert into safe_location (type, latitude, longitude, name, address, code, line) values (2, 37.547371, 127.243939,  ""팔당"",  ""경기도 남양주시 와부읍 팔당로 107"", 1210, ""K"");",
1317,평내호평,G,경기도 남양주시 경춘로 1375,37.653225,127.244493,2,,,"insert into safe_location (type, latitude, longitude, name, address, code, line) values (2, 37.653225, 127.244493,  ""평내호평"",  ""경기도 남양주시 경춘로 1375"", 1317, ""G"");",
1456,평촌,4,경기도 안양시 동안구 부림로 지하 123,37.394287,126.963883,2,,,"insert into safe_location (type, latitude, longitude, name, address, code, line) values (2, 37.394287, 126.963883,  ""평촌"",  ""경기도 안양시 동안구 부림로 지하 123"", 1456, ""4"");",
1724,평택,1,경기도 평택시 평택로 51,36.990726,127.085159,2,,,"insert into safe_location (type, latitude, longitude, name, address, code, line) values (2, 36.990726, 127.085159,  ""평택"",  ""경기도 평택시 평택로 51"", 1724, ""1"");",
1406,풍기,1,,,,,,,,
1274,풍산,K,경기도 고양시 일산동구 경의로 486,37.672346,126.786243,2,,,"insert into safe_location (type, latitude, longitude, name, address, code, line) values (2, 37.672346, 126.786243,  ""풍산"",  ""경기도 고양시 일산동구 경의로 486"", 1274, ""K"");",
2717,하계,7,서울특별시 노원구 동일로 지하 1196,37.636352,127.06799,2,,,"insert into safe_location (type, latitude, longitude, name, address, code, line) values (2, 37.636352, 127.06799,  ""하계"",  ""서울특별시 노원구 동일로 지하 1196"", 2717, ""7"");",
2733,학동,7,서울특별시 강남구 학동로 지하 180,37.514229,127.031656,2,,,"insert into safe_location (type, latitude, longitude, name, address, code, line) values (2, 37.514229, 127.031656,  ""학동"",  ""서울특별시 강남구 학동로 지하 180"", 2733, ""7"");",
336,학여울,3,서울특별시 강남구 남부순환로 지하 3104,37.496663,127.070594,2,,,"insert into safe_location (type, latitude, longitude, name, address, code, line) values (2, 37.496663, 127.070594,  ""학여울"",  ""서울특별시 강남구 남부순환로 지하 3104"", 336, ""3"");",
2632,한강진,6,서울특별시 용산구 이태원로 지하 287,37.539631,127.001725,2,,,"insert into safe_location (type, latitude, longitude, name, address, code, line) values (2, 37.539631, 127.001725,  ""한강진"",  ""서울특별시 용산구 이태원로 지하 287"", 2632, ""6"");",
1010,한남,K,서울특별시 용산구 독서당로6길 12-13,37.52943,127.009169,2,,,"insert into safe_location (type, latitude, longitude, name, address, code, line) values (2, 37.52943, 127.009169,  ""한남"",  ""서울특별시 용산구 독서당로6길 12-13"", 1010, ""K"");",
1755,한대앞,4,경기도 안산시 상록구 충장로 337,37.309689,126.85344,2,,,"insert into safe_location (type, latitude, longitude, name, address, code, line) values (2, 37.309689, 126.85344,  ""한대앞"",  ""경기도 안산시 상록구 충장로 337"", 1755, ""4"");",
419,한성대입구,4,서울특별시 성북구 삼선교로 지하 1,37.588458,127.006221,2,,,"insert into safe_location (type, latitude, longitude, name, address, code, line) values (2, 37.588458, 127.006221,  ""한성대입구"",  ""서울특별시 성북구 삼선교로 지하 1"", 419, ""4"");",
209,한양대,2,서울특별시 성동구 왕십리로 206,37.555273,127.043655,2,,,"insert into safe_location (type, latitude, longitude, name, address, code, line) values (2, 37.555273, 127.043655,  ""한양대"",  ""서울특별시 성동구 왕십리로 206"", 209, ""2"");",
1024,한티,B,서울특별시 강남구 선릉로 지하 228,37.496237,127.052873,2,,,"insert into safe_location (type, latitude, longitude, name, address, code, line) values (2, 37.496237, 127.052873,  ""한티"",  ""서울특별시 강남구 선릉로 지하 228"", 1024, ""B"");",
238,합정,2,서울특별시 마포구 양화로 지하 55,37.549463,126.913739,2,,,"insert into safe_location (type, latitude, longitude, name, address, code, line) values (2, 37.549463, 126.913739,  ""합정"",  ""서울특별시 마포구 양화로 지하 55"", 238, ""2"");",
2623,합정,6,서울특별시 마포구 양화로 지하 45,37.549463,126.913739,2,,,"insert into safe_location (type, latitude, longitude, name, address, code, line) values (2, 37.549463, 126.913739,  ""합정"",  ""서울특별시 마포구 양화로 지하 45"", 2623, ""6"");",
2540,행당,5,서울특별시 성동구 행당로 지하 89,37.557322,127.029476,2,,,"insert into safe_location (type, latitude, longitude, name, address, code, line) values (2, 37.557322, 127.029476,  ""행당"",  ""서울특별시 성동구 행당로 지하 89"", 2540, ""5"");",
1270,행신,K,경기도 고양시 덕양구 소원로 102,37.612102,126.834146,2,,,"insert into safe_location (type, latitude, longitude, name, address, code, line) values (2, 37.612102, 126.834146,  ""행신"",  ""경기도 고양시 덕양구 소원로 102"", 1270, ""K"");",
420,혜화,4,서울특별시 종로구 대학로 지하 120,37.582336,127.001844,2,,,"insert into safe_location (type, latitude, longitude, name, address, code, line) values (2, 37.582336, 127.001844,  ""혜화"",  ""서울특별시 종로구 대학로 지하 120"", 420, ""4"");",
1882,호구포,SU,인천광역시 남동구 호구포로 205,37.401637,126.708627,2,,,"insert into safe_location (type, latitude, longitude, name, address, code, line) values (2, 37.401637, 126.708627,  ""호구포"",  ""인천광역시 남동구 호구포로 205"", 1882, ""SU"");",
239,홍대입구,2,서울특별시 마포구 양화로 지하 160,37.557192,126.925381,2,,,"insert into safe_location (type, latitude, longitude, name, address, code, line) values (2, 37.557192, 126.925381,  ""홍대입구"",  ""서울특별시 마포구 양화로 지하 160"", 239, ""2"");",
1264,홍대입구,K,서울특별시 마포구 양화로 지하 188,37.557192,126.925381,2,,,"insert into safe_location (type, latitude, longitude, name, address, code, line) values (2, 37.557192, 126.925381,  ""홍대입구"",  ""서울특별시 마포구 양화로 지하 188"", 1264, ""K"");",
1293,홍대입구,A,서울특별시 마포구 양화로 지하 188,37.557192,126.925381,2,,,"insert into safe_location (type, latitude, longitude, name, address, code, line) values (2, 37.557192, 126.925381,  ""홍대입구"",  ""서울특별시 마포구 양화로 지하 188"", 1293, ""A"");",
314,홍제,3,서울특별시 서대문구 통일로 지하 440-1,37.589066,126.943736,2,,,"insert into safe_location (type, latitude, longitude, name, address, code, line) values (2, 37.589066, 126.943736,  ""홍제"",  ""서울특별시 서대문구 통일로 지하 440-1"", 314, ""3"");",
4705,화계,UI,,,,,,,,
2518,화곡,5,서울특별시 강서구 화곡로 지하 168,37.541513,126.840461,2,,,"insert into safe_location (type, latitude, longitude, name, address, code, line) values (2, 37.541513, 126.840461,  ""화곡"",  ""서울특별시 강서구 화곡로 지하 168"", 2518, ""5"");",
2647,화랑대,6,서울특별시 노원구 화랑로 지하 510,37.620064,127.084689,2,,,"insert into safe_location (type, latitude, longitude, name, address, code, line) values (2, 37.620064, 127.084689,  ""화랑대"",  ""서울특별시 노원구 화랑로 지하 510"", 2647, ""6"");",
1712,화서,1,경기도 수원시 팔달구 덕영대로 692,37.283862,126.989627,2,,,"insert into safe_location (type, latitude, longitude, name, address, code, line) values (2, 37.283862, 126.989627,  ""화서"",  ""경기도 수원시 팔달구 덕영대로 692"", 1712, ""1"");",
1268,화전,K,경기도 고양시 덕양구 화랑로 53,37.602888,126.868387,2,,,"insert into safe_location (type, latitude, longitude, name, address, code, line) values (2, 37.602888, 126.868387,  ""화전"",  ""경기도 고양시 덕양구 화랑로 53"", 1268, ""K"");",
1952,화정,3,경기도 고양시 덕양구 화정로 지하 60,37.634592,126.83265,2,,,"insert into safe_location (type, latitude, longitude, name, address, code, line) values (2, 37.634592, 126.83265,  ""화정"",  ""경기도 고양시 덕양구 화정로 지하 60"", 1952, ""3"");",
1015,회기,1,서울특별시 동대문구 회기로 196,37.58946,127.057583,2,,,"insert into safe_location (type, latitude, longitude, name, address, code, line) values (2, 37.58946, 127.057583,  ""회기"",  ""서울특별시 동대문구 회기로 196"", 1015, ""1"");",
1200,회기,K,서울특별시 동대문구 회기로 196,37.58946,127.057583,2,,,"insert into safe_location (type, latitude, longitude, name, address, code, line) values (2, 37.58946, 127.057583,  ""회기"",  ""서울특별시 동대문구 회기로 196"", 1200, ""K"");",
1306,회기,G,서울특별시 동대문구 회기로 196,37.58946,127.057583,2,,,"insert into safe_location (type, latitude, longitude, name, address, code, line) values (2, 37.58946, 127.057583,  ""회기"",  ""서울특별시 동대문구 회기로 196"", 1306, ""G"");",
1905,회룡,1,경기도 의정부시 평화로 363,37.724846,127.046895,2,,,"insert into safe_location (type, latitude, longitude, name, address, code, line) values (2, 37.724846, 127.046895,  ""회룡"",  ""경기도 의정부시 평화로 363"", 1905, ""1"");",
4602,회룡,U,경기도 의정부시 평화로 363,37.724846,127.046895,2,,,"insert into safe_location (type, latitude, longitude, name, address, code, line) values (2, 37.724846, 127.046895,  ""회룡"",  ""경기도 의정부시 평화로 363"", 4602, ""U"");",
425,회현,4,서울특별시 중구 퇴계로 지하 54,37.558514,126.978246,2,,,"insert into safe_location (type, latitude, longitude, name, address, code, line) values (2, 37.558514, 126.978246,  ""회현"",  ""서울특별시 중구 퇴계로 지하 54"", 425, ""4"");",
4611,효자,U,경기도 의정부시 부용로 159-40,37.754025,127.076902,2,,,"insert into safe_location (type, latitude, longitude, name, address, code, line) values (2, 37.754025, 127.076902,  ""효자"",  ""경기도 의정부시 부용로 159-40"", 4611, ""U"");",
1261,효창공원앞,K,,37.539261,126.961351,,,,,
2628,효창공원앞,6,서울특별시 용산구 백범로 지하 287,37.539261,126.961351,2,,,"insert into safe_location (type, latitude, longitude, name, address, code, line) values (2, 37.539261, 126.961351,  ""효창공원앞"",  ""서울특별시 용산구 백범로 지하 287"", 2628, ""6"");",
4119,흑석,9,서울특별시 동작구 현충로 지하 90,37.50877,126.963708,2,,,"insert into safe_location (type, latitude, longitude, name, address, code, line) values (2, 37.50877, 126.963708,  ""흑석"",  ""서울특별시 동작구 현충로 지하 90"", 4119, ""9"");",
4606,흥선,U,경기도 의정부시 호국로 1197,37.743302,127.037023,2,,,"insert into safe_location (type, latitude, longitude, name, address, code, line) values (2, 37.743302, 127.037023,  ""흥선"",  ""경기도 의정부시 호국로 1197"", 4606, ""U"");",